{"type":"FeatureCollection","features":[{"type":"Feature","geometry":{"type":"LineString","coordinates":[[128.966232,35.048086],[128.967396,35.047733],[128.967763,35.047653],[128.96811,35.047627],[128.968559,35.047665],[128.968924,35.047751],[128.969257,35.0479],[128.969439,35.048057],[128.96959,35.048229],[128.969625,35.0483],[128.969681,35.048414],[128.969765,35.048602],[128.970702,35.051263],[128.970984,35.05201],[128.971023,35.052274],[128.971033,35.052566],[128.970994,35.052871],[128.970791,35.053916],[128.9705,35.055437],[128.970484,35.055755],[128.970515,35.056103],[128.970618,35.056443],[128.970926,35.056965],[128.971436,35.057888]]},"properties":{"line":"부산 1호선","from":"다대포해수욕장","to":"다대포항","daily_down":6307.5,"daily_up":5356.8,"daily":11664.2,"daily_low":11664.2,"daily_high":11664.2,"km":1.5,"daily_down_low":6307.5,"daily_down_high":6307.5,"daily_up_low":5356.8,"daily_up_high":5356.8,"source":"busan_gravity","period":"2026-07 Mon-Fri mean","geometry_source":"osm","estimated":true}},{"type":"Feature","geometry":{"type":"LineString","coordinates":[[128.971436,35.057888],[128.971793,35.058534],[128.972043,35.058942],[128.972464,35.059235],[128.972851,35.059428],[128.973373,35.059621],[128.973902,35.059794],[128.974268,35.060079],[128.97462,35.060508],[128.974942,35.060836],[128.975365,35.061112],[128.975861,35.061371],[128.977202,35.062004],[128.978338,35.062842],[128.979172,35.063076],[128.979429,35.063239],[128.979557,35.063481],[128.97958,35.06376],[128.979572,35.064285],[128.979589,35.064566],[128.979671,35.064949],[128.979785,35.06544]]},"properties":{"line":"부산 1호선","from":"다대포항","to":"낫개","daily_down":9505.5,"daily_up":9004.9,"daily":18510.4,"daily_low":16469.7,"daily_high":19087.3,"km":1.1,"daily_down_low":8485.1,"daily_down_high":9793.9,"daily_up_low":7984.6,"daily_up_high":9293.4,"source":"busan_gravity","period":"2026-07 Mon-Fri mean","geometry_source":"osm","estimated":true}},{"type":"Feature","geometry":{"type":"LineString","coordinates":[[128.979785,35.06544],[128.979789,35.065455],[128.979959,35.066187],[128.979952,35.06655],[128.979843,35.066917],[128.979611,35.067274],[128.979328,35.06756],[128.978812,35.068073],[128.978416,35.068486],[128.978049,35.068981],[128.977818,35.069415],[128.976641,35.072755],[128.976596,35.073113],[128.976634,35.073489],[128.976718,35.073872],[128.976851,35.074627]]},"properties":{"line":"부산 1호선","from":"낫개","to":"신장림","daily_down":13533.7,"daily_up":13350.0,"daily":26883.7,"daily_low":21598.1,"daily_high":28505.6,"km":1.2,"daily_down_low":10890.9,"daily_down_high":14344.7,"daily_up_low":10707.1,"daily_up_high":14160.9,"source":"busan_gravity","period":"2026-07 Mon-Fri mean","geometry_source":"osm","estimated":true}},{"type":"Feature","geometry":{"type":"LineString","coordinates":[[128.976851,35.074627],[128.977441,35.077993],[128.97748,35.078502],[128.977469,35.079094],[128.977357,35.080562],[128.97737,35.080639]]},"properties":{"line":"부산 1호선","from":"신장림","to":"장림","daily_down":16267.9,"daily_up":16003.0,"daily":32270.9,"daily_low":24632.4,"daily_high":34765.7,"km":0.8,"daily_down_low":12448.6,"daily_down_high":17515.3,"daily_up_low":12183.8,"daily_up_high":17250.4,"source":"busan_gravity","period":"2026-07 Mon-Fri mean","geometry_source":"osm","estimated":true}},{"type":"Feature","geometry":{"type":"LineString","coordinates":[[128.97737,35.080639],[128.977387,35.081935],[128.977402,35.08253],[128.97753,35.085123],[128.977792,35.089232],[128.977776,35.089366],[128.977681,35.089492],[128.977466,35.089566],[128.974734,35.089721]]},"properties":{"line":"부산 1호선","from":"장림","to":"동매","daily_down":19210.0,"daily_up":18614.4,"daily":37824.4,"daily_low":27566.4,"daily_high":41341.4,"km":1.1,"daily_down_low":14081.0,"daily_down_high":20968.5,"daily_up_low":13485.4,"daily_up_high":20372.9,"source":"busan_gravity","period":"2026-07 Mon-Fri mean","geometry_source":"osm","estimated":true}},{"type":"Feature","geometry":{"type":"LineString","coordinates":[[128.974734,35.089721],[128.973442,35.089785],[128.972226,35.089846],[128.966065,35.090054],[128.965134,35.090044],[128.962442,35.090074],[128.961709,35.090332],[128.96113,35.090751],[128.96084,35.091241],[128.96077,35.091655],[128.960732,35.092267],[128.960725,35.092512],[128.960716,35.092583],[128.960695,35.093036],[128.960698,35.093527],[128.960694,35.093665],[128.960692,35.093801],[128.960686,35.09397],[128.960683,35.094127],[128.960675,35.094477],[128.960669,35.094938]]},"properties":{"line":"부산 1호선","from":"동매","to":"신평","daily_down":22470.8,"daily_up":21480.4,"daily":43951.1,"daily_low":31186.3,"daily_high":48555.9,"km":1.7,"daily_down_low":16088.3,"daily_down_high":24773.1,"daily_up_low":15098.0,"daily_up_high":23782.7,"source":"busan_gravity","period":"2026-07 Mon-Fri mean","geometry_source":"osm","estimated":true}},{"type":"Feature","geometry":{"type":"LineString","coordinates":[[128.960669,35.094938],[128.960655,35.095965],[128.960631,35.096753],[128.960647,35.0976],[128.960661,35.098282],[128.960662,35.098315],[128.96068,35.099015],[128.960679,35.100288],[128.960727,35.10185],[128.960766,35.102435],[128.960893,35.103289],[128.961088,35.104332],[128.961101,35.104401],[128.961332,35.104851],[128.961706,35.105434],[128.962277,35.105963],[128.96252,35.106095],[128.96305,35.106249],[128.963528,35.10629],[128.965592,35.106258],[128.966801,35.106208]]},"properties":{"line":"부산 1호선","from":"신평","to":"하단","daily_down":27304.6,"daily_up":26563.1,"daily":53867.7,"daily_low":38091.8,"daily_high":60002.9,"km":1.6,"daily_down_low":19416.6,"daily_down_high":30372.2,"daily_up_low":18675.2,"daily_up_high":29630.7,"source":"busan_gravity","period":"2026-07 Mon-Fri mean","geometry_source":"osm","estimated":true}},{"type":"Feature","geometry":{"type":"LineString","coordinates":[[128.966801,35.106208],[128.967407,35.106133],[128.967859,35.106031],[128.968573,35.105773],[128.969527,35.10514],[128.969797,35.104958],[128.970243,35.10472],[128.972997,35.103784],[128.973849,35.103508]]},"properties":{"line":"부산 1호선","from":"하단","to":"당리","daily_down":40454.2,"daily_up":37869.5,"daily":78323.7,"daily_low":52896.2,"daily_high":88862.2,"km":0.8,"daily_down_low":27740.5,"daily_down_high":45723.5,"daily_up_low":25155.7,"daily_up_high":43138.7,"source":"busan_gravity","period":"2026-07 Mon-Fri mean","geometry_source":"osm","estimated":true}},{"type":"Feature","geometry":{"type":"LineString","coordinates":[[128.973849,35.103508],[128.975018,35.103132],[128.976654,35.102558],[128.977447,35.10219],[128.979621,35.100792],[128.980086,35.10056],[128.980503,35.100425],[128.981707,35.100191],[128.98326,35.099875]]},"properties":{"line":"부산 1호선","from":"당리","to":"사하","daily_down":43928.4,"daily_up":41859.8,"daily":85788.2,"daily_low":54607.5,"daily_high":98719.8,"km":0.9,"daily_down_low":28338.0,"daily_down_high":50394.2,"daily_up_low":26269.5,"daily_up_high":48325.6,"source":"busan_gravity","period":"2026-07 Mon-Fri mean","geometry_source":"osm","estimated":true}},{"type":"Feature","geometry":{"type":"LineString","coordinates":[[128.98326,35.099875],[128.986913,35.099145],[128.989944,35.099325],[128.991521,35.099694]]},"properties":{"line":"부산 1호선","from":"사하","to":"괴정","daily_down":46139.7,"daily_up":43656.6,"daily":89796.3,"daily_low":55809.2,"daily_high":103954.7,"km":0.9,"daily_down_low":29146.2,"daily_down_high":53218.9,"daily_up_low":26663.0,"daily_up_high":50735.8,"source":"busan_gravity","period":"2026-07 Mon-Fri mean","geometry_source":"osm","estimated":true}},{"type":"Feature","geometry":{"type":"LineString","coordinates":[[128.991521,35.099694],[128.993447,35.100255],[128.994244,35.100417],[128.995047,35.100736],[128.99677,35.101568],[128.999256,35.10287],[128.999973,35.103231]]},"properties":{"line":"부산 1호선","from":"괴정","to":"대티","daily_down":50711.2,"daily_up":48297.1,"daily":99008.3,"daily_low":58738.7,"daily_high":115858.6,"km":0.8,"daily_down_low":30576.4,"daily_down_high":59136.3,"daily_up_low":28162.4,"daily_up_high":56722.3,"source":"busan_gravity","period":"2026-07 Mon-Fri mean","geometry_source":"osm","estimated":true}},{"type":"Feature","geometry":{"type":"LineString","coordinates":[[128.999973,35.103231],[129.000866,35.103752],[129.004145,35.105807],[129.008613,35.108354],[129.010181,35.109811],[129.011223,35.110663]]},"properties":{"line":"부산 1호선","from":"대티","to":"서대신","daily_down":52658.6,"daily_up":50257.7,"daily":102916.2,"daily_low":59884.3,"daily_high":120954.5,"km":1.4,"daily_down_low":31142.6,"daily_down_high":61677.7,"daily_up_low":28741.7,"daily_up_high":59276.8,"source":"busan_gravity","period":"2026-07 Mon-Fri mean","geometry_source":"osm","estimated":true}},{"type":"Feature","geometry":{"type":"LineString","coordinates":[[129.011223,35.110663],[129.013642,35.111597],[129.015198,35.112018],[129.01624,35.111881],[129.016811,35.11157],[129.017486,35.110979],[129.017826,35.110346]]},"properties":{"line":"부산 1호선","from":"서대신","to":"동대신","daily_down":54449.8,"daily_up":52350.3,"daily":106800.1,"daily_low":61799.4,"daily_high":125749.2,"km":0.7,"daily_down_low":31949.4,"daily_down_high":63924.3,"daily_up_low":29849.9,"daily_up_high":61824.9,"source":"busan_gravity","period":"2026-07 Mon-Fri mean","geometry_source":"osm","estimated":true}},{"type":"Feature","geometry":{"type":"LineString","coordinates":[[129.017826,35.110346],[129.018299,35.109462],[129.018536,35.109232],[129.020213,35.107842],[129.020346,35.107534],[129.020235,35.105231],[129.019999,35.10207],[129.019888,35.100762]]},"properties":{"line":"부산 1호선","from":"동대신","to":"토성","daily_down":58593.7,"daily_up":55621.3,"daily":114215.0,"daily_low":66790.3,"daily_high":134427.1,"km":1.2,"daily_down_low":34881.3,"daily_down_high":68699.7,"daily_up_low":31908.9,"daily_up_high":65727.4,"source":"busan_gravity","period":"2026-07 Mon-Fri mean","geometry_source":"osm","estimated":true}},{"type":"Feature","geometry":{"type":"LineString","coordinates":[[129.019888,35.100762],[129.019792,35.099615],[129.019984,35.099023],[129.020604,35.098201],[129.022186,35.096907],[129.022806,35.096648],[129.023885,35.096605],[129.026146,35.097246],[129.026678,35.097384]]},"properties":{"line":"부산 1호선","from":"토성","to":"자갈치","daily_down":64271.2,"daily_up":61086.5,"daily":125357.7,"daily_low":75323.4,"daily_high":147068.8,"km":1.0,"daily_down_low":39254.0,"daily_down_high":75126.8,"daily_up_low":36069.3,"daily_up_high":71942.1,"source":"busan_gravity","period":"2026-07 Mon-Fri mean","geometry_source":"osm","estimated":true}},{"type":"Feature","geometry":{"type":"LineString","coordinates":[[129.026678,35.097384],[129.030209,35.098304],[129.030719,35.098382],[129.032876,35.09785],[129.033771,35.097736],[129.034502,35.097899]]},"properties":{"line":"부산 1호선","from":"자갈치","to":"남포","daily_down":73989.2,"daily_up":71212.9,"daily":145202.1,"daily_low":90884.2,"daily_high":169327.0,"km":0.7,"daily_down_low":46830.2,"daily_down_high":86051.6,"daily_up_low":44054.0,"daily_up_high":83275.4,"source":"busan_gravity","period":"2026-07 Mon-Fri mean","geometry_source":"osm","estimated":true}},{"type":"Feature","geometry":{"type":"LineString","coordinates":[[129.034502,35.097899],[129.035462,35.098135],[129.036253,35.099017],[129.036526,35.099471],[129.036408,35.101538],[129.036287,35.103843]]},"properties":{"line":"부산 1호선","from":"남포","to":"중앙","daily_down":83217.4,"daily_up":81232.7,"daily":164450.2,"daily_low":103741.7,"daily_high":191490.9,"km":0.9,"daily_down_low":52863.2,"daily_down_high":96737.8,"daily_up_low":50878.5,"daily_up_high":94753.1,"source":"busan_gravity","period":"2026-07 Mon-Fri mean","geometry_source":"osm","estimated":true}},{"type":"Feature","geometry":{"type":"LineString","coordinates":[[129.036287,35.103843],[129.036216,35.105195],[129.036127,35.106797],[129.036313,35.107636],[129.037102,35.109324],[129.038715,35.113253],[129.039368,35.114781],[129.039864,35.115625]]},"properties":{"line":"부산 1호선","from":"중앙","to":"부산역","daily_down":88499.4,"daily_up":86707.1,"daily":175206.5,"daily_low":110629.0,"daily_high":203939.0,"km":1.1,"daily_down_low":56210.7,"daily_down_high":102865.7,"daily_up_low":54418.3,"daily_up_high":101073.3,"source":"busan_gravity","period":"2026-07 Mon-Fri mean","geometry_source":"osm","estimated":true}},{"type":"Feature","geometry":{"type":"LineString","coordinates":[[129.039864,35.115625],[129.040429,35.116585],[129.042901,35.121226]]},"properties":{"line":"부산 1호선","from":"부산역","to":"초량","daily_down":100510.4,"daily_up":98556.9,"daily":199067.3,"daily_low":125324.9,"daily_high":231505.7,"km":0.8,"daily_down_low":63639.2,"daily_down_high":116729.6,"daily_up_low":61685.7,"daily_up_high":114776.1,"source":"busan_gravity","period":"2026-07 Mon-Fri mean","geometry_source":"osm","estimated":true}},{"type":"Feature","geometry":{"type":"LineString","coordinates":[[129.042901,35.121226],[129.044367,35.123979],[129.044919,35.125034],[129.049001,35.129046]]},"properties":{"line":"부산 1호선","from":"초량","to":"부산진","daily_down":103401.1,"daily_up":101636.4,"daily":205037.5,"daily_low":128568.5,"daily_high":238514.9,"km":0.8,"daily_down_low":65166.6,"daily_down_high":120139.8,"daily_up_low":63401.9,"daily_up_high":118375.1,"source":"busan_gravity","period":"2026-07 Mon-Fri mean","geometry_source":"osm","estimated":true}},{"type":"Feature","geometry":{"type":"LineString","coordinates":[[129.049001,35.129046],[129.050096,35.130122],[129.052297,35.132368],[129.054301,35.134368]]},"properties":{"line":"부산 1호선","from":"부산진","to":"좌천","daily_down":107087.8,"daily_up":104944.4,"daily":212032.3,"daily_low":133095.4,"daily_high":246476.3,"km":1.0,"daily_down_low":67619.4,"daily_down_high":124309.8,"daily_up_low":65476.0,"daily_up_high":122166.4,"source":"busan_gravity","period":"2026-07 Mon-Fri mean","geometry_source":"osm","estimated":true}},{"type":"Feature","geometry":{"type":"LineString","coordinates":[[129.054301,35.134368],[129.054998,35.135062],[129.056821,35.136856],[129.058312,35.137741],[129.059032,35.138403],[129.059246,35.138838],[129.0594,35.139345],[129.05933,35.140964]]},"properties":{"line":"부산 1호선","from":"좌천","to":"범일","daily_down":109310.5,"daily_up":106748.6,"daily":216059.1,"daily_low":136162.6,"daily_high":250904.6,"km":0.9,"daily_down_low":69362.3,"daily_down_high":126733.2,"daily_up_low":66800.4,"daily_up_high":124171.4,"source":"busan_gravity","period":"2026-07 Mon-Fri mean","geometry_source":"osm","estimated":true}},{"type":"Feature","geometry":{"type":"LineString","coordinates":[[129.05933,35.140964],[129.059179,35.144427],[129.05915,35.14724]]},"properties":{"line":"부산 1호선","from":"범일","to":"범내골","daily_down":116763.2,"daily_up":114675.4,"daily":231438.6,"daily_low":149481.9,"daily_high":267247.8,"km":0.8,"daily_down_low":75784.8,"daily_down_high":134667.8,"daily_up_low":73697.0,"daily_up_high":132580.0,"source":"busan_gravity","period":"2026-07 Mon-Fri mean","geometry_source":"osm","estimated":true}},{"type":"Feature","geometry":{"type":"LineString","coordinates":[[129.05915,35.14724],[129.059143,35.147931],[129.059091,35.150764],[129.059046,35.154769],[129.059032,35.157155],[129.059342,35.158055],[129.059451,35.158195]]},"properties":{"line":"부산 1호선","from":"범내골","to":"서면","daily_down":122522.3,"daily_up":120467.4,"daily":242989.7,"daily_low":159739.3,"daily_high":279384.0,"km":1.2,"daily_down_low":80897.1,"daily_down_high":140719.5,"daily_up_low":78842.2,"daily_up_high":138664.5,"source":"busan_gravity","period":"2026-07 Mon-Fri mean","geometry_source":"osm","estimated":true}},{"type":"Feature","geometry":{"type":"LineString","coordinates":[[129.059451,35.158195],[129.062135,35.161631],[129.06289,35.162633]]},"properties":{"line":"부산 1호선","from":"서면","to":"부전","daily_down":112912.2,"daily_up":113727.1,"daily":226639.4,"daily_low":169225.7,"daily_high":248835.9,"km":0.6,"daily_down_low":83982.3,"daily_down_high":124096.9,"daily_up_low":85243.4,"daily_up_high":124739.0,"source":"busan_gravity","period":"2026-07 Mon-Fri mean","geometry_source":"osm","estimated":true}},{"type":"Feature","geometry":{"type":"LineString","coordinates":[[129.06289,35.162633],[129.064285,35.164482],[129.065282,35.165648],[129.066398,35.166983],[129.067543,35.168571],[129.068371,35.169574],[129.069649,35.171168],[129.071257,35.173193]]},"properties":{"line":"부산 1호선","from":"부전","to":"양정","daily_down":109662.2,"daily_up":111237.7,"daily":220899.9,"daily_low":162904.2,"daily_high":243144.8,"km":1.4,"daily_down_low":80441.2,"daily_down_high":120871.0,"daily_up_low":82463.0,"daily_up_high":122273.8,"source":"busan_gravity","period":"2026-07 Mon-Fri mean","geometry_source":"osm","estimated":true}},{"type":"Feature","geometry":{"type":"LineString","coordinates":[[129.071257,35.173193],[129.071932,35.174043],[129.074813,35.177667],[129.075781,35.178917],[129.076475,35.179772]]},"properties":{"line":"부산 1호선","from":"양정","to":"시청","daily_down":109229.3,"daily_up":110929.2,"daily":220158.5,"daily_low":161613.1,"daily_high":242534.9,"km":0.9,"daily_down_low":79733.5,"daily_down_high":120503.9,"daily_up_low":81879.6,"daily_up_high":122031.0,"source":"busan_gravity","period":"2026-07 Mon-Fri mean","geometry_source":"osm","estimated":true}},{"type":"Feature","geometry":{"type":"LineString","coordinates":[[129.076475,35.179772],[129.077436,35.180958],[129.081129,35.185563],[129.081358,35.185894],[129.081385,35.186018]]},"properties":{"line":"부산 1호선","from":"시청","to":"연산","daily_down":109480.7,"daily_up":110627.8,"daily":220108.5,"daily_low":161557.5,"daily_high":242334.3,"km":0.8,"daily_down_low":79982.1,"daily_down_high":120680.0,"daily_up_low":81575.4,"daily_up_high":121654.3,"source":"busan_gravity","period":"2026-07 Mon-Fri mean","geometry_source":"osm","estimated":true}},{"type":"Feature","geometry":{"type":"LineString","coordinates":[[129.081385,35.186018],[129.081417,35.18638],[129.081188,35.187447],[129.080637,35.189678],[129.080002,35.192173],[129.07981,35.193217],[129.079814,35.194234],[129.079877,35.19455],[129.079931,35.19502],[129.079929,35.195369],[129.079927,35.195715],[129.079914,35.196106]]},"properties":{"line":"부산 1호선","from":"연산","to":"교대","daily_down":92823.8,"daily_up":94534.2,"daily":187358.0,"daily_low":141509.1,"daily_high":202171.7,"km":1.1,"daily_down_low":69857.0,"daily_down_high":100248.5,"daily_up_low":71652.1,"daily_up_high":101923.2,"source":"busan_gravity","period":"2026-07 Mon-Fri mean","geometry_source":"osm","estimated":true}},{"type":"Feature","geometry":{"type":"LineString","coordinates":[[129.079914,35.196106],[129.079819,35.196761],[129.079671,35.197389],[129.078953,35.200292],[129.078602,35.201713],[129.078544,35.201979],[129.078524,35.202115],[129.078488,35.202337],[129.078464,35.202558],[129.07846,35.202755],[129.078467,35.204023],[129.078461,35.204724],[129.078454,35.205308]]},"properties":{"line":"부산 1호선","from":"교대","to":"동래","daily_down":85521.9,"daily_up":86942.3,"daily":172464.2,"daily_low":131338.9,"daily_high":185550.6,"km":1.1,"daily_down_low":64916.8,"daily_down_high":92082.9,"daily_up_low":66422.1,"daily_up_high":93467.7,"source":"busan_gravity","period":"2026-07 Mon-Fri mean","geometry_source":"osm","estimated":true}},{"type":"Feature","geometry":{"type":"LineString","coordinates":[[129.078454,35.205308],[129.07844,35.206495],[129.078437,35.206547],[129.078433,35.207712],[129.078412,35.20924],[129.078419,35.209556],[129.078462,35.210007],[129.078495,35.210209],[129.078534,35.210402],[129.078608,35.210646],[129.078653,35.210791],[129.078696,35.210929],[129.078762,35.211099],[129.078872,35.21133],[129.078971,35.21154],[129.079166,35.211835],[129.079539,35.212437]]},"properties":{"line":"부산 1호선","from":"동래","to":"명륜","daily_down":73748.1,"daily_up":76689.5,"daily":150437.6,"daily_low":117566.4,"daily_high":159815.5,"km":0.8,"daily_down_low":57312.5,"daily_down_high":78437.1,"daily_up_low":60253.9,"daily_up_high":81378.5,"source":"busan_gravity","period":"2026-07 Mon-Fri mean","geometry_source":"osm","estimated":true}},{"type":"Feature","geometry":{"type":"LineString","coordinates":[[129.079539,35.212437],[129.080164,35.213335],[129.08078,35.214296],[129.08096,35.214533],[129.081082,35.214667],[129.081268,35.214867],[129.08141,35.215005],[129.081555,35.215135],[129.081735,35.215275],[129.08195,35.215429],[129.08229,35.215653],[129.082395,35.215726],[129.082926,35.216045],[129.08309,35.216163],[129.083202,35.216253],[129.083392,35.216414],[129.08356,35.216582],[129.08375,35.216803],[129.083909,35.217007],[129.084382,35.217593],[129.084819,35.21811],[129.085113,35.218466],[129.0856,35.219095],[129.085789,35.219357],[129.085914,35.219555],[129.086188,35.220038]]},"properties":{"line":"부산 1호선","from":"명륜","to":"온천장","daily_down":65845.3,"daily_up":69295.0,"daily":135140.4,"daily_low":106318.9,"daily_high":143190.4,"km":1.1,"daily_down_low":51434.6,"daily_down_high":69870.4,"daily_up_low":54884.3,"daily_up_high":73320.1,"source":"busan_gravity","period":"2026-07 Mon-Fri mean","geometry_source":"osm","estimated":true}},{"type":"Feature","geometry":{"type":"LineString","coordinates":[[129.086188,35.220038],[129.086769,35.22106],[129.086801,35.221114],[129.087357,35.222136],[129.088039,35.223391],[129.08854,35.224431],[129.088632,35.224639],[129.088712,35.224864],[129.08881,35.225168],[129.088897,35.225504],[129.088933,35.225651],[129.088963,35.225835],[129.088982,35.226005],[129.089023,35.226324],[129.089111,35.226959],[129.089181,35.227509],[129.089323,35.228501],[129.089343,35.228719],[129.089341,35.229215],[129.089333,35.22957]]},"properties":{"line":"부산 1호선","from":"온천장","to":"부산대","daily_down":54059.7,"daily_up":57696.8,"daily":111756.5,"daily_low":89384.5,"daily_high":117786.7,"km":1.1,"daily_down_low":42873.7,"daily_down_high":57074.8,"daily_up_low":46510.8,"daily_up_high":60711.9,"source":"busan_gravity","period":"2026-07 Mon-Fri mean","geometry_source":"osm","estimated":true}},{"type":"Feature","geometry":{"type":"LineString","coordinates":[[129.089333,35.22957],[129.08932,35.229694],[129.089281,35.229973],[129.089264,35.230166],[129.08923,35.230416],[129.089209,35.230535],[129.0892,35.230589],[129.089166,35.230793],[129.089121,35.231181],[129.089103,35.231435],[129.089107,35.231571],[129.089126,35.231786],[129.089166,35.232118],[129.089249,35.232597],[129.089311,35.232949],[129.08938,35.233341],[129.089425,35.233601],[129.089451,35.233822],[129.089452,35.234006],[129.08945,35.234156],[129.089431,35.234371],[129.089398,35.234575],[129.089324,35.234879],[129.089268,35.235033],[129.08883,35.23609],[129.08859,35.236649],[129.088517,35.236817],[129.088501,35.236854],[129.0885,35.236858],[129.088458,35.236956],[129.088327,35.237276],[129.088302,35.237332],[129.088165,35.237751],[129.088131,35.237935],[129.088101,35.238043],[129.088079,35.238123]]},"properties":{"line":"부산 1호선","from":"부산대","to":"장전","daily_down":43399.1,"daily_up":47145.6,"daily":90544.7,"daily_low":73928.4,"daily_high":94837.9,"km":0.9,"daily_down_low":35091.0,"daily_down_high":45545.7,"daily_up_low":38837.5,"daily_up_high":49292.2,"source":"busan_gravity","period":"2026-07 Mon-Fri mean","geometry_source":"osm","estimated":true}},{"type":"Feature","geometry":{"type":"LineString","coordinates":[[129.088079,35.238123],[129.088045,35.238456],[129.088054,35.23859],[129.088054,35.238706],[129.088062,35.238782],[129.088067,35.238838],[129.088069,35.238851],[129.088076,35.23891],[129.088183,35.239841],[129.08821,35.240025],[129.088259,35.240206],[129.088298,35.240359],[129.088341,35.240505],[129.088403,35.240666],[129.088457,35.240778],[129.088551,35.24096],[129.088672,35.241154],[129.088812,35.241341],[129.088965,35.241518],[129.089144,35.241714],[129.089335,35.241893],[129.089544,35.242081],[129.089707,35.242241],[129.0899,35.242416],[129.09003,35.24254],[129.0902,35.242721],[129.090358,35.242888],[129.090469,35.243026],[129.090619,35.243257],[129.090721,35.243447],[129.090789,35.2436],[129.090831,35.243707],[129.090874,35.243817],[129.090901,35.243904],[129.090933,35.24402],[129.090962,35.244121],[129.090991,35.244279],[129.091027,35.244575],[129.091134,35.245872],[129.091226,35.246602],[129.091249,35.246878]]},"properties":{"line":"부산 1호선","from":"장전","to":"구서","daily_down":34671.7,"daily_up":38609.3,"daily":73281.0,"daily_low":61128.2,"daily_high":76274.9,"km":1.1,"daily_down_low":28595.3,"daily_down_high":36168.7,"daily_up_low":32532.9,"daily_up_high":40106.3,"source":"busan_gravity","period":"2026-07 Mon-Fri mean","geometry_source":"osm","estimated":true}},{"type":"Feature","geometry":{"type":"LineString","coordinates":[[129.091249,35.246878],[129.091343,35.248042],[129.091498,35.250284],[129.091563,35.251039],[129.091661,35.252132],[129.091692,35.252568],[129.091727,35.252855],[129.091734,35.253016],[129.091752,35.253373],[129.091752,35.25361],[129.091731,35.253877],[129.091666,35.254312],[129.091579,35.254849],[129.091529,35.25529],[129.091446,35.255914],[129.091399,35.256353],[129.091398,35.256396],[129.091379,35.256863],[129.091377,35.256923],[129.091377,35.256958]]},"properties":{"line":"부산 1호선","from":"구서","to":"두실","daily_down":26614.5,"daily_up":30119.6,"daily":56734.0,"daily_low":48715.7,"daily_high":58598.7,"km":1.1,"daily_down_low":22605.3,"daily_down_high":27546.8,"daily_up_low":26110.4,"daily_up_high":31051.9,"source":"busan_gravity","period":"2026-07 Mon-Fri mean","geometry_source":"osm","estimated":true}},{"type":"Feature","geometry":{"type":"LineString","coordinates":[[129.091377,35.256958],[129.091377,35.256991],[129.091378,35.257066],[129.091409,35.260004],[129.091418,35.260381],[129.091442,35.260581],[129.092089,35.263515],[129.09246,35.265244]]},"properties":{"line":"부산 1호선","from":"두실","to":"남산","daily_down":21156.4,"daily_up":23677.9,"daily":44834.3,"daily_low":39775.2,"daily_high":45945.5,"km":0.9,"daily_down_low":18626.8,"daily_down_high":21712.0,"daily_up_low":21148.3,"daily_up_high":24233.5,"source":"busan_gravity","period":"2026-07 Mon-Fri mean","geometry_source":"osm","estimated":true}},{"type":"Feature","geometry":{"type":"LineString","coordinates":[[129.09246,35.265244],[129.09265,35.265997],[129.092715,35.266434],[129.092767,35.266757],[129.092762,35.267159],[129.09269,35.270879],[129.092651,35.273156]]},"properties":{"line":"부산 1호선","from":"남산","to":"범어사","daily_down":16523.7,"daily_up":18763.9,"daily":35287.6,"daily_low":32577.3,"daily_high":35846.3,"km":0.9,"daily_down_low":15168.6,"daily_down_high":16803.1,"daily_up_low":17408.7,"daily_up_high":19043.3,"source":"busan_gravity","period":"2026-07 Mon-Fri mean","geometry_source":"osm","estimated":true}},{"type":"Feature","geometry":{"type":"LineString","coordinates":[[129.092651,35.273156],[129.092628,35.274652],[129.092649,35.274951],[129.092704,35.275334],[129.092824,35.275911],[129.092935,35.276387],[129.093167,35.277183],[129.093362,35.277856],[129.093855,35.279972],[129.093939,35.280422],[129.094052,35.280837],[129.094191,35.281283],[129.094363,35.281813],[129.094617,35.282661],[129.095159,35.284198]]},"properties":{"line":"부산 1호선","from":"범어사","to":"노포","daily_down":10457.2,"daily_up":11124.5,"daily":21581.7,"daily_low":21581.7,"daily_high":21581.7,"km":1.2,"daily_down_low":10457.2,"daily_down_high":10457.2,"daily_up_low":11124.5,"daily_up_high":11124.5,"source":"busan_gravity","period":"2026-07 Mon-Fri mean","geometry_source":"osm","estimated":true}},{"type":"Feature","geometry":{"type":"LineString","coordinates":[[129.175921,35.169451],[129.175447,35.169188],[129.174365,35.168402],[129.173353,35.167668],[129.172829,35.167298],[129.17254,35.167139],[129.172225,35.167007],[129.171955,35.166923],[129.171626,35.166854],[129.170744,35.166807],[129.168728,35.1667]]},"properties":{"line":"부산 2호선","from":"장산","to":"중동","daily_down":16451.7,"daily_up":16092.7,"daily":32544.4,"daily_low":32544.4,"daily_high":32544.4,"km":0.9,"daily_down_low":16451.7,"daily_down_high":16451.7,"daily_up_low":16092.7,"daily_up_high":16092.7,"source":"busan_gravity","period":"2026-07 Mon-Fri mean","geometry_source":"osm","estimated":true}},{"type":"Feature","geometry":{"type":"LineString","coordinates":[[129.168728,35.1667],[129.16781,35.166652],[129.164368,35.166387],[129.163592,35.166267],[129.163002,35.166033],[129.160005,35.164354],[129.158809,35.163685]]},"properties":{"line":"부산 2호선","from":"중동","to":"해운대","daily_down":24217.4,"daily_up":23188.9,"daily":47406.3,"daily_low":43484.6,"daily_high":48531.1,"km":1.0,"daily_down_low":22256.6,"daily_down_high":24779.8,"daily_up_low":21228.0,"daily_up_high":23751.3,"source":"busan_gravity","period":"2026-07 Mon-Fri mean","geometry_source":"osm","estimated":true}},{"type":"Feature","geometry":{"type":"LineString","coordinates":[[129.158809,35.163685],[129.156209,35.16223],[129.154772,35.161442],[129.154055,35.161059],[129.151843,35.16027],[129.151294,35.160149],[129.150636,35.160154],[129.150279,35.160269],[129.149691,35.160573],[129.148929,35.160898],[129.14809,35.161277]]},"properties":{"line":"부산 2호선","from":"해운대","to":"동백","daily_down":36415.5,"daily_up":36376.0,"daily":72791.5,"daily_low":59670.0,"daily_high":76726.1,"km":1.1,"daily_down_low":29854.8,"daily_down_high":38382.8,"daily_up_low":29815.3,"daily_up_high":38343.3,"source":"busan_gravity","period":"2026-07 Mon-Fri mean","geometry_source":"osm","estimated":true}},{"type":"Feature","geometry":{"type":"LineString","coordinates":[[129.14809,35.161277],[129.147548,35.161564],[129.14583,35.162476],[129.143439,35.163726],[129.138475,35.168842]]},"properties":{"line":"부산 2호선","from":"동백","to":"벡스코","daily_down":41323.1,"daily_up":41496.1,"daily":82819.2,"daily_low":65179.5,"daily_high":88341.5,"km":1.1,"daily_down_low":32503.3,"daily_down_high":44084.3,"daily_up_low":32676.2,"daily_up_high":44257.2,"source":"busan_gravity","period":"2026-07 Mon-Fri mean","geometry_source":"osm","estimated":true}},{"type":"Feature","geometry":{"type":"LineString","coordinates":[[129.138475,35.168842],[129.136991,35.17037],[129.136187,35.170747],[129.135778,35.170788],[129.135339,35.170765],[129.134357,35.170359],[129.133618,35.169976],[129.132608,35.16938],[129.131199,35.168625]]},"properties":{"line":"부산 2호선","from":"벡스코","to":"센텀시티","daily_down":48909.1,"daily_up":48188.7,"daily":97097.8,"daily_low":73515.9,"daily_high":104855.6,"km":0.8,"daily_down_low":37118.1,"daily_down_high":52788.0,"daily_up_low":36397.8,"daily_up_high":52067.6,"source":"busan_gravity","period":"2026-07 Mon-Fri mean","geometry_source":"osm","estimated":true}},{"type":"Feature","geometry":{"type":"LineString","coordinates":[[129.131199,35.168625],[129.129215,35.167563],[129.12789,35.16686],[129.127358,35.166578],[129.127328,35.166562],[129.126833,35.1663],[129.125728,35.165857],[129.125479,35.165774],[129.12476,35.165687],[129.123999,35.165897],[129.123207,35.166274],[129.122081,35.167018],[129.122001,35.167071]]},"properties":{"line":"부산 2호선","from":"센텀시티","to":"민락","daily_down":62467.2,"daily_up":61439.6,"daily":123906.9,"daily_low":86096.0,"daily_high":136767.4,"km":1.0,"daily_down_low":43561.8,"daily_down_high":68897.5,"daily_up_low":42534.2,"daily_up_high":67869.9,"source":"busan_gravity","period":"2026-07 Mon-Fri mean","geometry_source":"osm","estimated":true}},{"type":"Feature","geometry":{"type":"LineString","coordinates":[[129.122001,35.167071],[129.121681,35.167283],[129.120587,35.168239],[129.119364,35.168406],[129.118559,35.168502],[129.117113,35.168019],[129.115694,35.167591],[129.115443,35.167467],[129.115206,35.167281],[129.115021,35.16699],[129.114946,35.166694],[129.114682,35.165368]]},"properties":{"line":"부산 2호선","from":"민락","to":"수영","daily_down":64624.1,"daily_up":63426.9,"daily":128051.0,"daily_low":87855.0,"daily_high":141826.4,"km":0.9,"daily_down_low":44526.1,"daily_down_high":71511.8,"daily_up_low":43328.9,"daily_up_high":70314.6,"source":"busan_gravity","period":"2026-07 Mon-Fri mean","geometry_source":"osm","estimated":true}},{"type":"Feature","geometry":{"type":"LineString","coordinates":[[129.114682,35.165368],[129.114589,35.165035],[129.114526,35.164744],[129.114203,35.16324],[129.113911,35.161811],[129.113444,35.159529],[129.113103,35.157927]]},"properties":{"line":"부산 2호선","from":"수영","to":"광안","daily_down":52506.6,"daily_up":49761.4,"daily":102267.9,"daily_low":77477.2,"daily_high":111351.7,"km":0.9,"daily_down_low":39972.2,"daily_down_high":57092.4,"daily_up_low":37504.9,"daily_up_high":54259.3,"source":"busan_gravity","period":"2026-07 Mon-Fri mean","geometry_source":"osm","estimated":true}},{"type":"Feature","geometry":{"type":"LineString","coordinates":[[129.113103,35.157927],[129.11097,35.149756]]},"properties":{"line":"부산 2호선","from":"광안","to":"금련산","daily_down":50757.7,"daily_up":48994.3,"daily":99752.0,"daily_low":73957.4,"daily_high":109658.8,"km":0.9,"daily_down_low":37721.5,"daily_down_high":55755.1,"daily_up_low":36236.0,"daily_up_high":53903.8,"source":"busan_gravity","period":"2026-07 Mon-Fri mean","geometry_source":"osm","estimated":true}},{"type":"Feature","geometry":{"type":"LineString","coordinates":[[129.11097,35.149756],[129.109419,35.144547],[129.109215,35.143731],[129.109002,35.143274],[129.108733,35.143006],[129.107842,35.142134]]},"properties":{"line":"부산 2호선","from":"금련산","to":"남천","daily_down":49529.8,"daily_up":48843.2,"daily":98373.0,"daily_low":71788.1,"daily_high":108816.9,"km":0.9,"daily_down_low":36098.4,"daily_down_high":54795.6,"daily_up_low":35689.8,"daily_up_high":54021.2,"source":"busan_gravity","period":"2026-07 Mon-Fri mean","geometry_source":"osm","estimated":true}},{"type":"Feature","geometry":{"type":"LineString","coordinates":[[129.107842,35.142134],[129.106222,35.14059],[129.105513,35.140037],[129.103176,35.138904],[129.103069,35.13885],[129.102969,35.138799],[129.100531,35.137558]]},"properties":{"line":"부산 2호선","from":"남천","to":"경성대.부경대","daily_down":49667.2,"daily_up":49171.7,"daily":98838.9,"daily_low":71198.0,"daily_high":109919.0,"km":0.8,"daily_down_low":35707.8,"daily_down_high":55251.1,"daily_up_low":35490.2,"daily_up_high":54667.8,"source":"busan_gravity","period":"2026-07 Mon-Fri mean","geometry_source":"osm","estimated":true}},{"type":"Feature","geometry":{"type":"LineString","coordinates":[[129.100531,35.137558],[129.099838,35.13726],[129.099333,35.137062],[129.098187,35.136597],[129.096544,35.135861],[129.094432,35.135386],[129.092424,35.135173],[129.092172,35.135148]]},"properties":{"line":"부산 2호선","from":"경성대.부경대","to":"대연","daily_down":53034.5,"daily_up":52742.2,"daily":105776.7,"daily_low":72951.0,"daily_high":119053.2,"km":0.9,"daily_down_low":36482.7,"daily_down_high":59716.6,"daily_up_low":36468.3,"daily_up_high":59336.5,"source":"busan_gravity","period":"2026-07 Mon-Fri mean","geometry_source":"osm","estimated":true}},{"type":"Feature","geometry":{"type":"LineString","coordinates":[[129.092172,35.135148],[129.090699,35.135105],[129.090559,35.135102],[129.087802,35.134956],[129.085751,35.13487],[129.084783,35.134758]]},"properties":{"line":"부산 2호선","from":"대연","to":"못골","daily_down":55651.9,"daily_up":55269.9,"daily":110921.8,"daily_low":73927.8,"daily_high":125799.8,"km":0.7,"daily_down_low":37015.9,"daily_down_high":63134.9,"daily_up_low":36911.8,"daily_up_high":62665.0,"source":"busan_gravity","period":"2026-07 Mon-Fri mean","geometry_source":"osm","estimated":true}},{"type":"Feature","geometry":{"type":"LineString","coordinates":[[129.084783,35.134758],[129.082648,35.134653],[129.082027,35.134584],[129.081042,35.134482],[129.079894,35.134061],[129.079163,35.133771],[129.07872,35.133721],[129.078241,35.133799],[129.077758,35.133957],[129.075912,35.134887],[129.074224,35.135668]]},"properties":{"line":"부산 2호선","from":"못골","to":"지게골","daily_down":57209.7,"daily_up":56990.8,"daily":114200.6,"daily_low":75108.8,"daily_high":129858.3,"km":0.9,"daily_down_low":37524.9,"daily_down_high":65082.5,"daily_up_low":37583.9,"daily_up_high":64775.8,"source":"busan_gravity","period":"2026-07 Mon-Fri mean","geometry_source":"osm","estimated":true}},{"type":"Feature","geometry":{"type":"LineString","coordinates":[[129.074224,35.135668],[129.073467,35.13606],[129.072936,35.136351],[129.072496,35.136535],[129.071956,35.136687],[129.071269,35.136825],[129.070872,35.136881],[129.070361,35.136926],[129.069693,35.13696],[129.069246,35.136987],[129.068997,35.137035],[129.06876,35.137125],[129.06841,35.137335],[129.068148,35.137541],[129.067912,35.137862],[129.067681,35.138352],[129.067482,35.138803],[129.067331,35.139139]]},"properties":{"line":"부산 2호선","from":"지게골","to":"문현","daily_down":58430.6,"daily_up":58174.4,"daily":116605.0,"daily_low":76511.4,"daily_high":132656.9,"km":0.9,"daily_down_low":38244.9,"daily_down_high":66500.5,"daily_up_low":38266.5,"daily_up_high":66156.4,"source":"busan_gravity","period":"2026-07 Mon-Fri mean","geometry_source":"osm","estimated":true}},{"type":"Feature","geometry":{"type":"LineString","coordinates":[[129.067331,35.139139],[129.067133,35.139639],[129.067037,35.139907],[129.066938,35.14028],[129.066878,35.140589],[129.066842,35.14089],[129.066807,35.141307],[129.066785,35.141638],[129.066765,35.143377],[129.066737,35.144589],[129.066737,35.145093],[129.066713,35.14572]]},"properties":{"line":"부산 2호선","from":"문현","to":"국제금융센터.부산은행","daily_down":61028.6,"daily_up":60448.1,"daily":121476.7,"daily_low":80169.6,"daily_high":138052.9,"km":0.7,"daily_down_low":40236.1,"daily_down_high":69360.6,"daily_up_low":39933.5,"daily_up_high":68692.3,"source":"busan_gravity","period":"2026-07 Mon-Fri mean","geometry_source":"osm","estimated":true}},{"type":"Feature","geometry":{"type":"LineString","coordinates":[[129.066713,35.14572],[129.066693,35.14689],[129.066686,35.147145],[129.066651,35.147467],[129.06659,35.147681],[129.066517,35.147874],[129.066431,35.148064],[129.066034,35.148753],[129.065764,35.149223],[129.065543,35.149828],[129.065473,35.150143],[129.065428,35.150545],[129.065389,35.150969],[129.065364,35.152819]]},"properties":{"line":"부산 2호선","from":"국제금융센터.부산은행","to":"전포","daily_down":63943.5,"daily_up":63828.4,"daily":127771.8,"daily_low":85486.3,"daily_high":144808.4,"km":0.8,"daily_down_low":42661.8,"daily_down_high":72505.7,"daily_up_low":42824.5,"daily_up_high":72302.7,"source":"busan_gravity","period":"2026-07 Mon-Fri mean","geometry_source":"osm","estimated":true}},{"type":"Feature","geometry":{"type":"LineString","coordinates":[[129.065364,35.152819],[129.065368,35.154442],[129.065379,35.154967],[129.065393,35.155365],[129.065451,35.155921],[129.06548,35.156325],[129.065487,35.156645],[129.065468,35.15687],[129.065429,35.157066],[129.065346,35.157285],[129.065269,35.157416],[129.065156,35.15755],[129.065037,35.157642],[129.064895,35.157709],[129.064724,35.157752],[129.064393,35.157767],[129.063848,35.157758],[129.062377,35.157752],[129.059882,35.157717],[129.059164,35.157709],[129.059103,35.157708]]},"properties":{"line":"부산 2호선","from":"전포","to":"서면","daily_down":68900.1,"daily_up":70749.9,"daily":139650.0,"daily_low":96239.3,"daily_high":157260.4,"km":1.1,"daily_down_low":47055.8,"daily_down_high":77749.2,"daily_up_low":49183.5,"daily_up_high":79511.2,"source":"busan_gravity","period":"2026-07 Mon-Fri mean","geometry_source":"osm","estimated":true}},{"type":"Feature","geometry":{"type":"LineString","coordinates":[[129.059103,35.157708],[129.058247,35.157699],[129.055949,35.157613],[129.054768,35.1576],[129.053652,35.157605],[129.053138,35.157606],[129.052377,35.157603],[129.051369,35.157587],[129.051119,35.157567],[129.05095,35.157538],[129.050506,35.157439],[129.05012,35.157349]]},"properties":{"line":"부산 2호선","from":"서면","to":"부암","daily_down":61877.1,"daily_up":66654.3,"daily":128531.4,"daily_low":91014.6,"daily_high":143341.9,"km":0.8,"daily_down_low":43202.8,"daily_down_high":69239.9,"daily_up_low":47811.7,"daily_up_high":74102.0,"source":"busan_gravity","period":"2026-07 Mon-Fri mean","geometry_source":"osm","estimated":true}},{"type":"Feature","geometry":{"type":"LineString","coordinates":[[129.05012,35.157349],[129.04916,35.157127],[129.047925,35.156824],[129.046599,35.156541],[129.045931,35.156405],[129.04531,35.156295],[129.042782,35.155848]]},"properties":{"line":"부산 2호선","from":"부암","to":"가야","daily_down":58191.8,"daily_up":62361.8,"daily":120553.6,"daily_low":83546.0,"daily_high":135174.5,"km":0.7,"daily_down_low":39772.2,"daily_down_high":65459.9,"daily_up_low":43773.8,"daily_up_high":69714.6,"source":"busan_gravity","period":"2026-07 Mon-Fri mean","geometry_source":"osm","estimated":true}},{"type":"Feature","geometry":{"type":"LineString","coordinates":[[129.042782,35.155848],[129.041417,35.155575],[129.040338,35.155365],[129.039502,35.155224],[129.038735,35.155095],[129.038233,35.155012],[129.037629,35.15493],[129.036823,35.154804],[129.035411,35.15457],[129.033476,35.154229],[129.032139,35.15398]]},"properties":{"line":"부산 2호선","from":"가야","to":"동의대","daily_down":56078.1,"daily_up":60014.7,"daily":116092.8,"daily_low":79636.5,"daily_high":130517.4,"km":0.9,"daily_down_low":37934.1,"daily_down_high":63248.0,"daily_up_low":41702.3,"daily_up_high":67269.4,"source":"busan_gravity","period":"2026-07 Mon-Fri mean","geometry_source":"osm","estimated":true}},{"type":"Feature","geometry":{"type":"LineString","coordinates":[[129.032139,35.15398],[129.03126,35.153821],[129.030331,35.153678],[129.029527,35.153531],[129.028141,35.153316],[129.02736,35.15323],[129.026325,35.1532],[129.025516,35.153193],[129.024327,35.153209],[129.02304,35.153245],[129.020475,35.153267]]},"properties":{"line":"부산 2호선","from":"동의대","to":"개금","daily_down":53406.8,"daily_up":56798.0,"daily":110204.8,"daily_low":74882.9,"daily_high":124238.9,"km":1.1,"daily_down_low":35830.1,"daily_down_high":60381.5,"daily_up_low":39052.8,"daily_up_high":63857.4,"source":"busan_gravity","period":"2026-07 Mon-Fri mean","geometry_source":"osm","estimated":true}},{"type":"Feature","geometry":{"type":"LineString","coordinates":[[129.020475,35.153267],[129.020137,35.15324],[129.019795,35.153175],[129.019405,35.153086],[129.018972,35.152971],[129.018702,35.152885],[129.018465,35.152788],[129.018158,35.152623],[129.017809,35.152414],[129.017431,35.152217],[129.017001,35.151987],[129.016537,35.151806],[129.016002,35.151661],[129.015489,35.151561],[129.014935,35.151493],[129.014247,35.151439],[129.012822,35.151315],[129.012426,35.151285]]},"properties":{"line":"부산 2호선","from":"개금","to":"냉정","daily_down":48844.2,"daily_up":51921.5,"daily":100765.7,"daily_low":67976.9,"daily_high":113920.7,"km":0.8,"daily_down_low":32534.0,"daily_down_high":55379.3,"daily_up_low":35442.9,"daily_up_high":58541.4,"source":"busan_gravity","period":"2026-07 Mon-Fri mean","geometry_source":"osm","estimated":true}},{"type":"Feature","geometry":{"type":"LineString","coordinates":[[129.012426,35.151285],[129.010757,35.151164],[129.009613,35.151063],[129.007901,35.15093],[129.0059,35.150751],[129.005297,35.150699],[129.004305,35.150607],[129.003919,35.150573],[129.00315,35.150504]]},"properties":{"line":"부산 2호선","from":"냉정","to":"주례","daily_down":46370.9,"daily_up":48982.7,"daily":95353.6,"daily_low":64423.1,"daily_high":107854.5,"km":0.8,"daily_down_low":30989.8,"daily_down_high":52578.9,"daily_up_low":33433.3,"daily_up_high":55275.6,"source":"busan_gravity","period":"2026-07 Mon-Fri mean","geometry_source":"osm","estimated":true}},{"type":"Feature","geometry":{"type":"LineString","coordinates":[[129.00315,35.150504],[129.002238,35.15041],[129.0014,35.150347],[129.000987,35.15035],[129.000492,35.150363],[128.999956,35.150402],[128.999548,35.150484],[128.998977,35.150673],[128.998371,35.150955],[128.997773,35.151217],[128.996497,35.1518],[128.996214,35.151972],[128.996084,35.152052],[128.995988,35.15211],[128.99469,35.153014],[128.994312,35.153284],[128.992907,35.154285],[128.991585,35.155189],[128.99132,35.155386]]},"properties":{"line":"부산 2호선","from":"주례","to":"감전","daily_down":43305.1,"daily_up":45042.4,"daily":88347.5,"daily_low":60278.2,"daily_high":99837.2,"km":1.2,"daily_down_low":29354.6,"daily_down_high":49007.6,"daily_up_low":30923.5,"daily_up_high":50829.7,"source":"busan_gravity","period":"2026-07 Mon-Fri mean","geometry_source":"osm","estimated":true}},{"type":"Feature","geometry":{"type":"LineString","coordinates":[[128.99132,35.155386],[128.99088,35.155705],[128.990435,35.156127],[128.989268,35.157355],[128.989091,35.157542],[128.987621,35.159081],[128.987222,35.15949],[128.986585,35.16014],[128.984938,35.161846],[128.984791,35.162038],[128.984666,35.162217]]},"properties":{"line":"부산 2호선","from":"감전","to":"사상","daily_down":41563.3,"daily_up":42987.5,"daily":84550.8,"daily_low":58689.1,"daily_high":95271.2,"km":1.1,"daily_down_low":28716.6,"daily_down_high":46881.1,"daily_up_low":29972.4,"daily_up_high":48390.1,"source":"busan_gravity","period":"2026-07 Mon-Fri mean","geometry_source":"osm","estimated":true}},{"type":"Feature","geometry":{"type":"LineString","coordinates":[[128.984666,35.162217],[128.98353,35.164436],[128.982286,35.166868],[128.982163,35.167249],[128.982098,35.167578],[128.98208,35.167857],[128.982116,35.168121],[128.982136,35.168331],[128.982173,35.168583],[128.98226,35.168949],[128.982528,35.16983],[128.982739,35.170544],[128.982922,35.171115],[128.983799,35.173905]]},"properties":{"line":"부산 2호선","from":"사상","to":"덕포","daily_down":32174.3,"daily_up":33153.5,"daily":65327.7,"daily_low":47232.1,"daily_high":72775.4,"km":1.2,"daily_down_low":23210.6,"daily_down_high":35855.7,"daily_up_low":24021.5,"daily_up_high":36919.7,"source":"busan_gravity","period":"2026-07 Mon-Fri mean","geometry_source":"osm","estimated":true}},{"type":"Feature","geometry":{"type":"LineString","coordinates":[[128.983799,35.173905],[128.984682,35.176716],[128.984947,35.17776],[128.985144,35.17859],[128.985463,35.179883],[128.985583,35.180365]]},"properties":{"line":"부산 2호선","from":"덕포","to":"모덕","daily_down":30233.8,"daily_up":31001.3,"daily":61235.1,"daily_low":44417.6,"daily_high":67945.1,"km":0.8,"daily_down_low":21909.2,"daily_down_high":33546.4,"daily_up_low":22508.4,"daily_up_high":34398.7,"source":"busan_gravity","period":"2026-07 Mon-Fri mean","geometry_source":"osm","estimated":true}},{"type":"Feature","geometry":{"type":"LineString","coordinates":[[128.985583,35.180365],[128.985798,35.181234],[128.985852,35.181519],[128.986119,35.182596],[128.986312,35.183394],[128.986556,35.184387],[128.986883,35.185786],[128.987003,35.186262],[128.987094,35.186508],[128.987433,35.187224],[128.987693,35.187752],[128.987891,35.188153],[128.988442,35.189297],[128.988716,35.189867]]},"properties":{"line":"부산 2호선","from":"모덕","to":"모라","daily_down":29623.5,"daily_up":30209.6,"daily":59833.1,"daily_low":43601.6,"daily_high":66204.7,"km":1.1,"daily_down_low":21592.0,"daily_down_high":32766.9,"daily_up_low":22009.6,"daily_up_high":33437.8,"source":"busan_gravity","period":"2026-07 Mon-Fri mean","geometry_source":"osm","estimated":true}},{"type":"Feature","geometry":{"type":"LineString","coordinates":[[128.988716,35.189867],[128.989194,35.190844],[128.98943,35.191267],[128.989544,35.191444],[128.989664,35.191585],[128.989811,35.191691],[128.989964,35.191772],[128.992007,35.192507],[128.992463,35.192754],[128.99271,35.19299],[128.992942,35.193293],[128.993718,35.194791],[128.994587,35.196327],[128.994659,35.196434],[128.995017,35.196945]]},"properties":{"line":"부산 2호선","from":"모라","to":"구남","daily_down":28731.8,"daily_up":28761.1,"daily":57492.9,"daily_low":42818.5,"daily_high":63032.2,"km":1.0,"daily_down_low":21478.7,"daily_down_high":31459.0,"daily_up_low":21339.7,"daily_up_high":31573.2,"source":"busan_gravity","period":"2026-07 Mon-Fri mean","geometry_source":"osm","estimated":true}},{"type":"Feature","geometry":{"type":"LineString","coordinates":[[128.995017,35.196945],[128.995732,35.197955],[128.996587,35.199016],[128.997192,35.199789],[128.998002,35.20093],[128.999622,35.202883]]},"properties":{"line":"부산 2호선","from":"구남","to":"구명","daily_down":28390.8,"daily_up":28472.3,"daily":56863.1,"daily_low":43273.3,"daily_high":61777.8,"km":0.8,"daily_down_low":21680.0,"daily_down_high":30805.7,"daily_up_low":21593.3,"daily_up_high":30972.1,"source":"busan_gravity","period":"2026-07 Mon-Fri mean","geometry_source":"osm","estimated":true}},{"type":"Feature","geometry":{"type":"LineString","coordinates":[[128.999622,35.202883],[128.999726,35.203002],[129.000039,35.203374],[129.000527,35.203953],[129.000788,35.204255],[129.000971,35.20437],[129.001213,35.204431],[129.001238,35.204439],[129.001302,35.204459],[129.002163,35.204615],[129.002497,35.204675],[129.002531,35.204681],[129.003434,35.204927],[129.003761,35.205034],[129.004033,35.205189],[129.004229,35.205362],[129.004332,35.205506],[129.004481,35.205864],[129.00456,35.206124],[129.004591,35.206223],[129.004806,35.207105],[129.005342,35.209118],[129.005407,35.209379],[129.005413,35.209581],[129.00537,35.209843]]},"properties":{"line":"부산 2호선","from":"구명","to":"덕천","daily_down":29096.0,"daily_up":28330.9,"daily":57426.9,"daily_low":44260.7,"daily_high":62053.3,"km":1.2,"daily_down_low":22597.1,"daily_down_high":31366.8,"daily_up_low":21663.6,"daily_up_high":30686.5,"source":"busan_gravity","period":"2026-07 Mon-Fri mean","geometry_source":"osm","estimated":true}},{"type":"Feature","geometry":{"type":"LineString","coordinates":[[129.00537,35.209843],[129.005061,35.21078],[129.004833,35.211221],[129.004192,35.213182],[129.004172,35.213405],[129.004234,35.213666],[129.00443,35.214424],[129.004526,35.214821],[129.005102,35.217164],[129.005107,35.217194],[129.005235,35.217639],[129.00538,35.217919],[129.005541,35.218195],[129.006672,35.219223],[129.006762,35.219315],[129.007958,35.220532],[129.008057,35.220647],[129.008207,35.220888],[129.009059,35.222924],[129.009207,35.223295]]},"properties":{"line":"부산 2호선","from":"덕천","to":"수정","daily_down":34293.9,"daily_up":34528.7,"daily":68822.6,"daily_low":47624.9,"daily_high":75929.7,"km":1.5,"daily_down_low":23695.0,"daily_down_high":37847.4,"daily_up_low":23929.9,"daily_up_high":38082.3,"source":"busan_gravity","period":"2026-07 Mon-Fri mean","geometry_source":"osm","estimated":true}},{"type":"Feature","geometry":{"type":"LineString","coordinates":[[129.009207,35.223295],[129.009508,35.224053],[129.009696,35.224539],[129.010072,35.225492],[129.010161,35.225609],[129.010607,35.226203],[129.010865,35.226539],[129.010946,35.226646],[129.011073,35.226811],[129.011257,35.227051],[129.01143,35.22728],[129.012185,35.228277],[129.012285,35.228409],[129.012451,35.228922],[129.013046,35.230839],[129.013056,35.230885],[129.013338,35.232222],[129.013349,35.23229],[129.013727,35.234539],[129.013799,35.235251],[129.013942,35.23666]]},"properties":{"line":"부산 2호선","from":"수정","to":"화명","daily_down":29815.0,"daily_up":29924.0,"daily":59739.1,"daily_low":41488.6,"daily_high":65692.4,"km":1.5,"daily_down_low":20689.8,"daily_down_high":32791.7,"daily_up_low":20798.8,"daily_up_high":32900.7,"source":"busan_gravity","period":"2026-07 Mon-Fri mean","geometry_source":"osm","estimated":true}},{"type":"Feature","geometry":{"type":"LineString","coordinates":[[129.013942,35.23666],[129.014026,35.238284],[129.014117,35.239595],[129.014158,35.240122],[129.014135,35.240304],[129.014114,35.240603],[129.014077,35.240844],[129.014065,35.240891],[129.013987,35.241201],[129.013819,35.241773],[129.013267,35.24367],[129.013009,35.244625],[129.012886,35.245142],[129.01287,35.245479],[129.01287,35.246184],[129.012886,35.246472],[129.012901,35.246753]]},"properties":{"line":"부산 2호선","from":"화명","to":"율리","daily_down":20890.7,"daily_up":21522.1,"daily":42412.7,"daily_low":28788.6,"daily_high":46525.0,"km":1.2,"daily_down_low":14078.6,"daily_down_high":22946.8,"daily_up_low":14710.0,"daily_up_high":23578.2,"source":"busan_gravity","period":"2026-07 Mon-Fri mean","geometry_source":"osm","estimated":true}},{"type":"Feature","geometry":{"type":"LineString","coordinates":[[129.012901,35.246753],[129.012902,35.247021],[129.01295,35.247742],[129.012956,35.247828],[129.012987,35.248121],[129.013004,35.248541],[129.012977,35.24901],[129.012902,35.249295],[129.012842,35.249491],[129.012601,35.249911],[129.01206,35.250692],[129.011889,35.250933],[129.011609,35.251306],[129.011493,35.251467],[129.010992,35.252167],[129.010729,35.252576],[129.010573,35.253033],[129.010495,35.253306],[129.010462,35.25359],[129.010457,35.253757],[129.010474,35.253949],[129.01053,35.254252],[129.010633,35.254582],[129.010783,35.254981],[129.010998,35.255502],[129.011443,35.256637],[129.011741,35.257309],[129.01192,35.257699],[129.012385,35.258629]]},"properties":{"line":"부산 2호선","from":"율리","to":"동원","daily_down":17365.0,"daily_up":17851.9,"daily":35216.9,"daily_low":23138.1,"daily_high":38645.2,"km":1.4,"daily_down_low":11325.6,"daily_down_high":19079.1,"daily_up_low":11812.5,"daily_up_high":19566.1,"source":"busan_gravity","period":"2026-07 Mon-Fri mean","geometry_source":"osm","estimated":true}},{"type":"Feature","geometry":{"type":"LineString","coordinates":[[129.012385,35.258629],[129.012876,35.259611],[129.01428,35.262517],[129.014361,35.26269],[129.015235,35.264377],[129.015487,35.264806],[129.016403,35.266475],[129.01649,35.266624],[129.016519,35.26666],[129.016909,35.267377]]},"properties":{"line":"부산 2호선","from":"동원","to":"금곡","daily_down":16312.6,"daily_up":16530.0,"daily":32842.7,"daily_low":21403.1,"daily_high":36010.5,"km":1.1,"daily_down_low":10592.9,"daily_down_high":17896.5,"daily_up_low":10810.3,"daily_up_high":18113.9,"source":"busan_gravity","period":"2026-07 Mon-Fri mean","geometry_source":"osm","estimated":true}},{"type":"Feature","geometry":{"type":"LineString","coordinates":[[129.016909,35.267377],[129.017347,35.268182],[129.017383,35.268248],[129.017521,35.268514],[129.017645,35.268752],[129.017869,35.269201],[129.018002,35.269509],[129.018093,35.269807],[129.01817,35.270103],[129.018232,35.27044],[129.018263,35.270728],[129.018271,35.270904],[129.018272,35.271055],[129.018253,35.271361],[129.018218,35.271671],[129.018194,35.271825],[129.018169,35.272003],[129.01808,35.272348],[129.017989,35.272639],[129.017729,35.273421],[129.017485,35.274176],[129.017383,35.274453],[129.017333,35.274604],[129.017295,35.274778],[129.017274,35.274911],[129.017256,35.275077],[129.01726,35.275245],[129.01728,35.275396],[129.017304,35.275512],[129.017561,35.27649],[129.017657,35.276908],[129.017666,35.276984],[129.017683,35.27721],[129.017695,35.277386],[129.017693,35.277763],[129.017648,35.278587],[129.017626,35.279239],[129.017556,35.279726],[129.017535,35.280334]]},"properties":{"line":"부산 2호선","from":"금곡","to":"호포","daily_down":14708.0,"daily_up":14429.9,"daily":29137.9,"daily_low":18830.1,"daily_high":31872.8,"km":1.5,"daily_down_low":9554.1,"daily_down_high":16075.5,"daily_up_low":9276.0,"daily_up_high":15797.3,"source":"busan_gravity","period":"2026-07 Mon-Fri mean","geometry_source":"osm","estimated":true}},{"type":"Feature","geometry":{"type":"LineString","coordinates":[[129.017535,35.280334],[129.017502,35.281004],[129.017499,35.281072],[129.017486,35.281764],[129.017452,35.282392],[129.01739,35.282879],[129.017381,35.283347],[129.017368,35.284032],[129.017277,35.285971],[129.017223,35.286484],[129.017138,35.287056],[129.017096,35.287362],[129.017085,35.287552],[129.017087,35.287664],[129.017107,35.287903],[129.017143,35.288173],[129.017192,35.288397],[129.01732,35.288975],[129.017487,35.289696],[129.017616,35.290254],[129.017665,35.290565],[129.017691,35.290741],[129.01771,35.290961],[129.017728,35.291222],[129.017741,35.291496],[129.017733,35.291733],[129.017728,35.291896],[129.017712,35.29202],[129.017691,35.292162],[129.017658,35.292344],[129.017632,35.292459],[129.017603,35.292558],[129.017471,35.293009],[129.017345,35.293315],[129.017242,35.293528],[129.016971,35.294011],[129.016772,35.294286],[129.016583,35.294515],[129.016413,35.294707],[129.016208,35.294907],[129.016052,35.295056],[129.015856,35.295232],[129.015603,35.295431],[129.015325,35.295627],[129.01505,35.295804],[129.014627,35.29604],[129.014186,35.296236],[129.013847,35.296374],[129.012718,35.296829],[129.011419,35.297346],[129.010723,35.297628],[129.010095,35.297899],[129.009844,35.298027],[129.009687,35.298122],[129.009498,35.298256],[129.00932,35.298399],[129.009167,35.298536],[129.009057,35.298646],[129.008942,35.298773],[129.008813,35.298957],[129.008719,35.299107],[129.008646,35.29925],[129.008589,35.299369],[129.008525,35.299528],[129.008509,35.299563],[129.008484,35.299657],[129.008455,35.299766],[129.00843,35.299875],[129.008412,35.3],[129.0084,35.300152],[129.008403,35.300485],[129.008452,35.30073],[129.008525,35.301001],[129.008727,35.301513],[129.008957,35.30204],[129.009131,35.302465],[129.009202,35.302685],[129.009265,35.302901],[129.009337,35.303192],[129.009391,35.303593],[129.00941,35.303857],[129.009409,35.30549],[129.00941,35.305695],[129.009451,35.306021],[129.009527,35.306411],[129.009586,35.306634],[129.009642,35.306812],[129.009704,35.306977],[129.009919,35.307487],[129.009933,35.307512],[129.010284,35.308315]]},"properties":{"line":"부산 2호선","from":"호포","to":"증산","daily_down":13675.3,"daily_up":13722.0,"daily":27397.3,"daily_low":17870.3,"daily_high":29868.5,"km":3.5,"daily_down_low":8911.8,"daily_down_high":14910.9,"daily_up_low":8958.5,"daily_up_high":14957.6,"source":"busan_gravity","period":"2026-07 Mon-Fri mean","geometry_source":"osm","estimated":true}},{"type":"Feature","geometry":{"type":"LineString","coordinates":[[129.010284,35.308315],[129.010636,35.309121],[129.010694,35.309277],[129.010823,35.309596],[129.011151,35.310354],[129.01157,35.311336],[129.011764,35.311767],[129.011826,35.311899],[129.012112,35.31254],[129.012699,35.313908],[129.012905,35.314376],[129.013336,35.31538],[129.013378,35.315482],[129.013546,35.315806],[129.013656,35.316034],[129.014036,35.316866],[129.014077,35.316957]]},"properties":{"line":"부산 2호선","from":"증산","to":"부산대양산캠퍼스","daily_down":10092.0,"daily_up":10506.3,"daily":20598.3,"daily_low":15766.0,"daily_high":21802.1,"km":1.0,"daily_down_low":7675.8,"daily_down_high":10693.9,"daily_up_low":8090.2,"daily_up_high":11108.2,"source":"busan_gravity","period":"2026-07 Mon-Fri mean","geometry_source":"osm","estimated":true}},{"type":"Feature","geometry":{"type":"LineString","coordinates":[[129.014077,35.316957],[129.014463,35.317598],[129.014573,35.31778],[129.014645,35.317884],[129.014955,35.318256],[129.01514,35.318454],[129.015455,35.318764],[129.015804,35.3191],[129.016035,35.319277],[129.016877,35.319925],[129.017203,35.320179],[129.017604,35.320529],[129.017795,35.320727],[129.017998,35.320944],[129.018152,35.321128],[129.018323,35.321362],[129.01852,35.321663],[129.01868,35.321955],[129.018767,35.322133],[129.018916,35.322492],[129.019074,35.323012],[129.019139,35.323323],[129.019153,35.323425],[129.019175,35.32361],[129.019297,35.324666],[129.019395,35.325402]]},"properties":{"line":"부산 2호선","from":"부산대양산캠퍼스","to":"남양산","daily_down":8761.3,"daily_up":8942.1,"daily":17703.4,"daily_low":14671.1,"daily_high":18408.7,"km":1.1,"daily_down_low":7245.2,"daily_down_high":9114.0,"daily_up_low":7425.9,"daily_up_high":9294.7,"source":"busan_gravity","period":"2026-07 Mon-Fri mean","geometry_source":"osm","estimated":true}},{"type":"Feature","geometry":{"type":"LineString","coordinates":[[129.019395,35.325402],[129.019521,35.326355],[129.019563,35.326637],[129.01961,35.326998],[129.019654,35.327362],[129.019703,35.327764],[129.019746,35.328124],[129.019785,35.328443],[129.019834,35.328846],[129.019883,35.329208],[129.019964,35.329613],[129.020071,35.330005],[129.020209,35.330393],[129.020375,35.330774],[129.020566,35.331151],[129.020755,35.331477],[129.02096,35.331786],[129.021225,35.332139],[129.021494,35.332474],[129.021763,35.332808],[129.022007,35.33311],[129.022311,35.333483],[129.022616,35.333856],[129.022921,35.334229],[129.02323,35.334606],[129.023535,35.334975],[129.023838,35.335354],[129.024138,35.335732],[129.024438,35.336109],[129.02474,35.336489],[129.025012,35.336827],[129.025308,35.337205],[129.025537,35.337513],[129.025765,35.337821],[129.025918,35.338028],[129.026399,35.338695]]},"properties":{"line":"부산 2호선","from":"남양산","to":"양산","daily_down":6163.9,"daily_up":6287.9,"daily":12451.7,"daily_low":12451.7,"daily_high":12451.7,"km":1.6,"daily_down_low":6163.9,"daily_down_high":6163.9,"daily_up_low":6287.9,"daily_up_high":6287.9,"source":"busan_gravity","period":"2026-07 Mon-Fri mean","geometry_source":"osm","estimated":true}},{"type":"Feature","geometry":{"type":"LineString","coordinates":[[129.11467,35.16764],[129.114319,35.167881],[129.1143,35.167894],[129.114204,35.167959],[129.114027,35.168081],[129.114009,35.168093],[129.111438,35.169853],[129.109751,35.171026],[129.109456,35.171175],[129.109016,35.171307],[129.108452,35.171453]]},"properties":{"line":"부산 3호선","from":"수영","to":"망미","daily_down":45967.9,"daily_up":47098.7,"daily":93066.6,"daily_low":56930.4,"daily_high":105448.5,"km":1.0,"daily_down_low":28038.7,"daily_down_high":52114.9,"daily_up_low":28891.6,"daily_up_high":53333.6,"source":"busan_gravity","period":"2026-07 Mon-Fri mean","geometry_source":"osm","estimated":true}},{"type":"Feature","geometry":{"type":"LineString","coordinates":[[129.108452,35.171453],[129.107868,35.171596],[129.107527,35.171683],[129.104435,35.172469],[129.102729,35.172885],[129.10193,35.17306],[129.101277,35.17309],[129.101154,35.173079],[129.100922,35.173085],[129.10031,35.1731],[129.098124,35.173142],[129.096606,35.1733],[129.09576,35.173412],[129.095503,35.173446]]},"properties":{"line":"부산 3호선","from":"망미","to":"배산","daily_down":48070.8,"daily_up":48996.9,"daily":97067.7,"daily_low":59505.1,"daily_high":110061.5,"km":1.2,"daily_down_low":29428.5,"daily_down_high":54523.8,"daily_up_low":30076.7,"daily_up_high":55537.8,"source":"busan_gravity","period":"2026-07 Mon-Fri mean","geometry_source":"osm","estimated":true}},{"type":"Feature","geometry":{"type":"LineString","coordinates":[[129.095503,35.173446],[129.094074,35.173638],[129.093277,35.173745],[129.092323,35.173857],[129.090632,35.174056],[129.087547,35.174459],[129.087231,35.174534],[129.087111,35.174587],[129.086963,35.174652],[129.086775,35.174771],[129.086625,35.174937],[129.086367,35.175336],[129.086185,35.175722],[129.085962,35.176306],[129.085938,35.17637],[129.085923,35.176404],[129.085844,35.176588]]},"properties":{"line":"부산 3호선","from":"배산","to":"물만골","daily_down":50073.5,"daily_up":51391.3,"daily":101464.8,"daily_low":62982.5,"daily_high":114884.0,"km":1.1,"daily_down_low":30971.3,"daily_down_high":56739.1,"daily_up_low":32011.2,"daily_up_high":58144.9,"source":"busan_gravity","period":"2026-07 Mon-Fri mean","geometry_source":"osm","estimated":true}},{"type":"Feature","geometry":{"type":"LineString","coordinates":[[129.085844,35.176588],[129.085501,35.177385],[129.085483,35.177427],[129.085325,35.177791],[129.085239,35.177983],[129.084995,35.178569],[129.084881,35.178817],[129.08451,35.179701],[129.084477,35.179778],[129.084455,35.17983],[129.083998,35.180934],[129.083777,35.181462],[129.083318,35.18248],[129.083294,35.182532],[129.083224,35.182755],[129.083079,35.183113],[129.082573,35.184406],[129.082494,35.184605],[129.08217,35.185349],[129.081974,35.18557],[129.08185,35.185693],[129.081719,35.1858],[129.081512,35.185941],[129.081309,35.186039]]},"properties":{"line":"부산 3호선","from":"물만골","to":"연산","daily_down":52177.7,"daily_up":53609.7,"daily":105787.4,"daily_low":67007.4,"daily_high":119400.4,"km":1.1,"daily_down_low":32926.6,"daily_down_high":58940.3,"daily_up_low":34080.8,"daily_up_high":60460.2,"source":"busan_gravity","period":"2026-07 Mon-Fri mean","geometry_source":"osm","estimated":true}},{"type":"Feature","geometry":{"type":"LineString","coordinates":[[129.081309,35.186039],[129.081028,35.186185],[129.080762,35.186293],[129.080422,35.186419],[129.080388,35.186432],[129.079639,35.186716],[129.078063,35.187306],[129.077307,35.187578],[129.076798,35.187731],[129.076161,35.187879],[129.076114,35.187889],[129.075166,35.188108],[129.074654,35.188238],[129.074244,35.188398],[129.074009,35.188493]]},"properties":{"line":"부산 3호선","from":"연산","to":"거제","daily_down":48730.4,"daily_up":49426.2,"daily":98156.7,"daily_low":66024.4,"daily_high":110769.0,"km":0.7,"daily_down_low":32622.5,"daily_down_high":55061.2,"daily_up_low":33401.9,"daily_up_high":55707.9,"source":"busan_gravity","period":"2026-07 Mon-Fri mean","geometry_source":"osm","estimated":true}},{"type":"Feature","geometry":{"type":"LineString","coordinates":[[129.074009,35.188493],[129.073474,35.188711],[129.073267,35.188804],[129.073067,35.188892],[129.072646,35.189123],[129.071266,35.189796],[129.070581,35.190123],[129.069353,35.190679],[129.069093,35.190809],[129.068851,35.190887],[129.068722,35.190925],[129.068548,35.190938],[129.0681,35.19094],[129.067769,35.190986],[129.067638,35.191087],[129.067551,35.191228]]},"properties":{"line":"부산 3호선","from":"거제","to":"종합운동장","daily_down":45255.0,"daily_up":45841.5,"daily":91096.5,"daily_low":59754.4,"daily_high":103400.6,"km":0.7,"daily_down_low":29542.2,"daily_down_high":51431.6,"daily_up_low":30212.2,"daily_up_high":51968.9,"source":"busan_gravity","period":"2026-07 Mon-Fri mean","geometry_source":"osm","estimated":true}},{"type":"Feature","geometry":{"type":"LineString","coordinates":[[129.067551,35.191228],[129.067498,35.191414],[129.067396,35.191825],[129.06624,35.195559],[129.066013,35.196233],[129.065258,35.198478],[129.065067,35.19909]]},"properties":{"line":"부산 3호선","from":"종합운동장","to":"사직","daily_down":41565.2,"daily_up":42387.3,"daily":83952.5,"daily_low":53929.2,"daily_high":95718.2,"km":0.8,"daily_down_low":26511.7,"daily_down_high":47472.6,"daily_up_low":27417.5,"daily_up_high":48245.6,"source":"busan_gravity","period":"2026-07 Mon-Fri mean","geometry_source":"osm","estimated":true}},{"type":"Feature","geometry":{"type":"LineString","coordinates":[[129.065067,35.19909],[129.064899,35.199627],[129.064808,35.200061],[129.064786,35.200333],[129.064824,35.200556],[129.064883,35.200767],[129.06506,35.201069],[129.065467,35.201745],[129.066153,35.20273],[129.066792,35.203665],[129.067168,35.204216],[129.068318,35.205918]]},"properties":{"line":"부산 3호선","from":"사직","to":"미남","daily_down":37551.0,"daily_up":38596.5,"daily":76147.5,"daily_low":48066.9,"daily_high":87080.5,"km":0.8,"daily_down_low":23469.0,"daily_down_high":43042.1,"daily_up_low":24598.0,"daily_up_high":44038.4,"source":"busan_gravity","period":"2026-07 Mon-Fri mean","geometry_source":"osm","estimated":true}},{"type":"Feature","geometry":{"type":"LineString","coordinates":[[129.068318,35.205918],[129.068705,35.206544],[129.068937,35.206881],[129.069144,35.207189],[129.069191,35.207294],[129.069217,35.207374],[129.069224,35.207474],[129.069218,35.20755],[129.069207,35.207605],[129.069184,35.207664],[129.069124,35.20776],[129.068984,35.207931],[129.068876,35.20804],[129.068731,35.208143],[129.068482,35.208264],[129.068294,35.208339],[129.067862,35.208488],[129.067606,35.208542],[129.066688,35.208822],[129.065918,35.209028],[129.063697,35.209629],[129.061691,35.210142],[129.046449,35.212651],[129.044414,35.213003],[129.043687,35.213115],[129.042452,35.213203],[129.040274,35.213006],[129.038683,35.212776],[129.03818,35.212827],[129.037239,35.212898],[129.036461,35.212988]]},"properties":{"line":"부산 3호선","from":"미남","to":"만덕","daily_down":46332.8,"daily_up":47372.6,"daily":93705.4,"daily_low":57496.0,"daily_high":106545.4,"km":3.3,"daily_down_low":28143.9,"daily_down_high":52795.2,"daily_up_low":29352.1,"daily_up_high":53750.2,"source":"busan_gravity","period":"2026-07 Mon-Fri mean","geometry_source":"osm","estimated":true}},{"type":"Feature","geometry":{"type":"LineString","coordinates":[[129.036461,35.212988],[129.035947,35.213044],[129.034918,35.213158],[129.033512,35.213232],[129.033056,35.213245],[129.032568,35.213215],[129.031318,35.213013],[129.030401,35.212877],[129.029424,35.212768],[129.028655,35.212757],[129.028116,35.212807],[129.027972,35.212848],[129.027375,35.213017],[129.026785,35.213127],[129.025787,35.213241],[129.024897,35.213272],[129.024352,35.213322],[129.023926,35.213325]]},"properties":{"line":"부산 3호선","from":"만덕","to":"남산정","daily_down":43331.4,"daily_up":44945.9,"daily":88277.4,"daily_low":54835.8,"daily_high":100072.5,"km":1.2,"daily_down_low":26526.4,"daily_down_high":49271.4,"daily_up_low":28309.3,"daily_up_high":50801.1,"source":"busan_gravity","period":"2026-07 Mon-Fri mean","geometry_source":"osm","estimated":true}},{"type":"Feature","geometry":{"type":"LineString","coordinates":[[129.023926,35.213325],[129.020283,35.213219],[129.018518,35.213153],[129.017912,35.213144],[129.017333,35.21307],[129.016813,35.212969],[129.012754,35.211977]]},"properties":{"line":"부산 3호선","from":"남산정","to":"숙등","daily_down":42193.5,"daily_up":42503.0,"daily":84696.5,"daily_low":53722.4,"daily_high":95554.0,"km":1.0,"daily_down_low":26622.2,"daily_down_high":47664.6,"daily_up_low":27100.2,"daily_up_high":47889.4,"source":"busan_gravity","period":"2026-07 Mon-Fri mean","geometry_source":"osm","estimated":true}},{"type":"Feature","geometry":{"type":"LineString","coordinates":[[129.012754,35.211977],[129.008181,35.210825],[129.006276,35.210354],[129.005795,35.210227]]},"properties":{"line":"부산 3호선","from":"숙등","to":"덕천","daily_down":40852.2,"daily_up":41029.7,"daily":81881.9,"daily_low":53480.2,"daily_high":91766.9,"km":0.7,"daily_down_low":26567.2,"daily_down_high":45837.1,"daily_up_low":26913.0,"daily_up_high":45929.8,"source":"busan_gravity","period":"2026-07 Mon-Fri mean","geometry_source":"osm","estimated":true}},{"type":"Feature","geometry":{"type":"LineString","coordinates":[[129.005795,35.210227],[129.005276,35.210083],[129.004954,35.209998],[129.004493,35.209888],[129.003965,35.209761],[129.003544,35.209693],[129.003069,35.209686],[129.002586,35.209765],[129.002039,35.209927],[129.001551,35.210033],[129.001143,35.210063],[129.000752,35.210033],[129.000344,35.209944],[128.999907,35.209808],[128.999683,35.209705],[128.999474,35.209592],[128.999287,35.209468],[128.999118,35.20933],[128.998938,35.209175],[128.998087,35.208343],[128.998049,35.208307],[128.996923,35.20721],[128.996374,35.20668]]},"properties":{"line":"부산 3호선","from":"덕천","to":"구포","daily_down":14906.5,"daily_up":15718.6,"daily":30625.0,"daily_low":27869.7,"daily_high":31172.3,"km":1.0,"daily_down_low":13528.8,"daily_down_high":15180.1,"daily_up_low":14340.9,"daily_up_high":15992.2,"source":"busan_gravity","period":"2026-07 Mon-Fri mean","geometry_source":"osm","estimated":true}},{"type":"Feature","geometry":{"type":"LineString","coordinates":[[128.996374,35.20668],[128.995837,35.206162],[128.995678,35.20602],[128.995531,35.2059],[128.995367,35.205798],[128.995183,35.205709],[128.995001,35.205648],[128.994833,35.205595],[128.994597,35.20554],[128.994401,35.205518],[128.994217,35.205507],[128.993959,35.205518],[128.993794,35.205531],[128.993586,35.205573],[128.993413,35.205618],[128.993229,35.20568],[128.993072,35.205745],[128.992878,35.205837],[128.992694,35.205941],[128.992544,35.206042],[128.987177,35.209638],[128.986356,35.210193],[128.98576,35.210519],[128.98527,35.210704],[128.984875,35.210822],[128.984453,35.210913],[128.984045,35.210974],[128.98328,35.21106],[128.982647,35.211145],[128.981946,35.211214]]},"properties":{"line":"부산 3호선","from":"구포","to":"강서구청","daily_down":11682.1,"daily_up":12885.4,"daily":24567.5,"daily_low":22819.4,"daily_high":24887.8,"km":1.6,"daily_down_low":10808.1,"daily_down_high":11842.3,"daily_up_low":12011.3,"daily_up_high":13045.5,"source":"busan_gravity","period":"2026-07 Mon-Fri mean","geometry_source":"osm","estimated":true}},{"type":"Feature","geometry":{"type":"LineString","coordinates":[[128.981946,35.211214],[128.981027,35.211306],[128.978052,35.211602],[128.975103,35.211895],[128.972875,35.212116],[128.970116,35.21239],[128.969372,35.212464]]},"properties":{"line":"부산 3호선","from":"강서구청","to":"체육공원","daily_down":8885.6,"daily_up":9978.6,"daily":18864.2,"daily_low":18347.0,"daily_high":18953.1,"km":1.1,"daily_down_low":8627.0,"daily_down_high":8930.0,"daily_up_low":9720.0,"daily_up_high":10023.0,"source":"busan_gravity","period":"2026-07 Mon-Fri mean","geometry_source":"osm","estimated":true}},{"type":"Feature","geometry":{"type":"LineString","coordinates":[[128.969372,35.212464],[128.968495,35.212551],[128.964483,35.21295],[128.96305,35.213093],[128.962463,35.213151],[128.961824,35.213214],[128.961084,35.213288]]},"properties":{"line":"부산 3호선","from":"체육공원","to":"대저","daily_down":7913.7,"daily_up":8964.5,"daily":16878.3,"daily_low":16878.3,"daily_high":16878.3,"km":0.8,"daily_down_low":7913.7,"daily_down_high":7913.7,"daily_up_low":8964.5,"daily_up_high":8964.5,"source":"busan_gravity","period":"2026-07 Mon-Fri mean","geometry_source":"osm","estimated":true}},{"type":"Feature","geometry":{"type":"LineString","coordinates":[[129.069212,35.20717],[129.069366,35.207412],[129.069483,35.207542],[129.069564,35.2076],[129.069662,35.207658],[129.069773,35.2077],[129.06988,35.207724],[129.07,35.207736],[129.070137,35.207724],[129.070306,35.207696],[129.070904,35.207422],[129.071818,35.207025],[129.072527,35.206729],[129.077297,35.204722]]},"properties":{"line":"부산 4호선","from":"미남","to":"동래","daily_down":24155.8,"daily_up":23538.2,"daily":47694.0,"daily_low":33923.3,"daily_high":51743.5,"km":1.1,"daily_down_low":17312.8,"daily_down_high":26162.7,"daily_up_low":16610.5,"daily_up_high":25580.8,"source":"busan_gravity","period":"2026-07 Mon-Fri mean","geometry_source":"osm","estimated":true}},{"type":"Feature","geometry":{"type":"LineString","coordinates":[[129.077297,35.204722],[129.077795,35.204511],[129.078328,35.204272],[129.079587,35.203737],[129.081145,35.203096],[129.082619,35.202329],[129.083112,35.202059],[129.08341,35.201929],[129.083677,35.201817]]},"properties":{"line":"부산 4호선","from":"동래","to":"수안","daily_down":25071.7,"daily_up":25102.4,"daily":50174.0,"daily_low":41449.1,"daily_high":51901.4,"km":0.6,"daily_down_low":20709.2,"daily_down_high":25935.4,"daily_up_low":20739.9,"daily_up_high":25966.1,"source":"busan_gravity","period":"2026-07 Mon-Fri mean","geometry_source":"osm","estimated":true}},{"type":"Feature","geometry":{"type":"LineString","coordinates":[[129.083677,35.201817],[129.083879,35.201725],[129.084421,35.201606],[129.085094,35.20149],[129.086761,35.201182],[129.088019,35.200956],[129.088978,35.200779],[129.088997,35.200774],[129.089375,35.200689],[129.08965,35.200603],[129.090224,35.20042],[129.090823,35.200188]]},"properties":{"line":"부산 4호선","from":"수안","to":"낙민","daily_down":20839.9,"daily_up":21081.8,"daily":41921.7,"daily_low":34300.9,"daily_high":43359.5,"km":0.7,"daily_down_low":17029.5,"daily_down_high":21558.8,"daily_up_low":17271.4,"daily_up_high":21800.7,"source":"busan_gravity","period":"2026-07 Mon-Fri mean","geometry_source":"osm","estimated":true}},{"type":"Feature","geometry":{"type":"LineString","coordinates":[[129.090823,35.200188],[129.092032,35.199809],[129.093134,35.199394],[129.093801,35.199153],[129.094876,35.198807],[129.095218,35.198696],[129.09548,35.198621],[129.095717,35.198544],[129.096072,35.198531],[129.096453,35.198599],[129.096659,35.198704],[129.096865,35.198816],[129.097047,35.198972],[129.097234,35.199237],[129.097569,35.199724]]},"properties":{"line":"부산 4호선","from":"낙민","to":"충렬사","daily_down":19185.2,"daily_up":19447.9,"daily":38633.1,"daily_low":31528.6,"daily_high":39942.9,"km":0.7,"daily_down_low":15633.0,"daily_down_high":19840.1,"daily_up_low":15895.7,"daily_up_high":20102.8,"source":"busan_gravity","period":"2026-07 Mon-Fri mean","geometry_source":"osm","estimated":true}},{"type":"Feature","geometry":{"type":"LineString","coordinates":[[129.097569,35.199724],[129.098271,35.201087],[129.09835,35.201241],[129.098791,35.202057],[129.098833,35.202135],[129.099183,35.202481],[129.099687,35.202963],[129.100266,35.203428],[129.100577,35.203656],[129.100813,35.203901],[129.10136,35.204769],[129.101762,35.205379]]},"properties":{"line":"부산 4호선","from":"충렬사","to":"명장","daily_down":15810.0,"daily_up":16245.7,"daily":32055.6,"daily_low":26073.2,"daily_high":33104.7,"km":0.7,"daily_down_low":12818.8,"daily_down_high":16334.5,"daily_up_low":13254.5,"daily_up_high":16770.2,"source":"busan_gravity","period":"2026-07 Mon-Fri mean","geometry_source":"osm","estimated":true}},{"type":"Feature","geometry":{"type":"LineString","coordinates":[[129.101762,35.205379],[129.102148,35.206041],[129.102535,35.206415],[129.103066,35.206837],[129.103377,35.207287],[129.103481,35.20797],[129.103473,35.208656],[129.103518,35.209258],[129.103748,35.209589],[129.104076,35.209803],[129.104558,35.210009],[129.105059,35.21027],[129.105526,35.21076],[129.106414,35.211774],[129.107524,35.213023]]},"properties":{"line":"부산 4호선","from":"명장","to":"서동","daily_down":12991.4,"daily_up":13258.3,"daily":26249.7,"daily_low":21265.3,"daily_high":27076.3,"km":1.1,"daily_down_low":10499.2,"daily_down_high":13404.7,"daily_up_low":10766.1,"daily_up_high":13671.6,"source":"busan_gravity","period":"2026-07 Mon-Fri mean","geometry_source":"osm","estimated":true}},{"type":"Feature","geometry":{"type":"LineString","coordinates":[[129.107524,35.213023],[129.108084,35.213646],[129.108409,35.213948],[129.108638,35.214092],[129.109852,35.21433],[129.111041,35.214547],[129.111585,35.21465],[129.112169,35.214785],[129.113735,35.215293],[129.114701,35.215626],[129.115238,35.215792]]},"properties":{"line":"부산 4호선","from":"서동","to":"금사","daily_down":10644.7,"daily_up":11063.5,"daily":21708.2,"daily_low":17651.4,"daily_high":22346.1,"km":0.8,"daily_down_low":8616.3,"daily_down_high":10963.7,"daily_up_low":9035.1,"daily_up_high":11382.5,"source":"busan_gravity","period":"2026-07 Mon-Fri mean","geometry_source":"osm","estimated":true}},{"type":"Feature","geometry":{"type":"LineString","coordinates":[[129.115238,35.215792],[129.116611,35.21631],[129.11822,35.216818],[129.119164,35.217064],[129.120404,35.217243],[129.122318,35.217554],[129.123252,35.217686],[129.123515,35.217716],[129.123837,35.217769]]},"properties":{"line":"부산 4호선","from":"금사","to":"반여농산물시장","daily_down":8986.5,"daily_up":9240.6,"daily":18227.1,"daily_low":14916.2,"daily_high":18721.4,"km":0.8,"daily_down_low":7331.0,"daily_down_high":9233.6,"daily_up_low":7585.2,"daily_up_high":9487.8,"source":"busan_gravity","period":"2026-07 Mon-Fri mean","geometry_source":"osm","estimated":true}},{"type":"Feature","geometry":{"type":"LineString","coordinates":[[129.123837,35.217769],[129.125301,35.217975],[129.127271,35.21819],[129.128837,35.218453],[129.129481,35.218558],[129.129888,35.218558],[129.130253,35.218505],[129.130977,35.218365],[129.132681,35.218067],[129.133459,35.217927],[129.134039,35.217879],[129.134683,35.217894],[129.135653,35.218],[129.136033,35.218075],[129.136162,35.2181],[129.136842,35.218172]]},"properties":{"line":"부산 4호선","from":"반여농산물시장","to":"석대","daily_down":7144.6,"daily_up":7460.3,"daily":14605.0,"daily_low":12071.1,"daily_high":14957.8,"km":1.2,"daily_down_low":5877.7,"daily_down_high":7321.0,"daily_up_low":6193.4,"daily_up_high":7636.8,"source":"busan_gravity","period":"2026-07 Mon-Fri mean","geometry_source":"osm","estimated":true}},{"type":"Feature","geometry":{"type":"LineString","coordinates":[[129.136842,35.218172],[129.137519,35.218244],[129.137998,35.218226],[129.138252,35.21822],[129.138836,35.218207],[129.139909,35.218243],[129.140328,35.218251],[129.140671,35.218295],[129.141046,35.218356],[129.141379,35.218452],[129.141712,35.218593],[129.142033,35.218759],[129.142302,35.218935],[129.142553,35.21915],[129.142795,35.219399],[129.142978,35.219636],[129.143186,35.219956],[129.143375,35.220346],[129.143572,35.220701],[129.143797,35.221008],[129.144044,35.221218],[129.144329,35.221415],[129.144933,35.221796],[129.145195,35.222039],[129.145399,35.222288],[129.145563,35.222677],[129.145675,35.223068],[129.145825,35.223918],[129.145997,35.22511],[129.146092,35.225648]]},"properties":{"line":"부산 4호선","from":"석대","to":"영산대","daily_down":7039.5,"daily_up":7299.8,"daily":14339.3,"daily_low":11881.5,"daily_high":14679.2,"km":1.3,"daily_down_low":5810.6,"daily_down_high":7209.4,"daily_up_low":6070.9,"daily_up_high":7469.8,"source":"busan_gravity","period":"2026-07 Mon-Fri mean","geometry_source":"osm","estimated":true}},{"type":"Feature","geometry":{"type":"LineString","coordinates":[[129.146092,35.225648],[129.146333,35.226707],[129.146958,35.22853],[129.147068,35.228783],[129.147204,35.229042],[129.147411,35.229285],[129.14769,35.229495],[129.148047,35.229691],[129.148428,35.229857],[129.149955,35.230317],[129.150281,35.230448],[129.150434,35.230538],[129.150992,35.230889],[129.151257,35.23104],[129.151981,35.231429],[129.152297,35.231596],[129.153152,35.232091],[129.153936,35.232522]]},"properties":{"line":"부산 4호선","from":"영산대","to":"윗반송","daily_down":4586.7,"daily_up":4865.5,"daily":9452.2,"daily_low":8396.4,"daily_high":9590.4,"km":1.2,"daily_down_low":4058.8,"daily_down_high":4655.8,"daily_up_low":4337.6,"daily_up_high":4934.6,"source":"busan_gravity","period":"2026-07 Mon-Fri mean","geometry_source":"osm","estimated":true}},{"type":"Feature","geometry":{"type":"LineString","coordinates":[[129.153936,35.232522],[129.154758,35.233054],[129.155606,35.233553],[129.15597,35.23379],[129.156185,35.234],[129.156425,35.234259],[129.156758,35.234636],[129.157058,35.234951],[129.157316,35.235162],[129.157655,35.235411],[129.157998,35.235603],[129.158406,35.235752],[129.158792,35.235849],[129.159232,35.235928],[129.159961,35.236024],[129.16047,35.236126]]},"properties":{"line":"부산 4호선","from":"윗반송","to":"고촌","daily_down":2329.8,"daily_up":2508.5,"daily":4838.3,"daily_low":4654.6,"daily_high":4861.6,"km":0.7,"daily_down_low":2238.0,"daily_down_high":2341.4,"daily_up_low":2416.7,"daily_up_high":2520.2,"source":"busan_gravity","period":"2026-07 Mon-Fri mean","geometry_source":"osm","estimated":true}},{"type":"Feature","geometry":{"type":"LineString","coordinates":[[129.16047,35.236126],[129.161539,35.236261],[129.162461,35.236357],[129.162847,35.236357],[129.16333,35.236331],[129.1648,35.236155],[129.166264,35.235985],[129.166667,35.235954],[129.167021,35.235954],[129.167751,35.235998],[129.168169,35.236077],[129.16877,35.236226],[129.169401,35.2364],[129.169863,35.236572],[129.169885,35.236581],[129.170109,35.236675],[129.1704,35.236818],[129.171263,35.237255],[129.171686,35.237445]]},"properties":{"line":"부산 4호선","from":"고촌","to":"안평","daily_down":1864.9,"daily_up":1944.6,"daily":3809.5,"daily_low":3809.5,"daily_high":3809.5,"km":1.1,"daily_down_low":1864.9,"daily_down_high":1864.9,"daily_up_low":1944.6,"daily_up_high":1944.6,"source":"busan_gravity","period":"2026-07 Mon-Fri mean","geometry_source":"osm","estimated":true}}],"line_meta":{"부산 1호선":{"en":"Busan Line 1 (est.)","color":"#F06A00","cls":"metro","estimated":true,"period":"2026-07","city":"부산"},"부산 2호선":{"en":"Busan Line 2 (est.)","color":"#81BF48","cls":"metro","estimated":true,"period":"2026-07","city":"부산"},"부산 3호선":{"en":"Busan Line 3 (est.)","color":"#BB8C00","cls":"metro","estimated":true,"period":"2026-07","city":"부산"},"부산 4호선":{"en":"Busan Line 4 (est.)","color":"#217DCB","cls":"metro","estimated":true,"period":"2026-07","city":"부산"}},"station_names":{"다대포해수욕장":"Dadaepo Beach","다대포항":"Dadaepo Harbor","낫개":"Natgae","신장림":"Sinjangnim","장림":"Jangnim","동매":"Dongmae","신평":"Sinpyeong","하단":"Hadan","당리":"Dangni","사하":"Saha","괴정":"Goejeong","대티":"Daeti","서대신":"Seodaesin","동대신":"Dongdaesin","토성":"Toseong","자갈치":"Jagalchi","남포":"Nampo","중앙":"Jungang","부산역":"Busan Station","초량":"Choryang","부산진":"Busanjin","좌천":"Jwacheon","범일":"Beomil","범내골":"Beomnaegol","서면":"Seomyeon","부전":"Bujeon","양정":"Yangjeong","시청":"City Hall","연산":"Yeonsan","교대":"Busan Nat''''''''l Univ. of Edu.","동래":"Dongnae","명륜":"Myeongnyun","온천장":"Oncheonjang","부산대":"Pusan Nat''''''''l Univ.","장전":"Jangjeon","구서":"Guseo","두실":"Dusil","남산":"Namsan","범어사":"Beomeosa","노포":"Nopo","장산":"Jangsan","중동":"Jung-dong","해운대":"Haeundae","동백":"Dongbaek","벡스코":"Busan Museum of Art","센텀시티":"Centum City","민락":"Millak","수영":"Suyeong","광안":"Gwangan","금련산":"Geumnyeonsan","남천":"Namcheon","경성대.부경대":"Kyungsung Univ. Pukyong Nat''''''''l Univ.","대연":"Daeyeon","못골":"Motgol","지게골":"Jigegol","문현":"Munhyeon","국제금융센터.부산은행":"Busan Int''''''''l Finance Center Busan Bank","전포":"Jeonpo","부암":"Buam","가야":"Gaya","동의대":"Dongeui Univ.","개금":"Gaegeum","냉정":"Naengjeong","주례":"Jurye","감전":"Gamjeon","사상":"Sasang","덕포":"Deokpo","모덕":"Modeok","모라":"Mora","구남":"Gunam","구명":"Gumyeong","덕천":"Deokcheon","수정":"Sujeong","화명":"Hwamyeong","율리":"Yulli","동원":"Dongwon","금곡":"Geumgok","호포":"Hopo","증산":"Jeungsan","부산대양산캠퍼스":"Pusan Nat''''''''l Univ. Yangsan Campus","남양산":"Namyangsan","양산":"Yangsan","망미":"Mangmi","배산":"Baesan","물만골":"Mulmangol","거제":"Geoje","종합운동장":"Sports Complex","사직":"Sajik","미남":"Minam","만덕":"Mandeok","남산정":"Namsanjeong","숙등":"Sukdeung","구포":"Gupo","강서구청":"Gangseo-gu Office","체육공원":"Sports Park","대저":"Daejeo","수안":"Suan","낙민":"Nangmin","충렬사":"Chungnyeolsa","명장":"Myeongjang","서동":"Seo-dong","금사":"Geumsa","반여농산물시장":"Banyeo Agricultural Market","석대":"Seokdae","영산대":"Youngsan Univ.","윗반송":"Witbansong","고촌":"Gochon","안평":"Anpyeong"},"model_report":{"days":23,"gate_platforms":112,"boardings":951453.3043478262,"alightings":949643.6521739131,"destination_scale":1.0019056118258365,"station_complexes":108,"platforms":114,"segments":110,"month":"2026-07","day_filter":"Monday-Friday (no holiday exclusion)","scenarios":[{"decay_minutes":10,"max_gate_residual":6.020567525411025e-06,"iterations":29,"mean_trip_km":7.029873310313159,"max_station_flow_residual":6.020538421580568e-06},{"decay_minutes":20,"max_gate_residual":2.0704283087980002e-06,"iterations":12,"mean_trip_km":10.082689954877782,"max_station_flow_residual":2.0703264453914016e-06},{"decay_minutes":30,"max_gate_residual":3.8500620576087385e-06,"iterations":8,"mean_trip_km":11.240334985462157,"max_station_flow_residual":3.850076609523967e-06}],"track_geometry":{"부산 1호선":{"fitted":true,"worst_station_offset_m":205,"track_km":39.779,"source":"OSM busan 1"},"부산 2호선":{"fitted":true,"worst_station_offset_m":110,"track_km":45.343,"source":"OSM busan 2"},"부산 3호선":{"fitted":true,"worst_station_offset_m":52,"track_km":17.867,"source":"OSM busan 3"},"부산 4호선":{"fitted":true,"worst_station_offset_m":37,"track_km":11.784,"source":"OSM busan 4"}},"sensitivity_median_fraction":0.39348017469331564,"sensitivity_max_fraction":0.5987811134688245,"limits":"Uncalibrated gravity OD, not observed trips. Gate fit is an accounting check, not independent validation. Lines 1-4 only; external rail transfers are treated as gate demand. Scenario bounds are not confidence intervals.","source_sha256":{"stations.csv":"611d0dab158dbc0b5a44081f979c4f5bbd888b66e94e2df7f0f0e23da63d6b89","distances.csv":"7f913662cb61c16e7648dcb5024e6d9ff60a66bdae6860ec5cb6731f0b970916","counts.csv":"1fb3760975496045938822a5592572364916db45998410aa5648e80542fa6b52"}}}