{"type":"FeatureCollection","features":[{"type":"Feature","geometry":{"type":"LineString","coordinates":[[128.489337,35.798676],[128.491581,35.800154],[128.492319,35.800566],[128.493134,35.801035],[128.493885,35.801362],[128.494411,35.801662],[128.495656,35.802624],[128.496063,35.802835],[128.496431,35.802961],[128.497655,35.803295],[128.49888,35.803572],[128.499309,35.803737],[128.500393,35.804279]]},"properties":{"line":"대구 1호선","from":"설화명곡","to":"화원","daily_down":5421.8,"daily_up":4723.8,"daily":10145.6,"daily_low":10145.6,"daily_high":10145.6,"daily_down_low":5421.8,"daily_down_high":5421.8,"daily_up_low":4723.8,"daily_up_high":4723.8,"km":1.18,"source":"daegu_gravity","period":"2026-06 Mon-Fri mean","geometry_source":"osm","estimated":true}},{"type":"Feature","geometry":{"type":"LineString","coordinates":[[128.500393,35.804279],[128.500838,35.804501],[128.501272,35.804686],[128.50197,35.804881],[128.5033,35.805223],[128.504413,35.80556],[128.505306,35.805856],[128.505886,35.806156],[128.506495,35.806619],[128.506905,35.806917],[128.508243,35.807598],[128.510649,35.808571],[128.510931,35.808692],[128.512508,35.809413]]},"properties":{"line":"대구 1호선","from":"화원","to":"대곡","daily_down":9003.4,"daily_up":8411.1,"daily":17414.5,"daily_low":16672.8,"daily_high":18025.3,"daily_down_low":8632.6,"daily_down_high":9308.8,"daily_up_low":8040.3,"daily_up_high":8716.5,"km":1.241,"source":"daegu_gravity","period":"2026-06 Mon-Fri mean","geometry_source":"osm","estimated":true}},{"type":"Feature","geometry":{"type":"LineString","coordinates":[[128.512508,35.809413],[128.514053,35.810075],[128.515652,35.810702],[128.516219,35.810944],[128.516644,35.811149],[128.516916,35.811328],[128.517181,35.811563],[128.517739,35.812058],[128.518709,35.812843],[128.519027,35.813018],[128.519395,35.813148],[128.519841,35.813243],[128.522682,35.813756]]},"properties":{"line":"대구 1호선","from":"대곡","to":"진천","daily_down":12915.0,"daily_up":11946.0,"daily":24861.1,"daily_low":23225.3,"daily_high":26307.4,"daily_down_low":12097.2,"daily_down_high":13638.2,"daily_up_low":11128.1,"daily_up_high":12669.2,"km":1.002,"source":"daegu_gravity","period":"2026-06 Mon-Fri mean","geometry_source":"osm","estimated":true}},{"type":"Feature","geometry":{"type":"LineString","coordinates":[[128.522682,35.813756],[128.525442,35.814285],[128.526329,35.814489],[128.52678,35.814631],[128.527948,35.815089],[128.528693,35.815346],[128.530435,35.81611]]},"properties":{"line":"대구 1호선","from":"진천","to":"월배","daily_down":18894.9,"daily_up":17937.9,"daily":36832.8,"daily_low":33408.8,"daily_high":40019.0,"daily_down_low":17183.0,"daily_down_high":20488.0,"daily_up_low":16225.9,"daily_up_high":19530.9,"km":0.744,"source":"daegu_gravity","period":"2026-06 Mon-Fri mean","geometry_source":"osm","estimated":true}},{"type":"Feature","geometry":{"type":"LineString","coordinates":[[128.530435,35.81611],[128.534258,35.81788],[128.534494,35.817982],[128.534698,35.818037],[128.537361,35.818783]]},"properties":{"line":"대구 1호선","from":"월배","to":"상인","daily_down":21762.2,"daily_up":20860.1,"daily":42622.3,"daily_low":37969.6,"daily_high":47053.7,"daily_down_low":19435.9,"daily_down_high":23977.9,"daily_up_low":18533.8,"daily_up_high":23075.8,"km":0.737,"source":"daegu_gravity","period":"2026-06 Mon-Fri mean","geometry_source":"osm","estimated":true}},{"type":"Feature","geometry":{"type":"LineString","coordinates":[[128.537361,35.818783],[128.537852,35.818939],[128.538354,35.819076],[128.541529,35.820033],[128.542015,35.820227],[128.542353,35.820466],[128.542667,35.820751],[128.54589,35.824011]]},"properties":{"line":"대구 1호선","from":"상인","to":"월촌","daily_down":28128.5,"daily_up":26787.3,"daily":54915.8,"daily_low":47019.1,"daily_high":62525.3,"daily_down_low":24180.1,"daily_down_high":31933.2,"daily_up_low":22839.0,"daily_up_high":30592.1,"km":0.893,"source":"daegu_gravity","period":"2026-06 Mon-Fri mean","geometry_source":"osm","estimated":true}},{"type":"Feature","geometry":{"type":"LineString","coordinates":[[128.54589,35.824011],[128.54832,35.826929],[128.551746,35.830939]]},"properties":{"line":"대구 1호선","from":"월촌","to":"송현","daily_down":30025.1,"daily_up":28901.0,"daily":58926.1,"daily_low":49756.9,"daily_high":67813.1,"daily_down_low":25440.5,"daily_down_high":34468.6,"daily_up_low":24316.4,"daily_up_high":33344.5,"km":0.999,"source":"daegu_gravity","period":"2026-06 Mon-Fri mean","geometry_source":"osm","estimated":true}},{"type":"Feature","geometry":{"type":"LineString","coordinates":[[128.551746,35.830939],[128.551976,35.831248],[128.5525,35.831917],[128.552726,35.83217],[128.553092,35.832506],[128.555054,35.834055],[128.555231,35.83424],[128.555469,35.834496],[128.555612,35.834705],[128.556341,35.835982],[128.556647,35.836377],[128.556931,35.836695],[128.557157,35.836901],[128.557344,35.837054]]},"properties":{"line":"대구 1호선","from":"송현","to":"서부정류장","daily_down":31740.8,"daily_up":30804.5,"daily":62545.3,"daily_low":52549.5,"daily_high":72292.9,"daily_down_low":26742.9,"daily_down_high":36614.6,"daily_up_low":25806.6,"daily_up_high":35678.3,"km":0.844,"source":"daegu_gravity","period":"2026-06 Mon-Fri mean","geometry_source":"osm","estimated":true}},{"type":"Feature","geometry":{"type":"LineString","coordinates":[[128.557344,35.837054],[128.557586,35.83723],[128.557822,35.837395],[128.558087,35.837528],[128.558385,35.837658],[128.558817,35.837808],[128.561836,35.838575],[128.564079,35.839095],[128.564517,35.839176],[128.565032,35.839226]]},"properties":{"line":"대구 1호선","from":"서부정류장","to":"대명","daily_down":35967.0,"daily_up":34710.8,"daily":70677.8,"daily_low":59148.3,"daily_high":82026.6,"daily_down_low":30202.2,"daily_down_high":41641.4,"daily_up_low":28946.0,"daily_up_high":40385.2,"km":0.772,"source":"daegu_gravity","period":"2026-06 Mon-Fri mean","geometry_source":"osm","estimated":true}},{"type":"Feature","geometry":{"type":"LineString","coordinates":[[128.565032,35.839226],[128.569194,35.839402],[128.569881,35.839424],[128.570702,35.839367],[128.571332,35.839317],[128.57384,35.839162]]},"properties":{"line":"대구 1호선","from":"대명","to":"안지랑","daily_down":37943.7,"daily_up":36852.0,"daily":74795.7,"daily_low":62557.6,"daily_high":86884.2,"daily_down_low":31824.6,"daily_down_high":43987.9,"daily_up_low":30733.0,"daily_up_high":42896.3,"km":0.786,"source":"daegu_gravity","period":"2026-06 Mon-Fri mean","geometry_source":"osm","estimated":true}},{"type":"Feature","geometry":{"type":"LineString","coordinates":[[128.57384,35.839162],[128.576707,35.838952],[128.577209,35.83895],[128.577466,35.838982],[128.577761,35.839074],[128.578078,35.839226],[128.579126,35.839725],[128.579552,35.839932],[128.581335,35.840796]]},"properties":{"line":"대구 1호선","from":"안지랑","to":"현충로","daily_down":40096.0,"daily_up":38922.6,"daily":79018.6,"daily_low":66263.5,"daily_high":91664.7,"daily_down_low":33718.4,"daily_down_high":46419.0,"daily_up_low":32545.0,"daily_up_high":45245.6,"km":0.64,"source":"daegu_gravity","period":"2026-06 Mon-Fri mean","geometry_source":"osm","estimated":true}},{"type":"Feature","geometry":{"type":"LineString","coordinates":[[128.581335,35.840796],[128.583147,35.841738],[128.585942,35.843058],[128.588649,35.844385]]},"properties":{"line":"대구 1호선","from":"현충로","to":"영대병원","daily_down":41856.8,"daily_up":40703.9,"daily":82560.6,"daily_low":69487.1,"daily_high":95561.3,"daily_down_low":35320.0,"daily_down_high":48357.1,"daily_up_low":34167.1,"daily_up_high":47204.2,"km":0.773,"source":"daegu_gravity","period":"2026-06 Mon-Fri mean","geometry_source":"osm","estimated":true}},{"type":"Feature","geometry":{"type":"LineString","coordinates":[[128.588649,35.844385],[128.589827,35.844944],[128.590242,35.845156],[128.590421,35.845294],[128.59052,35.845402],[128.590574,35.84559],[128.590605,35.850394]]},"properties":{"line":"대구 1호선","from":"영대병원","to":"교대","daily_down":45514.5,"daily_up":44622.3,"daily":90136.8,"daily_low":76662.1,"daily_high":103617.6,"daily_down_low":38777.1,"daily_down_high":52254.9,"daily_up_low":37884.9,"daily_up_high":51362.7,"km":0.791,"source":"daegu_gravity","period":"2026-06 Mon-Fri mean","geometry_source":"osm","estimated":true}},{"type":"Feature","geometry":{"type":"LineString","coordinates":[[128.590605,35.850394],[128.590728,35.854734],[128.590719,35.856339],[128.590753,35.856749],[128.5908,35.856942],[128.590962,35.857366]]},"properties":{"line":"대구 1호선","from":"교대","to":"명덕","daily_down":48167.1,"daily_up":47161.4,"daily":95328.4,"daily_low":81717.9,"daily_high":108991.7,"daily_down_low":41361.8,"daily_down_high":54998.7,"daily_up_low":40356.1,"daily_up_high":53993.0,"km":0.699,"source":"daegu_gravity","period":"2026-06 Mon-Fri mean","geometry_source":"osm","estimated":true}},{"type":"Feature","geometry":{"type":"LineString","coordinates":[[128.590962,35.857366],[128.592574,35.860703],[128.592811,35.861334],[128.593242,35.862777],[128.59328,35.862928],[128.593297,35.862994]]},"properties":{"line":"대구 1호선","from":"명덕","to":"반월당","daily_down":49354.5,"daily_up":48387.3,"daily":97741.8,"daily_low":85473.2,"daily_high":110454.6,"daily_down_low":43221.3,"daily_down_high":55709.7,"daily_up_low":42251.9,"daily_up_high":54744.9,"km":0.756,"source":"daegu_gravity","period":"2026-06 Mon-Fri mean","geometry_source":"osm","estimated":true}},{"type":"Feature","geometry":{"type":"LineString","coordinates":[[128.593297,35.862994],[128.593448,35.865208],[128.593698,35.868387],[128.593831,35.86938],[128.594103,35.87074]]},"properties":{"line":"대구 1호선","from":"반월당","to":"중앙로","daily_down":56194.8,"daily_up":55730.2,"daily":111925.0,"daily_low":98188.2,"daily_high":126946.2,"daily_down_low":49326.4,"daily_down_high":63705.4,"daily_up_low":48861.8,"daily_up_high":63240.8,"km":0.778,"source":"daegu_gravity","period":"2026-06 Mon-Fri mean","geometry_source":"osm","estimated":true}},{"type":"Feature","geometry":{"type":"LineString","coordinates":[[128.594103,35.87074],[128.594179,35.871113],[128.594192,35.871178],[128.59474,35.873976],[128.594828,35.874463],[128.595046,35.875056],[128.595385,35.87533],[128.59577,35.875564],[128.596414,35.875912],[128.597085,35.876225]]},"properties":{"line":"대구 1호선","from":"중앙로","to":"대구역","daily_down":47785.9,"daily_up":48421.3,"daily":96207.2,"daily_low":82842.7,"daily_high":110902.2,"daily_down_low":41103.6,"daily_down_high":55133.4,"daily_up_low":41739.1,"daily_up_high":55768.8,"km":0.67,"source":"daegu_gravity","period":"2026-06 Mon-Fri mean","geometry_source":"osm","estimated":true}},{"type":"Feature","geometry":{"type":"LineString","coordinates":[[128.597085,35.876225],[128.597521,35.876427],[128.598212,35.876645],[128.598738,35.876745],[128.599312,35.876784],[128.599875,35.87674],[128.600986,35.876523],[128.601628,35.876425],[128.60416,35.876245],[128.605062,35.87606]]},"properties":{"line":"대구 1호선","from":"대구역","to":"칠성시장","daily_down":43081.1,"daily_up":43407.3,"daily":86488.5,"daily_low":73454.7,"daily_high":100854.9,"daily_down_low":36564.2,"daily_down_high":50264.3,"daily_up_low":36890.4,"daily_up_high":50590.5,"km":0.718,"source":"daegu_gravity","period":"2026-06 Mon-Fri mean","geometry_source":"osm","estimated":true}},{"type":"Feature","geometry":{"type":"LineString","coordinates":[[128.605062,35.87606],[128.606128,35.875826],[128.606878,35.875558],[128.608493,35.874809],[128.61031,35.873876],[128.610985,35.873698],[128.611447,35.873633],[128.611962,35.873646],[128.612353,35.873698],[128.613778,35.873956],[128.614068,35.873994],[128.615391,35.874016],[128.615758,35.874061],[128.616089,35.874144],[128.617604,35.874569]]},"properties":{"line":"대구 1호선","from":"칠성시장","to":"신천","daily_down":40680.3,"daily_up":41002.8,"daily":81683.1,"daily_low":68935.8,"daily_high":95764.9,"daily_down_low":34306.7,"daily_down_high":47721.2,"daily_up_low":34629.1,"daily_up_high":48043.7,"km":1.128,"source":"daegu_gravity","period":"2026-06 Mon-Fri mean","geometry_source":"osm","estimated":true}},{"type":"Feature","geometry":{"type":"LineString","coordinates":[[128.617604,35.874569],[128.620469,35.875227],[128.625157,35.876302],[128.626169,35.876542],[128.626496,35.876664],[128.626823,35.87682],[128.627092,35.877033],[128.627453,35.877299]]},"properties":{"line":"대구 1호선","from":"신천","to":"동대구역","daily_down":37885.7,"daily_up":38078.6,"daily":75964.3,"daily_low":63930.8,"daily_high":89365.8,"daily_down_low":31869.0,"daily_down_high":44586.5,"daily_up_low":32061.8,"daily_up_high":44779.4,"km":0.957,"source":"daegu_gravity","period":"2026-06 Mon-Fri mean","geometry_source":"osm","estimated":true}},{"type":"Feature","geometry":{"type":"LineString","coordinates":[[128.627453,35.877299],[128.62771,35.87756],[128.628007,35.877938],[128.628123,35.878104],[128.628201,35.878166],[128.629439,35.880456],[128.629563,35.880772],[128.629712,35.881179],[128.629928,35.881568],[128.630419,35.882171],[128.63236,35.884496]]},"properties":{"line":"대구 1호선","from":"동대구역","to":"동구청","daily_down":27162.2,"daily_up":28179.7,"daily":55341.9,"daily_low":45016.6,"daily_high":66872.3,"daily_down_low":21999.6,"daily_down_high":32927.4,"daily_up_low":23017.1,"daily_up_high":33944.9,"km":0.892,"source":"daegu_gravity","period":"2026-06 Mon-Fri mean","geometry_source":"osm","estimated":true}},{"type":"Feature","geometry":{"type":"LineString","coordinates":[[128.63236,35.884496],[128.632596,35.884763],[128.63284,35.885],[128.633108,35.885191],[128.633414,35.88538],[128.633857,35.8856],[128.634291,35.885728],[128.636501,35.886058],[128.6372,35.88617],[128.63765,35.886273],[128.638035,35.886408],[128.639926,35.887119]]},"properties":{"line":"대구 1호선","from":"동구청","to":"아양교","daily_down":25020.5,"daily_up":25885.2,"daily":50905.8,"daily_low":40933.6,"daily_high":62007.6,"daily_down_low":20034.5,"daily_down_high":30571.5,"daily_up_low":20899.1,"daily_up_high":31436.1,"km":0.722,"source":"daegu_gravity","period":"2026-06 Mon-Fri mean","geometry_source":"osm","estimated":true}},{"type":"Feature","geometry":{"type":"LineString","coordinates":[[128.639926,35.887119],[128.641936,35.887935],[128.643214,35.888402],[128.643708,35.888519],[128.644217,35.888558],[128.644689,35.888541],[128.645422,35.888314],[128.646362,35.887881],[128.650366,35.885997]]},"properties":{"line":"대구 1호선","from":"아양교","to":"동촌","daily_down":22092.5,"daily_up":22707.9,"daily":44800.4,"daily_low":35338.5,"daily_high":55263.1,"daily_down_low":17361.6,"daily_down_high":27323.9,"daily_up_low":17977.0,"daily_up_high":27939.2,"km":0.989,"source":"daegu_gravity","period":"2026-06 Mon-Fri mean","geometry_source":"osm","estimated":true}},{"type":"Feature","geometry":{"type":"LineString","coordinates":[[128.650366,35.885997],[128.653491,35.884432],[128.653896,35.884275],[128.654295,35.884186],[128.654743,35.884127],[128.658863,35.883549]]},"properties":{"line":"대구 1호선","from":"동촌","to":"해안","daily_down":20762.3,"daily_up":21423.3,"daily":42185.5,"daily_low":33046.8,"daily_high":52265.4,"daily_down_low":16192.9,"daily_down_high":25802.2,"daily_up_low":16853.9,"daily_up_high":26463.2,"km":0.817,"source":"daegu_gravity","period":"2026-06 Mon-Fri mean","geometry_source":"osm","estimated":true}},{"type":"Feature","geometry":{"type":"LineString","coordinates":[[128.658863,35.883549],[128.660687,35.883314],[128.661385,35.883156],[128.661859,35.882995],[128.662364,35.882808],[128.667935,35.880308],[128.6685,35.880092],[128.669018,35.879925],[128.669633,35.879745]]},"properties":{"line":"대구 1호선","from":"해안","to":"방촌","daily_down":19442.9,"daily_up":20045.2,"daily":39488.1,"daily_low":30785.2,"daily_high":49068.2,"daily_down_low":15091.4,"daily_down_high":24232.9,"daily_up_low":15693.7,"daily_up_high":24835.2,"km":1.053,"source":"daegu_gravity","period":"2026-06 Mon-Fri mean","geometry_source":"osm","estimated":true}},{"type":"Feature","geometry":{"type":"LineString","coordinates":[[128.669633,35.879745],[128.679949,35.876656],[128.681384,35.876231]]},"properties":{"line":"대구 1호선","from":"방촌","to":"용계","daily_down":17540.1,"daily_up":18273.8,"daily":35813.9,"daily_low":27889.3,"daily_high":44521.9,"daily_down_low":13577.8,"daily_down_high":21894.1,"daily_up_low":14311.5,"daily_up_high":22627.8,"km":1.126,"source":"daegu_gravity","period":"2026-06 Mon-Fri mean","geometry_source":"osm","estimated":true}},{"type":"Feature","geometry":{"type":"LineString","coordinates":[[128.681384,35.876231],[128.687104,35.874523],[128.687919,35.874237],[128.688303,35.874011],[128.688568,35.87372],[128.689214,35.872987],[128.691497,35.870846],[128.692791,35.869676]]},"properties":{"line":"대구 1호선","from":"용계","to":"율하","daily_down":16660.9,"daily_up":17101.6,"daily":33762.5,"daily_low":26440.6,"daily_high":41808.6,"daily_down_low":13000.0,"daily_down_high":20684.0,"daily_up_low":13440.6,"daily_up_high":21124.6,"km":1.253,"source":"daegu_gravity","period":"2026-06 Mon-Fri mean","geometry_source":"osm","estimated":true}},{"type":"Feature","geometry":{"type":"LineString","coordinates":[[128.692791,35.869676],[128.694107,35.868434],[128.694422,35.868152],[128.6947,35.867947],[128.694946,35.867791],[128.695493,35.867522],[128.696017,35.867327],[128.696661,35.867209],[128.697436,35.867129],[128.701703,35.866665]]},"properties":{"line":"대구 1호선","from":"율하","to":"신기","daily_down":14552.5,"daily_up":15034.4,"daily":29586.9,"daily_low":23788.0,"daily_high":35999.0,"daily_down_low":11653.1,"daily_down_high":17758.6,"daily_up_low":12135.0,"daily_up_high":18240.5,"km":0.872,"source":"daegu_gravity","period":"2026-06 Mon-Fri mean","geometry_source":"osm","estimated":true}},{"type":"Feature","geometry":{"type":"LineString","coordinates":[[128.701703,35.866665],[128.707281,35.86609],[128.708485,35.865991],[128.71211,35.865928],[128.7137,35.865894]]},"properties":{"line":"대구 1호선","from":"신기","to":"반야월","daily_down":12515.3,"daily_up":12843.1,"daily":25358.4,"daily_low":20831.8,"daily_high":30339.0,"daily_down_low":10252.1,"daily_down_high":15005.6,"daily_up_low":10579.8,"daily_up_high":15333.3,"km":1.08,"source":"daegu_gravity","period":"2026-06 Mon-Fri mean","geometry_source":"osm","estimated":true}},{"type":"Feature","geometry":{"type":"LineString","coordinates":[[128.7137,35.865894],[128.715875,35.865866],[128.717587,35.865863],[128.718164,35.86592],[128.718639,35.866053],[128.719165,35.866209],[128.719636,35.866387],[128.723918,35.867844]]},"properties":{"line":"대구 1호선","from":"반야월","to":"각산","daily_down":10813.1,"daily_up":11217.9,"daily":22031.0,"daily_low":18501.9,"daily_high":25882.3,"daily_down_low":9048.6,"daily_down_high":12738.8,"daily_up_low":9453.3,"daily_up_high":13143.5,"km":0.941,"source":"daegu_gravity","period":"2026-06 Mon-Fri mean","geometry_source":"osm","estimated":true}},{"type":"Feature","geometry":{"type":"LineString","coordinates":[[128.723918,35.867844],[128.725594,35.868398],[128.73374,35.871142]]},"properties":{"line":"대구 1호선","from":"각산","to":"안심","daily_down":8115.4,"daily_up":8408.3,"daily":16523.7,"daily_low":14202.3,"daily_high":18989.3,"daily_down_low":6954.7,"daily_down_high":9348.2,"daily_up_low":7247.6,"daily_up_high":9641.1,"km":0.971,"source":"daegu_gravity","period":"2026-06 Mon-Fri mean","geometry_source":"osm","estimated":true}},{"type":"Feature","geometry":{"type":"LineString","coordinates":[[128.73374,35.871142],[128.73528,35.871682],[128.736199,35.871992],[128.736813,35.872119],[128.739147,35.872402],[128.739417,35.872427],[128.74025,35.872473],[128.74062,35.872485],[128.740955,35.872476],[128.741219,35.87245],[128.741522,35.872408],[128.741801,35.872358],[128.742046,35.872296],[128.742288,35.872222],[128.742484,35.872156],[128.74333,35.87185],[128.743708,35.871724],[128.74417,35.871598],[128.744426,35.871538],[128.744703,35.871482],[128.745055,35.871418],[128.745556,35.871328],[128.746583,35.871207],[128.746952,35.871173],[128.74733,35.871144],[128.747665,35.871134],[128.74796,35.871137],[128.748321,35.871156],[128.748685,35.871188],[128.749163,35.871241],[128.749661,35.87132],[128.749939,35.871371],[128.750253,35.871432],[128.75052,35.871484],[128.750789,35.87155]]},"properties":{"line":"대구 1호선","from":"안심","to":"대구한의대병원","daily_down":5273.3,"daily_up":5254.7,"daily":10528.0,"daily_low":8848.3,"daily_high":12131.5,"daily_down_low":4433.4,"daily_down_high":6075.0,"daily_up_low":4414.8,"daily_up_high":6056.5,"km":1.535,"source":"daegu_gravity","period":"2026-06 Mon-Fri mean","geometry_source":"osm","estimated":true}},{"type":"Feature","geometry":{"type":"LineString","coordinates":[[128.750789,35.87155],[128.751158,35.871657],[128.751574,35.871807],[128.75255,35.872151],[128.753829,35.872598],[128.755932,35.873338],[128.756603,35.873595],[128.756905,35.87373],[128.757136,35.873845],[128.75741,35.873989],[128.757618,35.874103],[128.757883,35.874262],[128.758096,35.874408],[128.75836,35.874598],[128.75922,35.875185],[128.759566,35.875431],[128.759755,35.875562],[128.760042,35.875736],[128.760422,35.875946],[128.760694,35.876087],[128.761079,35.876273],[128.761591,35.876524],[128.76233,35.876904],[128.762815,35.877147],[128.763351,35.877409],[128.7644,35.877912],[128.765337,35.87839],[128.766177,35.878801],[128.767016,35.879247],[128.76768,35.879581],[128.768126,35.879793],[128.768624,35.880037],[128.769143,35.880288],[128.769558,35.880489],[128.769876,35.880649],[128.770221,35.880826],[128.770854,35.881156],[128.771418,35.881446],[128.771854,35.881656],[128.772202,35.881827],[128.772532,35.882013],[128.772903,35.882262],[128.773497,35.882674],[128.77411,35.88308],[128.774755,35.883508],[128.775967,35.884329],[128.776282,35.884547],[128.776534,35.884784],[128.776882,35.885144],[128.777097,35.885355],[128.777523,35.885843],[128.77769,35.886044],[128.77803,35.88655],[128.778548,35.887342],[128.778732,35.887633],[128.779007,35.888032],[128.779289,35.888456],[128.779516,35.888807],[128.779552,35.888862],[128.779834,35.889243],[128.780221,35.889742],[128.780261,35.889788],[128.780545,35.890109],[128.780839,35.890421],[128.781241,35.890812],[128.781594,35.891164],[128.782118,35.891642],[128.782678,35.89218],[128.783315,35.892761],[128.783438,35.892868],[128.78365,35.893015],[128.783798,35.893117],[128.784023,35.893262],[128.784313,35.89344],[128.784568,35.893586],[128.784778,35.893712],[128.785278,35.893978],[128.786172,35.894461],[128.786805,35.894786],[128.786965,35.894877],[128.787504,35.895175],[128.78786,35.895372],[128.788238,35.895602],[128.788844,35.895965],[128.789307,35.896228],[128.78975,35.89647],[128.79018,35.896694],[128.790649,35.89693],[128.791186,35.897187],[128.791511,35.897344],[128.791789,35.897483],[128.791961,35.897577],[128.792145,35.897685],[128.792358,35.89782],[128.792674,35.898032],[128.793082,35.898323],[128.79349,35.898623],[128.793768,35.898824],[128.794001,35.898981],[128.79415,35.899072],[128.794336,35.899166],[128.794485,35.899242],[128.794717,35.899341],[128.795011,35.89944],[128.795221,35.8995],[128.795456,35.899561],[128.795565,35.899577],[128.795745,35.899601],[128.795914,35.899623],[128.796238,35.899645],[128.796473,35.899647],[128.796932,35.899633],[128.797317,35.899625],[128.79975,35.899538],[128.800147,35.899538],[128.800645,35.899566],[128.801027,35.89962],[128.801568,35.899718],[128.8021,35.899834],[128.802476,35.899948],[128.80311,35.900159]]},"properties":{"line":"대구 1호선","from":"대구한의대병원","to":"부호","daily_down":4562.9,"daily_up":4591.5,"daily":9154.4,"daily_low":7659.6,"daily_high":10521.2,"daily_down_low":3815.5,"daily_down_high":5246.3,"daily_up_low":3844.1,"daily_up_high":5274.9,"km":5.682,"source":"daegu_gravity","period":"2026-06 Mon-Fri mean","geometry_source":"osm","estimated":true}},{"type":"Feature","geometry":{"type":"LineString","coordinates":[[128.80311,35.900159],[128.804687,35.90072],[128.805219,35.900958],[128.805564,35.901138],[128.80586,35.901306],[128.806388,35.901661],[128.806814,35.902011],[128.807207,35.902391],[128.80751,35.902725],[128.807696,35.90294],[128.808047,35.903332],[128.808474,35.903774],[128.80885,35.904199],[128.809121,35.904517],[128.809283,35.904715],[128.809414,35.904851],[128.809604,35.905052],[128.809771,35.905239],[128.809973,35.905431],[128.810206,35.905646],[128.810371,35.905785],[128.810534,35.905904],[128.810659,35.905985],[128.810825,35.906085],[128.811059,35.906219],[128.811197,35.906283],[128.811494,35.906413],[128.81217,35.906691],[128.813146,35.907069],[128.813437,35.907182],[128.813745,35.907305],[128.813948,35.907394],[128.814221,35.907527],[128.814461,35.907648],[128.814805,35.907832],[128.815235,35.908074],[128.816018,35.908527],[128.817545,35.909397]]},"properties":{"line":"대구 1호선","from":"부호","to":"하양","daily_down":3769.6,"daily_up":4165.8,"daily":7935.3,"daily_low":7935.3,"daily_high":7935.3,"daily_down_low":3769.6,"daily_down_high":3769.6,"daily_up_low":4165.8,"daily_up_high":4165.8,"km":1.65,"source":"daegu_gravity","period":"2026-06 Mon-Fri mean","geometry_source":"osm","estimated":true}},{"type":"Feature","geometry":{"type":"LineString","coordinates":[[128.437164,35.864304],[128.437494,35.864631],[128.438222,35.865344],[128.439583,35.866628],[128.440636,35.867622],[128.444465,35.871315],[128.444809,35.871647],[128.445066,35.871904],[128.445345,35.872159],[128.44612,35.872882],[128.446403,35.873204],[128.446666,35.87343],[128.447041,35.873733],[128.447406,35.87389],[128.447921,35.874011],[128.448393,35.874064],[128.448779,35.874064],[128.449315,35.873959],[128.449745,35.873838],[128.450174,35.873594],[128.450495,35.873368],[128.450839,35.87302],[128.452706,35.871039],[128.455358,35.868217],[128.456817,35.866591],[128.457845,35.865387],[128.457902,35.86532],[128.458203,35.865038]]},"properties":{"line":"대구 2호선","from":"문양","to":"다사","daily_down":2452.4,"daily_up":2481.6,"daily":4933.9,"daily_low":4933.9,"daily_high":4933.9,"daily_down_low":2452.4,"daily_down_high":2452.4,"daily_up_low":2481.6,"daily_up_high":2481.6,"km":1.92,"source":"daegu_gravity","period":"2026-06 Mon-Fri mean","geometry_source":"osm","estimated":true}},{"type":"Feature","geometry":{"type":"LineString","coordinates":[[128.458203,35.865038],[128.459616,35.86363],[128.461836,35.861118],[128.462514,35.860383],[128.4628,35.860066],[128.463085,35.859749],[128.463957,35.858813],[128.464829,35.857968],[128.46565,35.857272]]},"properties":{"line":"대구 2호선","from":"다사","to":"대실","daily_down":5846.5,"daily_up":5726.0,"daily":11572.5,"daily_low":11219.4,"daily_high":11877.6,"daily_down_low":5669.9,"daily_down_high":5999.0,"daily_up_low":5549.5,"daily_up_high":5878.6,"km":1.075,"source":"daegu_gravity","period":"2026-06 Mon-Fri mean","geometry_source":"osm","estimated":true}},{"type":"Feature","geometry":{"type":"LineString","coordinates":[[128.46565,35.857272],[128.467189,35.85611],[128.468744,35.854992],[128.469683,35.854289],[128.469899,35.854134],[128.470127,35.854007],[128.471829,35.853564],[128.472707,35.853363],[128.473216,35.85325],[128.473593,35.853207],[128.478096,35.853074],[128.479547,35.852946]]},"properties":{"line":"대구 2호선","from":"대실","to":"강창","daily_down":11740.1,"daily_up":11643.5,"daily":23383.5,"daily_low":21672.9,"daily_high":24906.4,"daily_down_low":10884.8,"daily_down_high":12501.5,"daily_up_low":10788.2,"daily_up_high":12404.9,"km":1.293,"source":"daegu_gravity","period":"2026-06 Mon-Fri mean","geometry_source":"osm","estimated":true}},{"type":"Feature","geometry":{"type":"LineString","coordinates":[[128.479547,35.852946],[128.481012,35.852771],[128.482396,35.852581],[128.483079,35.852486],[128.485647,35.85239],[128.485863,35.85235],[128.487118,35.852091],[128.488325,35.851875],[128.491928,35.851482]]},"properties":{"line":"대구 2호선","from":"강창","to":"계명대","daily_down":16957.6,"daily_up":16416.0,"daily":33373.6,"daily_low":29518.7,"daily_high":36918.3,"daily_down_low":15030.1,"daily_down_high":18729.9,"daily_up_low":14488.5,"daily_up_high":18188.3,"km":1.183,"source":"daegu_gravity","period":"2026-06 Mon-Fri mean","geometry_source":"osm","estimated":true}},{"type":"Feature","geometry":{"type":"LineString","coordinates":[[128.491928,35.851482],[128.493203,35.851366],[128.493863,35.851369],[128.494589,35.851402],[128.502299,35.851985],[128.503636,35.852021],[128.504818,35.851933],[128.507024,35.851685]]},"properties":{"line":"대구 2호선","from":"계명대","to":"성서산업단지","daily_down":20964.4,"daily_up":20201.1,"daily":41165.5,"daily_low":35172.7,"daily_high":46796.3,"daily_down_low":17968.0,"daily_down_high":23779.8,"daily_up_low":17204.7,"daily_up_high":23016.5,"km":1.37,"source":"daegu_gravity","period":"2026-06 Mon-Fri mean","geometry_source":"osm","estimated":true}},{"type":"Feature","geometry":{"type":"LineString","coordinates":[[128.507024,35.851685],[128.511691,35.850991],[128.515793,35.850507]]},"properties":{"line":"대구 2호선","from":"성서산업단지","to":"이곡","daily_down":23738.7,"daily_up":23024.7,"daily":46763.4,"daily_low":39453.5,"daily_high":53744.8,"daily_down_low":20083.8,"daily_down_high":27229.4,"daily_up_low":19369.8,"daily_up_high":26515.4,"km":0.787,"source":"daegu_gravity","period":"2026-06 Mon-Fri mean","geometry_source":"osm","estimated":true}},{"type":"Feature","geometry":{"type":"LineString","coordinates":[[128.515793,35.850507],[128.516538,35.850426],[128.517103,35.850427],[128.518809,35.850482],[128.519346,35.850441],[128.523458,35.849077],[128.524429,35.848757],[128.524976,35.848644],[128.525566,35.848578],[128.526487,35.848629],[128.528889,35.848997]]},"properties":{"line":"대구 2호선","from":"이곡","to":"용산","daily_down":25834.0,"daily_up":24761.3,"daily":50595.3,"daily_low":42442.6,"daily_high":58455.5,"daily_down_low":21757.6,"daily_down_high":29764.1,"daily_up_low":20684.9,"daily_up_high":28691.4,"km":1.183,"source":"daegu_gravity","period":"2026-06 Mon-Fri mean","geometry_source":"osm","estimated":true}},{"type":"Feature","geometry":{"type":"LineString","coordinates":[[128.528889,35.848997],[128.530796,35.849291],[128.53231,35.849495],[128.533623,35.849675],[128.536935,35.849949],[128.537472,35.850111]]},"properties":{"line":"대구 2호선","from":"용산","to":"죽전","daily_down":29854.5,"daily_up":28731.1,"daily":58585.5,"daily_low":49202.3,"daily_high":67779.0,"daily_down_low":25162.8,"daily_down_high":34451.2,"daily_up_low":24039.4,"daily_up_high":33327.8,"km":0.762,"source":"daegu_gravity","period":"2026-06 Mon-Fri mean","geometry_source":"osm","estimated":true}},{"type":"Feature","geometry":{"type":"LineString","coordinates":[[128.537472,35.850111],[128.538236,35.850417],[128.548288,35.854296]]},"properties":{"line":"대구 2호선","from":"죽전","to":"감삼","daily_down":33711.0,"daily_up":32880.8,"daily":66591.7,"daily_low":55908.6,"daily_high":77152.5,"daily_down_low":28369.4,"daily_down_high":38991.4,"daily_up_low":27539.2,"daily_up_high":38161.2,"km":1.07,"source":"daegu_gravity","period":"2026-06 Mon-Fri mean","geometry_source":"osm","estimated":true}},{"type":"Feature","geometry":{"type":"LineString","coordinates":[[128.548288,35.854296],[128.553941,35.85643],[128.554238,35.856542],[128.555779,35.857151]]},"properties":{"line":"대구 2호선","from":"감삼","to":"두류","daily_down":37987.3,"daily_up":36788.9,"daily":74776.2,"daily_low":63054.0,"daily_high":86445.4,"daily_down_low":32126.2,"daily_down_high":43821.9,"daily_up_low":30927.8,"daily_up_high":42623.5,"km":0.758,"source":"daegu_gravity","period":"2026-06 Mon-Fri mean","geometry_source":"osm","estimated":true}},{"type":"Feature","geometry":{"type":"LineString","coordinates":[[128.555779,35.857151],[128.562207,35.859285],[128.56476,35.860075]]},"properties":{"line":"대구 2호선","from":"두류","to":"내당","daily_down":42058.8,"daily_up":40903.0,"daily":82961.8,"daily_low":70293.2,"daily_high":95624.8,"daily_down_low":35724.5,"daily_down_high":48390.3,"daily_up_low":34568.7,"daily_up_high":47234.6,"km":0.882,"source":"daegu_gravity","period":"2026-06 Mon-Fri mean","geometry_source":"osm","estimated":true}},{"type":"Feature","geometry":{"type":"LineString","coordinates":[[128.56476,35.860075],[128.568632,35.861125],[128.572107,35.86202]]},"properties":{"line":"대구 2호선","from":"내당","to":"반고개","daily_down":44468.9,"daily_up":43442.7,"daily":87911.7,"daily_low":74846.0,"daily_high":101002.4,"daily_down_low":37936.1,"daily_down_high":51014.3,"daily_up_low":36909.9,"daily_up_high":49988.1,"km":0.777,"source":"daegu_gravity","period":"2026-06 Mon-Fri mean","geometry_source":"osm","estimated":true}},{"type":"Feature","geometry":{"type":"LineString","coordinates":[[128.572107,35.86202],[128.573662,35.862386],[128.578857,35.863702],[128.582264,35.864753],[128.582548,35.864852]]},"properties":{"line":"대구 2호선","from":"반고개","to":"청라언덕","daily_down":46939.7,"daily_up":46061.0,"daily":93000.7,"daily_low":79711.3,"daily_high":106350.4,"daily_down_low":40295.0,"daily_down_high":53614.5,"daily_up_low":39416.3,"daily_up_high":52735.9,"km":0.908,"source":"daegu_gravity","period":"2026-06 Mon-Fri mean","geometry_source":"osm","estimated":true}},{"type":"Feature","geometry":{"type":"LineString","coordinates":[[128.582548,35.864852],[128.583227,35.865057],[128.587057,35.866235],[128.587395,35.866316],[128.587712,35.86636],[128.588083,35.866339],[128.593004,35.865533]]},"properties":{"line":"대구 2호선","from":"청라언덕","to":"반월당","daily_down":53630.7,"daily_up":52415.2,"daily":106046.0,"daily_low":91276.0,"daily_high":121484.3,"daily_down_low":46244.6,"daily_down_high":61351.1,"daily_up_low":45031.3,"daily_up_high":60133.2,"km":0.994,"source":"daegu_gravity","period":"2026-06 Mon-Fri mean","geometry_source":"osm","estimated":true}},{"type":"Feature","geometry":{"type":"LineString","coordinates":[[128.593004,35.865533],[128.593756,35.865396],[128.59683,35.864812],[128.597116,35.864761],[128.597647,35.864653],[128.597943,35.864592],[128.598223,35.864502],[128.598499,35.864344],[128.599022,35.863934],[128.599366,35.863802],[128.599701,35.863706],[128.603014,35.863036]]},"properties":{"line":"대구 2호선","from":"반월당","to":"경대병원","daily_down":46434.4,"daily_up":45604.6,"daily":92039.0,"daily_low":79481.0,"daily_high":105278.6,"daily_down_low":40155.4,"daily_down_high":53054.2,"daily_up_low":39325.6,"daily_up_high":52224.4,"km":0.928,"source":"daegu_gravity","period":"2026-06 Mon-Fri mean","geometry_source":"osm","estimated":true}},{"type":"Feature","geometry":{"type":"LineString","coordinates":[[128.603014,35.863036],[128.607333,35.862163],[128.60781,35.86205],[128.608057,35.861921],[128.609579,35.860923],[128.610619,35.860392],[128.611645,35.859986],[128.612464,35.859812],[128.61411,35.85971]]},"properties":{"line":"대구 2호선","from":"경대병원","to":"대구은행","daily_down":40719.1,"daily_up":40731.6,"daily":81450.7,"daily_low":69073.1,"daily_high":94482.0,"daily_down_low":34530.3,"daily_down_high":47234.7,"daily_up_low":34542.8,"daily_up_high":47247.2,"km":1.039,"source":"daegu_gravity","period":"2026-06 Mon-Fri mean","geometry_source":"osm","estimated":true}},{"type":"Feature","geometry":{"type":"LineString","coordinates":[[128.61411,35.85971],[128.616991,35.859588],[128.624678,35.859138],[128.626498,35.858977]]},"properties":{"line":"대구 2호선","from":"대구은행","to":"범어","daily_down":36385.6,"daily_up":36490.4,"daily":72876.1,"daily_low":60889.4,"daily_high":85485.3,"daily_down_low":30392.3,"daily_down_high":42690.2,"daily_up_low":30497.1,"daily_up_high":42795.1,"km":1.06,"source":"daegu_gravity","period":"2026-06 Mon-Fri mean","geometry_source":"osm","estimated":true}},{"type":"Feature","geometry":{"type":"LineString","coordinates":[[128.626498,35.858977],[128.629966,35.858775],[128.631039,35.858762],[128.634148,35.85876],[128.635794,35.858776]]},"properties":{"line":"대구 2호선","from":"범어","to":"수성구청","daily_down":30300.8,"daily_up":30511.3,"daily":60812.1,"daily_low":49558.8,"daily_high":72595.5,"daily_down_low":24674.2,"daily_down_high":36192.5,"daily_up_low":24884.7,"daily_up_high":36403.0,"km":0.925,"source":"daegu_gravity","period":"2026-06 Mon-Fri mean","geometry_source":"osm","estimated":true}},{"type":"Feature","geometry":{"type":"LineString","coordinates":[[128.635794,35.858776],[128.642249,35.858804],[128.645112,35.85883]]},"properties":{"line":"대구 2호선","from":"수성구청","to":"만촌","daily_down":26200.1,"daily_up":27031.1,"daily":53231.2,"daily_low":42504.7,"daily_high":64388.6,"daily_down_low":20836.9,"daily_down_high":31778.8,"daily_up_low":21667.8,"daily_up_high":32609.8,"km":0.811,"source":"daegu_gravity","period":"2026-06 Mon-Fri mean","geometry_source":"osm","estimated":true}},{"type":"Feature","geometry":{"type":"LineString","coordinates":[[128.645112,35.85883],[128.646065,35.858828],[128.646425,35.858735],[128.651311,35.85613],[128.652731,35.85535],[128.65419,35.854638]]},"properties":{"line":"대구 2호선","from":"만촌","to":"담티","daily_down":23029.9,"daily_up":23908.5,"daily":46938.4,"daily_low":36680.9,"daily_high":57506.8,"daily_down_low":17901.1,"daily_down_high":28314.1,"daily_up_low":18779.7,"daily_up_high":29192.7,"km":0.941,"source":"daegu_gravity","period":"2026-06 Mon-Fri mean","geometry_source":"osm","estimated":true}},{"type":"Feature","geometry":{"type":"LineString","coordinates":[[128.65419,35.854638],[128.657799,35.853335],[128.658668,35.853135],[128.660204,35.852616],[128.661348,35.852257],[128.66238,35.851717],[128.664161,35.850676],[128.667518,35.848753],[128.669681,35.847581],[128.670502,35.847113],[128.671399,35.846652],[128.671961,35.846358]]},"properties":{"line":"대구 2호선","from":"담티","to":"연호","daily_down":21100.8,"daily_up":21593.1,"daily":42694.0,"daily_low":32843.9,"daily_high":52752.6,"daily_down_low":16175.8,"daily_down_high":26130.1,"daily_up_low":16668.1,"daily_up_high":26622.4,"km":1.845,"source":"daegu_gravity","period":"2026-06 Mon-Fri mean","geometry_source":"osm","estimated":true}},{"type":"Feature","geometry":{"type":"LineString","coordinates":[[128.671961,35.846358],[128.678613,35.843065],[128.679155,35.842839],[128.67996,35.842594]]},"properties":{"line":"대구 2호선","from":"연호","to":"대공원","daily_down":20848.0,"daily_up":21200.2,"daily":42048.2,"daily_low":32372.8,"daily_high":51921.3,"daily_down_low":16010.3,"daily_down_high":25784.5,"daily_up_low":16362.6,"daily_up_high":26136.8,"km":0.846,"source":"daegu_gravity","period":"2026-06 Mon-Fri mean","geometry_source":"osm","estimated":true}},{"type":"Feature","geometry":{"type":"LineString","coordinates":[[128.67996,35.842594],[128.684154,35.841469],[128.684825,35.84136],[128.685254,35.841338],[128.685764,35.841382],[128.686241,35.841451],[128.689958,35.842556],[128.69064,35.842704],[128.691278,35.842782],[128.692662,35.84286],[128.69341,35.842857]]},"properties":{"line":"대구 2호선","from":"대공원","to":"고산","daily_down":18983.0,"daily_up":19831.9,"daily":38814.9,"daily_low":30231.5,"daily_high":47549.2,"daily_down_low":14691.3,"daily_down_high":23350.2,"daily_up_low":15540.2,"daily_up_high":24199.0,"km":1.205,"source":"daegu_gravity","period":"2026-06 Mon-Fri mean","geometry_source":"osm","estimated":true}},{"type":"Feature","geometry":{"type":"LineString","coordinates":[[128.69341,35.842857],[128.696036,35.842838],[128.696734,35.842743],[128.69845,35.842334],[128.704955,35.840765]]},"properties":{"line":"대구 2호선","from":"고산","to":"신매","daily_down":17818.1,"daily_up":18618.9,"daily":36437.0,"daily_low":28949.7,"daily_high":44027.6,"daily_down_low":14074.4,"daily_down_high":21613.3,"daily_up_low":14875.3,"daily_up_high":22414.2,"km":1.077,"source":"daegu_gravity","period":"2026-06 Mon-Fri mean","geometry_source":"osm","estimated":true}},{"type":"Feature","geometry":{"type":"LineString","coordinates":[[128.704955,35.840765],[128.706795,35.840325],[128.710928,35.838464],[128.712575,35.837668],[128.713422,35.837429],[128.716012,35.836789]]},"properties":{"line":"대구 2호선","from":"신매","to":"사월","daily_down":14895.1,"daily_up":16112.7,"daily":31007.8,"daily_low":25969.2,"daily_high":36060.5,"daily_down_low":12375.8,"daily_down_high":17421.4,"daily_up_low":13593.4,"daily_up_high":18639.0,"km":1.007,"source":"daegu_gravity","period":"2026-06 Mon-Fri mean","geometry_source":"osm","estimated":true}},{"type":"Feature","geometry":{"type":"LineString","coordinates":[[128.716012,35.836789],[128.722483,35.83525],[128.725092,35.834676],[128.726848,35.83429],[128.727792,35.834108],[128.728291,35.834026],[128.728652,35.834015]]},"properties":{"line":"대구 2호선","from":"사월","to":"정평","daily_down":12811.2,"daily_up":13856.0,"daily":26667.1,"daily_low":23269.2,"daily_high":29967.2,"daily_down_low":11112.2,"daily_down_high":14461.2,"daily_up_low":12157.0,"daily_up_high":15506.0,"km":1.264,"source":"daegu_gravity","period":"2026-06 Mon-Fri mean","geometry_source":"osm","estimated":true}},{"type":"Feature","geometry":{"type":"LineString","coordinates":[[128.728652,35.834015],[128.73127,35.834007],[128.735143,35.834028],[128.739,35.834054],[128.741026,35.834051]]},"properties":{"line":"대구 2호선","from":"정평","to":"임당","daily_down":10506.1,"daily_up":11305.1,"daily":21811.1,"daily_low":20277.9,"daily_high":23235.7,"daily_down_low":9739.4,"daily_down_high":11218.3,"daily_up_low":10538.4,"daily_up_high":12017.3,"km":1.116,"source":"daegu_gravity","period":"2026-06 Mon-Fri mean","geometry_source":"osm","estimated":true}},{"type":"Feature","geometry":{"type":"LineString","coordinates":[[128.741026,35.834051],[128.745475,35.834107],[128.747197,35.834098],[128.747837,35.834177],[128.749348,35.834785],[128.75233,35.836011],[128.753117,35.836321]]},"properties":{"line":"대구 2호선","from":"임당","to":"영남대","daily_down":8521.6,"daily_up":9158.4,"daily":17680.0,"daily_low":17680.0,"daily_high":17680.0,"daily_down_low":8521.6,"daily_down_high":8521.6,"daily_up_low":9158.4,"daily_up_high":9158.4,"km":1.1,"source":"daegu_gravity","period":"2026-06 Mon-Fri mean","geometry_source":"osm","estimated":true}},{"type":"Feature","geometry":{"type":"LineString","coordinates":[[128.559856,35.958513],[128.559702,35.957126],[128.55962,35.956242],[128.559556,35.955627],[128.559337,35.953456],[128.559279,35.952894],[128.559186,35.952031],[128.559161,35.951774],[128.559137,35.951571]]},"properties":{"line":"대구 3호선","from":"칠곡경대병원","to":"학정","daily_down":1494.0,"daily_up":1353.1,"daily":2847.1,"daily_low":2847.1,"daily_high":2847.1,"daily_down_low":1494.0,"daily_down_high":1494.0,"daily_up_low":1353.1,"daily_up_high":1353.1,"km":0.762,"source":"daegu_gravity","period":"2026-06 Mon-Fri mean","geometry_source":"osm","estimated":true}},{"type":"Feature","geometry":{"type":"LineString","coordinates":[[128.559137,35.951571],[128.559051,35.950539],[128.558987,35.94988],[128.558881,35.948772],[128.558806,35.948035],[128.558749,35.947457],[128.558676,35.946869],[128.558581,35.946055],[128.558508,35.945445],[128.55842,35.944739],[128.558301,35.944128]]},"properties":{"line":"대구 3호선","from":"학정","to":"팔거","daily_down":1878.7,"daily_up":1711.7,"daily":3590.5,"daily_low":3552.0,"daily_high":3621.3,"daily_down_low":1859.5,"daily_down_high":1894.1,"daily_up_low":1692.5,"daily_up_high":1727.1,"km":0.838,"source":"daegu_gravity","period":"2026-06 Mon-Fri mean","geometry_source":"osm","estimated":true}},{"type":"Feature","geometry":{"type":"LineString","coordinates":[[128.558301,35.944128],[128.558241,35.943807],[128.558063,35.942861],[128.55795,35.942264],[128.557878,35.94181],[128.557832,35.941213],[128.55777,35.940536],[128.557726,35.939956],[128.557616,35.939369],[128.557521,35.939142],[128.557175,35.938565],[128.556629,35.93775]]},"properties":{"line":"대구 3호선","from":"팔거","to":"동천","daily_down":5939.2,"daily_up":5946.6,"daily":11885.8,"daily_low":11328.5,"daily_high":12318.3,"daily_down_low":5660.6,"daily_down_high":6155.5,"daily_up_low":5667.9,"daily_up_high":6162.8,"km":0.721,"source":"daegu_gravity","period":"2026-06 Mon-Fri mean","geometry_source":"osm","estimated":true}},{"type":"Feature","geometry":{"type":"LineString","coordinates":[[128.556629,35.93775],[128.556132,35.937019],[128.556048,35.936863],[128.555996,35.93674],[128.555914,35.936441],[128.555824,35.935729],[128.5558,35.935267],[128.555733,35.934847],[128.555647,35.934427],[128.555488,35.933785],[128.555257,35.933064],[128.55509,35.932661],[128.554675,35.931831],[128.554521,35.931543]]},"properties":{"line":"대구 3호선","from":"동천","to":"칠곡운암","daily_down":7684.4,"daily_up":7638.7,"daily":15323.0,"daily_low":14036.4,"daily_high":16347.4,"daily_down_low":7041.1,"daily_down_high":8196.5,"daily_up_low":6995.4,"daily_up_high":8150.8,"km":0.722,"source":"daegu_gravity","period":"2026-06 Mon-Fri mean","geometry_source":"osm","estimated":true}},{"type":"Feature","geometry":{"type":"LineString","coordinates":[[128.554521,35.931543],[128.554412,35.931355],[128.554111,35.930822],[128.553834,35.930401],[128.553246,35.929613],[128.552584,35.928762],[128.55155,35.927405],[128.550424,35.925961],[128.550275,35.925777]]},"properties":{"line":"대구 3호선","from":"칠곡운암","to":"구암","daily_down":10277.7,"daily_up":10248.6,"daily":20526.4,"daily_low":17871.8,"daily_high":22673.2,"daily_down_low":8950.4,"daily_down_high":11351.1,"daily_up_low":8921.3,"daily_up_high":11322.0,"km":0.739,"source":"daegu_gravity","period":"2026-06 Mon-Fri mean","geometry_source":"osm","estimated":true}},{"type":"Feature","geometry":{"type":"LineString","coordinates":[[128.550275,35.925777],[128.549826,35.925091],[128.549328,35.924282],[128.54904,35.923726],[128.548666,35.922992],[128.548155,35.921985],[128.547824,35.921349],[128.547694,35.921067],[128.547592,35.920766],[128.547512,35.920461],[128.547359,35.919753]]},"properties":{"line":"대구 3호선","from":"구암","to":"태전","daily_down":11789.8,"daily_up":11503.1,"daily":23292.9,"daily_low":19740.7,"daily_high":26205.2,"daily_down_low":10013.8,"daily_down_high":13246.0,"daily_up_low":9727.0,"daily_up_high":12959.2,"km":0.731,"source":"daegu_gravity","period":"2026-06 Mon-Fri mean","geometry_source":"osm","estimated":true}},{"type":"Feature","geometry":{"type":"LineString","coordinates":[[128.547359,35.919753],[128.54714,35.918802],[128.547036,35.91845],[128.546857,35.918071],[128.546656,35.917766],[128.546339,35.9174],[128.545686,35.916799],[128.544696,35.91584],[128.543342,35.914561],[128.543133,35.914327],[128.543006,35.91409],[128.542962,35.913877],[128.542962,35.913668],[128.543037,35.913402],[128.543359,35.912723]]},"properties":{"line":"대구 3호선","from":"태전","to":"매천","daily_down":12900.5,"daily_up":12836.8,"daily":25737.3,"daily_low":21413.5,"daily_high":29317.3,"daily_down_low":10738.6,"daily_down_high":14690.5,"daily_up_low":10674.9,"daily_up_high":14626.8,"km":0.854,"source":"daegu_gravity","period":"2026-06 Mon-Fri mean","geometry_source":"osm","estimated":true}},{"type":"Feature","geometry":{"type":"LineString","coordinates":[[128.543359,35.912723],[128.543646,35.912109],[128.543962,35.911445],[128.544153,35.911062],[128.544492,35.910599],[128.544851,35.910281],[128.545614,35.909804],[128.546324,35.909395],[128.546634,35.909168],[128.546823,35.908964],[128.5469,35.908755],[128.546942,35.908604],[128.546963,35.908452],[128.546962,35.908295],[128.546865,35.907805],[128.54671,35.907051],[128.546547,35.906467],[128.546394,35.906046],[128.546179,35.905588],[128.545738,35.90454]]},"properties":{"line":"대구 3호선","from":"매천","to":"매천시장","daily_down":14276.9,"daily_up":14012.0,"daily":28288.9,"daily_low":23258.9,"daily_high":32487.8,"daily_down_low":11761.9,"daily_down_high":16376.4,"daily_up_low":11497.0,"daily_up_high":16111.4,"km":0.938,"source":"daegu_gravity","period":"2026-06 Mon-Fri mean","geometry_source":"osm","estimated":true}},{"type":"Feature","geometry":{"type":"LineString","coordinates":[[128.545738,35.90454],[128.545648,35.904339],[128.545372,35.903651],[128.54519,35.903232],[128.544986,35.902749],[128.544786,35.902189],[128.544722,35.901895],[128.544673,35.90155],[128.544649,35.901226],[128.544687,35.900719],[128.544765,35.900317],[128.544886,35.899958],[128.545028,35.89963],[128.545201,35.899323],[128.545487,35.898919],[128.545897,35.898483],[128.546678,35.897835]]},"properties":{"line":"대구 3호선","from":"매천시장","to":"팔달","daily_down":15229.0,"daily_up":14930.3,"daily":30159.3,"daily_low":24714.3,"daily_high":34731.5,"daily_down_low":12506.5,"daily_down_high":17515.1,"daily_up_low":12207.8,"daily_up_high":17216.4,"km":0.747,"source":"daegu_gravity","period":"2026-06 Mon-Fri mean","geometry_source":"osm","estimated":true}},{"type":"Feature","geometry":{"type":"LineString","coordinates":[[128.546678,35.897835],[128.547514,35.89718],[128.548115,35.896694],[128.549272,35.895761],[128.551306,35.894155],[128.551624,35.893915],[128.55212,35.893526],[128.552436,35.893245],[128.553548,35.89203]]},"properties":{"line":"대구 3호선","from":"팔달","to":"공단","daily_down":15898.5,"daily_up":15708.9,"daily":31607.3,"daily_low":25903.2,"daily_high":36418.5,"daily_down_low":13046.4,"daily_down_high":18304.1,"daily_up_low":12856.8,"daily_up_high":18114.5,"km":0.887,"source":"daegu_gravity","period":"2026-06 Mon-Fri mean","geometry_source":"osm","estimated":true}},{"type":"Feature","geometry":{"type":"LineString","coordinates":[[128.553548,35.89203],[128.554013,35.891517],[128.55438,35.891154],[128.554718,35.890938],[128.555118,35.890771],[128.555442,35.890684],[128.556922,35.89045],[128.561037,35.889842]]},"properties":{"line":"대구 3호선","from":"공단","to":"만평","daily_down":16873.7,"daily_up":16572.1,"daily":33445.8,"daily_low":27507.8,"daily_high":38482.7,"daily_down_low":13904.7,"daily_down_high":19392.2,"daily_up_low":13603.0,"daily_up_high":19090.5,"km":0.707,"source":"daegu_gravity","period":"2026-06 Mon-Fri mean","geometry_source":"osm","estimated":true}},{"type":"Feature","geometry":{"type":"LineString","coordinates":[[128.561037,35.889842],[128.561298,35.889803],[128.563912,35.889423],[128.565918,35.889151],[128.567574,35.888908],[128.567867,35.888865]]},"properties":{"line":"대구 3호선","from":"만평","to":"팔달시장","daily_down":17914.4,"daily_up":17485.3,"daily":35399.7,"daily_low":29269.1,"daily_high":40629.3,"daily_down_low":14849.1,"daily_down_high":20529.2,"daily_up_low":14420.0,"daily_up_high":20100.1,"km":0.63,"source":"daegu_gravity","period":"2026-06 Mon-Fri mean","geometry_source":"osm","estimated":true}},{"type":"Feature","geometry":{"type":"LineString","coordinates":[[128.567867,35.888865],[128.569733,35.888585],[128.571379,35.888321],[128.572696,35.888116],[128.574296,35.88787]]},"properties":{"line":"대구 3호선","from":"팔달시장","to":"원대","daily_down":19734.4,"daily_up":19255.7,"daily":38990.0,"daily_low":32572.5,"daily_high":44514.2,"daily_down_low":16525.6,"daily_down_high":22496.4,"daily_up_low":16046.9,"daily_up_high":22017.7,"km":0.597,"source":"daegu_gravity","period":"2026-06 Mon-Fri mean","geometry_source":"osm","estimated":true}},{"type":"Feature","geometry":{"type":"LineString","coordinates":[[128.574296,35.88787],[128.575311,35.887709],[128.575801,35.887597],[128.57635,35.88742],[128.578026,35.886758],[128.580906,35.885503],[128.5812,35.885351],[128.581318,35.885242],[128.581454,35.885089],[128.581588,35.88485],[128.581607,35.884679],[128.581597,35.884471],[128.581473,35.884009],[128.581398,35.883802]]},"properties":{"line":"대구 3호선","from":"원대","to":"북구청","daily_down":21144.9,"daily_up":20671.9,"daily":41816.8,"daily_low":35202.9,"daily_high":47544.6,"daily_down_low":17838.0,"daily_down_high":24008.8,"daily_up_low":17364.9,"daily_up_high":23535.8,"km":0.78,"source":"daegu_gravity","period":"2026-06 Mon-Fri mean","geometry_source":"osm","estimated":true}},{"type":"Feature","geometry":{"type":"LineString","coordinates":[[128.581398,35.883802],[128.581322,35.883552],[128.581063,35.882725],[128.58074,35.881667],[128.580584,35.881183],[128.580341,35.880507],[128.580216,35.880106],[128.580197,35.879958],[128.580192,35.879829],[128.580208,35.879718],[128.580253,35.879587],[128.580323,35.879413],[128.580921,35.87853],[128.581112,35.878252],[128.581259,35.878039],[128.581728,35.877315],[128.581857,35.877066],[128.581956,35.876781],[128.582021,35.876388],[128.582039,35.876167],[128.582044,35.87589],[128.582052,35.875696]]},"properties":{"line":"대구 3호선","from":"북구청","to":"달성공원","daily_down":24325.8,"daily_up":24039.1,"daily":48364.9,"daily_low":41423.1,"daily_high":54448.8,"daily_down_low":20854.8,"daily_down_high":27367.7,"daily_up_low":20568.2,"daily_up_high":27081.1,"km":0.901,"source":"daegu_gravity","period":"2026-06 Mon-Fri mean","geometry_source":"osm","estimated":true}},{"type":"Feature","geometry":{"type":"LineString","coordinates":[[128.582052,35.875696],[128.582076,35.87503],[128.58213,35.873354],[128.582144,35.872659],[128.58218,35.871521],[128.582198,35.870506],[128.582221,35.869703]]},"properties":{"line":"대구 3호선","from":"달성공원","to":"서문시장","daily_down":26843.9,"daily_up":26429.1,"daily":53273.0,"daily_low":46159.3,"daily_high":59551.6,"daily_down_low":23287.1,"daily_down_high":29983.2,"daily_up_low":22872.2,"daily_up_high":29568.4,"km":0.675,"source":"daegu_gravity","period":"2026-06 Mon-Fri mean","geometry_source":"osm","estimated":true}},{"type":"Feature","geometry":{"type":"LineString","coordinates":[[128.582221,35.869703],[128.582221,35.869462],[128.582236,35.869025],[128.582249,35.867981],[128.58228,35.86647],[128.582307,35.865316],[128.582325,35.864203]]},"properties":{"line":"대구 3호선","from":"서문시장","to":"청라언덕","daily_down":32314.4,"daily_up":32054.0,"daily":64368.4,"daily_low":56977.5,"daily_high":70974.5,"daily_down_low":28618.9,"daily_down_high":35617.5,"daily_up_low":28358.6,"daily_up_high":35357.1,"km":0.608,"source":"daegu_gravity","period":"2026-06 Mon-Fri mean","geometry_source":"osm","estimated":true}},{"type":"Feature","geometry":{"type":"LineString","coordinates":[[128.582325,35.864203],[128.582334,35.863878],[128.582366,35.863191],[128.582446,35.862033],[128.582512,35.860974],[128.582615,35.859174],[128.582691,35.857963],[128.582744,35.857335],[128.582763,35.857186],[128.582799,35.85709],[128.582828,35.857037],[128.582895,35.856952],[128.582983,35.856867],[128.583099,35.856792],[128.583379,35.856674]]},"properties":{"line":"대구 3호선","from":"청라언덕","to":"남산","daily_down":16874.0,"daily_up":16722.5,"daily":33596.5,"daily_low":30197.2,"daily_high":36450.3,"daily_down_low":15175.4,"daily_down_high":18299.7,"daily_up_low":15021.7,"daily_up_high":18150.6,"km":0.84,"source":"daegu_gravity","period":"2026-06 Mon-Fri mean","geometry_source":"osm","estimated":true}},{"type":"Feature","geometry":{"type":"LineString","coordinates":[[128.583379,35.856674],[128.583558,35.856593],[128.583785,35.856502],[128.583997,35.856431],[128.584199,35.856411],[128.58493,35.856468],[128.586835,35.856638],[128.587661,35.856711],[128.588896,35.856821],[128.589461,35.85687],[128.589707,35.856895],[128.590143,35.856931]]},"properties":{"line":"대구 3호선","from":"남산","to":"명덕","daily_down":17190.8,"daily_up":17171.3,"daily":34362.1,"daily_low":31073.8,"daily_high":37135.1,"daily_down_low":15547.8,"daily_down_high":18576.1,"daily_up_low":15526.0,"daily_up_high":18558.9,"km":0.595,"source":"daegu_gravity","period":"2026-06 Mon-Fri mean","geometry_source":"osm","estimated":true}},{"type":"Feature","geometry":{"type":"LineString","coordinates":[[128.590143,35.856931],[128.590657,35.856952],[128.591102,35.856925],[128.591566,35.856874],[128.593624,35.856646],[128.596146,35.856375],[128.596552,35.856318],[128.596768,35.856269],[128.597051,35.856186],[128.59732,35.856069],[128.598083,35.855663],[128.598332,35.855555],[128.598471,35.855504],[128.598713,35.855456],[128.59893,35.855429],[128.599246,35.855406],[128.599592,35.855388]]},"properties":{"line":"대구 3호선","from":"명덕","to":"건들바위","daily_down":21395.3,"daily_up":21330.2,"daily":42725.5,"daily_low":39721.8,"daily_high":44959.2,"daily_down_low":19893.4,"daily_down_high":22512.1,"daily_up_low":19828.3,"daily_up_high":22447.0,"km":0.886,"source":"daegu_gravity","period":"2026-06 Mon-Fri mean","geometry_source":"osm","estimated":true}},{"type":"Feature","geometry":{"type":"LineString","coordinates":[[128.599592,35.855388],[128.600405,35.85534],[128.601286,35.855284],[128.60258,35.855206],[128.60436,35.855093],[128.606335,35.854966]]},"properties":{"line":"대구 3호선","from":"건들바위","to":"대봉교","daily_down":19827.8,"daily_up":19755.6,"daily":39583.4,"daily_low":36698.4,"daily_high":41708.5,"daily_down_low":18385.3,"daily_down_high":20890.4,"daily_up_low":18313.1,"daily_up_high":20818.1,"km":0.603,"source":"daegu_gravity","period":"2026-06 Mon-Fri mean","geometry_source":"osm","estimated":true}},{"type":"Feature","geometry":{"type":"LineString","coordinates":[[128.606335,35.854966],[128.608543,35.854837],[128.609466,35.854764],[128.610712,35.85464],[128.611354,35.854597],[128.614653,35.854391],[128.615996,35.854298]]},"properties":{"line":"대구 3호선","from":"대봉교","to":"수성시장","daily_down":17484.6,"daily_up":17484.5,"daily":34969.1,"daily_low":32300.6,"daily_high":36902.8,"daily_down_low":16150.4,"daily_down_high":18451.5,"daily_up_low":16150.3,"daily_up_high":18451.4,"km":0.874,"source":"daegu_gravity","period":"2026-06 Mon-Fri mean","geometry_source":"osm","estimated":true}},{"type":"Feature","geometry":{"type":"LineString","coordinates":[[128.615996,35.854298],[128.617078,35.854232],[128.620126,35.854042],[128.621574,35.853949],[128.622145,35.853911],[128.622863,35.853858],[128.624326,35.853762],[128.624537,35.853741],[128.624701,35.853721],[128.624816,35.853692],[128.624915,35.853659],[128.624982,35.853611],[128.625053,35.853534],[128.625109,35.853437],[128.625162,35.853273],[128.625169,35.853218],[128.625183,35.853053],[128.625181,35.852844],[128.625169,35.852579],[128.625152,35.852365]]},"properties":{"line":"대구 3호선","from":"수성시장","to":"수성구민운동장","daily_down":14780.2,"daily_up":14697.5,"daily":29477.7,"daily_low":27144.2,"daily_high":31128.8,"daily_down_low":13613.4,"daily_down_high":15605.8,"daily_up_low":13530.8,"daily_up_high":15523.1,"km":0.847,"source":"daegu_gravity","period":"2026-06 Mon-Fri mean","geometry_source":"osm","estimated":true}},{"type":"Feature","geometry":{"type":"LineString","coordinates":[[128.625152,35.852365],[128.625129,35.852172],[128.624998,35.850853],[128.624818,35.848864],[128.624733,35.847949],[128.624598,35.84675],[128.624445,35.845156]]},"properties":{"line":"대구 3호선","from":"수성구민운동장","to":"어린이회관","daily_down":13151.5,"daily_up":13137.8,"daily":26289.3,"daily_low":24209.1,"daily_high":27736.0,"daily_down_low":12111.4,"daily_down_high":13874.9,"daily_up_low":12097.7,"daily_up_high":13861.1,"km":0.807,"source":"daegu_gravity","period":"2026-06 Mon-Fri mean","geometry_source":"osm","estimated":true}},{"type":"Feature","geometry":{"type":"LineString","coordinates":[[128.624445,35.845156],[128.624284,35.843354],[128.62415,35.841862],[128.624037,35.840458],[128.623901,35.839037]]},"properties":{"line":"대구 3호선","from":"어린이회관","to":"황금","daily_down":12185.7,"daily_up":12177.2,"daily":24363.0,"daily_low":22484.8,"daily_high":25653.8,"daily_down_low":11246.6,"daily_down_high":12831.2,"daily_up_low":11238.2,"daily_up_high":12822.7,"km":0.679,"source":"daegu_gravity","period":"2026-06 Mon-Fri mean","geometry_source":"osm","estimated":true}},{"type":"Feature","geometry":{"type":"LineString","coordinates":[[128.623901,35.839037],[128.623748,35.837173],[128.623532,35.835226],[128.623433,35.833963],[128.623405,35.833503],[128.623303,35.832307],[128.623188,35.831413]]},"properties":{"line":"대구 3호선","from":"황금","to":"수성못","daily_down":9683.9,"daily_up":9737.1,"daily":19421.0,"daily_low":18071.8,"daily_high":20319.1,"daily_down_low":9009.3,"daily_down_high":10132.9,"daily_up_low":9062.5,"daily_up_high":10186.1,"km":0.861,"source":"daegu_gravity","period":"2026-06 Mon-Fri mean","geometry_source":"osm","estimated":true}},{"type":"Feature","geometry":{"type":"LineString","coordinates":[[128.623188,35.831413],[128.623117,35.830726],[128.623179,35.8304],[128.623248,35.830116],[128.623414,35.829697],[128.62355,35.829454],[128.623738,35.829183],[128.624068,35.828845],[128.624398,35.828571],[128.624735,35.828366],[128.625951,35.827605],[128.626149,35.827495],[128.626244,35.827444],[128.626496,35.827349],[128.626783,35.827238],[128.631079,35.825614],[128.631468,35.82544],[128.631819,35.825252]]},"properties":{"line":"대구 3호선","from":"수성못","to":"지산","daily_down":7812.4,"daily_up":8009.8,"daily":15822.1,"daily_low":14890.9,"daily_high":16422.1,"daily_down_low":7346.8,"daily_down_high":8112.3,"daily_up_low":7544.2,"daily_up_high":8309.7,"km":1.047,"source":"daegu_gravity","period":"2026-06 Mon-Fri mean","geometry_source":"osm","estimated":true}},{"type":"Feature","geometry":{"type":"LineString","coordinates":[[128.631819,35.825252],[128.632245,35.825014],[128.635886,35.823657],[128.636313,35.823408],[128.637192,35.82282],[128.640013,35.820951]]},"properties":{"line":"대구 3호선","from":"지산","to":"범물","daily_down":5923.6,"daily_up":5982.4,"daily":11906.0,"daily_low":11468.2,"daily_high":12177.3,"daily_down_low":5704.7,"daily_down_high":6059.3,"daily_up_low":5763.5,"daily_up_high":6118.0,"km":0.878,"source":"daegu_gravity","period":"2026-06 Mon-Fri mean","geometry_source":"osm","estimated":true}},{"type":"Feature","geometry":{"type":"LineString","coordinates":[[128.640013,35.820951],[128.640682,35.820539],[128.642243,35.819583],[128.64362,35.818736],[128.644433,35.818197],[128.644671,35.818106],[128.644824,35.818085],[128.645044,35.818074],[128.64525,35.818094],[128.646126,35.818216],[128.646436,35.818265]]},"properties":{"line":"대구 3호선","from":"범물","to":"용지","daily_down":2233.2,"daily_up":2258.7,"daily":4491.9,"daily_low":4491.9,"daily_high":4491.9,"daily_down_low":2233.2,"daily_down_high":2233.2,"daily_up_low":2258.7,"daily_up_high":2258.7,"km":0.646,"source":"daegu_gravity","period":"2026-06 Mon-Fri mean","geometry_source":"osm","estimated":true}},{"type":"Feature","geometry":{"type":"LineString","coordinates":[[128.985936,35.162297],[128.985614,35.16226],[128.985165,35.162249],[128.98475,35.162266],[128.984324,35.162314],[128.983801,35.16239],[128.977725,35.163278]]},"properties":{"line":"부산김해경전철","from":"사상","to":"괘법르네시떼","daily_down":9684.8,"daily_up":10603.4,"daily":20288.2,"daily_low":20288.2,"daily_high":20288.2,"daily_down_low":9684.8,"daily_down_high":9684.8,"daily_up_low":10603.4,"daily_up_high":10603.4,"km":0.758,"source":"busan_gimhae_gravity","period":"2025-12 Mon-Fri mean","geometry_source":"osm","estimated":true}},{"type":"Feature","geometry":{"type":"LineString","coordinates":[[128.977725,35.163278],[128.976429,35.163462],[128.974098,35.163809],[128.972327,35.164078],[128.968761,35.164633],[128.965852,35.165076],[128.964464,35.165274],[128.964078,35.165314],[128.963575,35.165351],[128.963168,35.165362],[128.962716,35.165359],[128.96233,35.165342],[128.961794,35.165285],[128.960961,35.165135],[128.960603,35.165056],[128.960321,35.164987],[128.960059,35.164907],[128.959702,35.164785],[128.9592,35.164601],[128.958711,35.16442],[128.958153,35.164182],[128.957776,35.164052],[128.957592,35.164004],[128.957417,35.163988],[128.957074,35.164035],[128.956653,35.164152],[128.956477,35.16422],[128.956318,35.164319],[128.955837,35.164833],[128.954956,35.166397]]},"properties":{"line":"부산김해경전철","from":"괘법르네시떼","to":"서부산유통지구","daily_down":10037.0,"daily_up":10977.3,"daily":21014.2,"daily_low":20175.1,"daily_high":21789.7,"daily_down_low":9617.4,"daily_down_high":10424.7,"daily_up_low":10557.7,"daily_up_high":11365.0,"km":2.101,"source":"busan_gimhae_gravity","period":"2025-12 Mon-Fri mean","geometry_source":"osm","estimated":true}},{"type":"Feature","geometry":{"type":"LineString","coordinates":[[128.954956,35.166397],[128.954914,35.166473],[128.953702,35.16865],[128.953281,35.169392],[128.953085,35.169747],[128.952821,35.170107],[128.952518,35.170353],[128.952293,35.170487],[128.952109,35.170555],[128.951927,35.170611],[128.951711,35.170656],[128.950839,35.170782],[128.950624,35.170815],[128.950307,35.170896],[128.949275,35.171276],[128.949103,35.171361],[128.948959,35.17147],[128.948836,35.171606],[128.948756,35.171702],[128.948561,35.171934]]},"properties":{"line":"부산김해경전철","from":"서부산유통지구","to":"공항","daily_down":10480.4,"daily_up":11450.5,"daily":21931.0,"daily_low":20488.8,"daily_high":23320.2,"daily_down_low":9759.3,"daily_down_high":11175.0,"daily_up_low":10729.5,"daily_up_high":12145.1,"km":0.838,"source":"busan_gimhae_gravity","period":"2025-12 Mon-Fri mean","geometry_source":"osm","estimated":true}},{"type":"Feature","geometry":{"type":"LineString","coordinates":[[128.948561,35.171934],[128.948522,35.17198],[128.948389,35.172139],[128.948289,35.172257],[128.948201,35.172391],[128.948137,35.172514],[128.948089,35.172627],[128.948058,35.172766],[128.947829,35.174644],[128.947807,35.174847],[128.947814,35.17499],[128.947847,35.175138],[128.94788,35.175225],[128.947931,35.175334],[128.947991,35.175426],[128.948073,35.175517],[128.948393,35.175884],[128.952785,35.180705],[128.953013,35.180953],[128.95326,35.181221],[128.953464,35.181411],[128.953671,35.181612],[128.954137,35.181968]]},"properties":{"line":"부산김해경전철","from":"공항","to":"덕두","daily_down":11630.0,"daily_up":11752.0,"daily":23382.0,"daily_low":19656.5,"daily_high":27139.5,"daily_down_low":9767.2,"daily_down_high":13508.7,"daily_up_low":9889.3,"daily_up_high":13630.8,"km":1.233,"source":"busan_gimhae_gravity","period":"2025-12 Mon-Fri mean","geometry_source":"osm","estimated":true}},{"type":"Feature","geometry":{"type":"LineString","coordinates":[[128.954137,35.181968],[128.958802,35.185375],[128.959046,35.185563],[128.959219,35.185749],[128.959417,35.185987],[128.959563,35.18629],[128.959721,35.186761],[128.960321,35.188868],[128.960639,35.189717],[128.961282,35.191099],[128.961905,35.192345],[128.962302,35.19316],[128.962626,35.193759],[128.963387,35.1949],[128.963441,35.195019],[128.963512,35.195249],[128.963545,35.195488],[128.963527,35.196228]]},"properties":{"line":"부산김해경전철","from":"덕두","to":"등구","daily_down":11655.0,"daily_up":11661.8,"daily":23316.8,"daily_low":19191.0,"daily_high":27525.6,"daily_down_low":9592.1,"daily_down_high":13759.4,"daily_up_low":9598.9,"daily_up_high":13766.2,"km":1.79,"source":"busan_gimhae_gravity","period":"2025-12 Mon-Fri mean","geometry_source":"osm","estimated":true}},{"type":"Feature","geometry":{"type":"LineString","coordinates":[[128.963527,35.196228],[128.963522,35.196755],[128.963464,35.199876],[128.963401,35.203538],[128.963261,35.211456],[128.963248,35.211787],[128.963245,35.211959],[128.96322,35.21213],[128.963171,35.212298],[128.9631,35.21246],[128.963007,35.212586],[128.962895,35.212688],[128.962668,35.212803],[128.962497,35.212866],[128.962219,35.212918],[128.960517,35.213068]]},"properties":{"line":"부산김해경전철","from":"등구","to":"대저","daily_down":11672.0,"daily_up":11661.9,"daily":23333.9,"daily_low":19177.2,"daily_high":27584.7,"daily_down_low":9593.7,"daily_down_high":13797.4,"daily_up_low":9583.6,"daily_up_high":13787.3,"km":1.902,"source":"busan_gimhae_gravity","period":"2025-12 Mon-Fri mean","geometry_source":"osm","estimated":true}},{"type":"Feature","geometry":{"type":"LineString","coordinates":[[128.960517,35.213068],[128.955143,35.213587],[128.953941,35.213713],[128.952927,35.213822],[128.951406,35.213969],[128.950618,35.214043]]},"properties":{"line":"부산김해경전철","from":"대저","to":"평강","daily_down":10922.6,"daily_up":11312.5,"daily":22235.1,"daily_low":17523.9,"daily_high":27072.5,"daily_down_low":8567.0,"daily_down_high":13341.3,"daily_up_low":8956.9,"daily_up_high":13731.2,"km":0.892,"source":"busan_gimhae_gravity","period":"2025-12 Mon-Fri mean","geometry_source":"osm","estimated":true}},{"type":"Feature","geometry":{"type":"LineString","coordinates":[[128.950618,35.214043],[128.949626,35.214141],[128.949054,35.214207],[128.94878,35.214256],[128.948474,35.214322],[128.948055,35.214431],[128.947458,35.214627],[128.945234,35.215386],[128.941499,35.216637],[128.941031,35.216793],[128.938635,35.217596],[128.938297,35.217713]]},"properties":{"line":"부산김해경전철","from":"평강","to":"대사","daily_down":10811.7,"daily_up":11239.4,"daily":22051.1,"daily_low":17300.7,"daily_high":26915.9,"daily_down_low":8436.5,"daily_down_high":13244.1,"daily_up_low":8864.2,"daily_up_high":13671.8,"km":1.194,"source":"busan_gimhae_gravity","period":"2025-12 Mon-Fri mean","geometry_source":"osm","estimated":true}},{"type":"Feature","geometry":{"type":"LineString","coordinates":[[128.938297,35.217713],[128.93749,35.217974],[128.935649,35.218598],[128.932965,35.219541],[128.932673,35.219658],[128.930845,35.220467],[128.929113,35.221319],[128.928499,35.221676],[128.928228,35.221874],[128.927822,35.22224]]},"properties":{"line":"부산김해경전철","from":"대사","to":"불암","daily_down":10727.2,"daily_up":11124.3,"daily":21851.5,"daily_low":17102.5,"daily_high":26700.2,"daily_down_low":8352.7,"daily_down_high":13151.5,"daily_up_low":8749.8,"daily_up_high":13548.6,"km":1.079,"source":"busan_gimhae_gravity","period":"2025-12 Mon-Fri mean","geometry_source":"osm","estimated":true}},{"type":"Feature","geometry":{"type":"LineString","coordinates":[[128.927822,35.22224],[128.927335,35.222775],[128.927128,35.223064],[128.925874,35.224999],[128.925435,35.225648],[128.92488,35.226368],[128.923713,35.227636]]},"properties":{"line":"부산김해경전철","from":"불암","to":"지내","daily_down":10622.5,"daily_up":11040.3,"daily":21662.7,"daily_low":16969.1,"daily_high":26441.6,"daily_down_low":8275.7,"daily_down_high":13011.9,"daily_up_low":8693.5,"daily_up_high":13429.7,"km":0.704,"source":"busan_gimhae_gravity","period":"2025-12 Mon-Fri mean","geometry_source":"osm","estimated":true}},{"type":"Feature","geometry":{"type":"LineString","coordinates":[[128.923713,35.227636],[128.92321,35.228104],[128.922856,35.228345],[128.922531,35.228531],[128.922239,35.228673],[128.921872,35.228827],[128.921336,35.228985],[128.920955,35.229076],[128.920597,35.229135],[128.920205,35.229149],[128.919728,35.229135],[128.917538,35.229062],[128.915582,35.228987]]},"properties":{"line":"부산김해경전철","from":"지내","to":"김해대학","daily_down":10426.2,"daily_up":10849.5,"daily":21275.7,"daily_low":16740.1,"daily_high":25866.5,"daily_down_low":8158.4,"daily_down_high":12721.6,"daily_up_low":8581.7,"daily_up_high":13144.9,"km":0.755,"source":"busan_gimhae_gravity","period":"2025-12 Mon-Fri mean","geometry_source":"osm","estimated":true}},{"type":"Feature","geometry":{"type":"LineString","coordinates":[[128.915582,35.228987],[128.910659,35.228804],[128.908023,35.228637],[128.901736,35.228102]]},"properties":{"line":"부산김해경전철","from":"김해대학","to":"인제대","daily_down":10277.2,"daily_up":10570.1,"daily":20847.3,"daily_low":16513.1,"daily_high":25203.5,"daily_down_low":8110.1,"daily_down_high":12455.3,"daily_up_low":8403.0,"daily_up_high":12748.2,"km":1.264,"source":"busan_gimhae_gravity","period":"2025-12 Mon-Fri mean","geometry_source":"osm","estimated":true}},{"type":"Feature","geometry":{"type":"LineString","coordinates":[[128.901736,35.228102],[128.896791,35.22768],[128.894067,35.227455],[128.890319,35.227099]]},"properties":{"line":"부산김해경전철","from":"인제대","to":"김해시청","daily_down":9907.9,"daily_up":10023.5,"daily":19931.5,"daily_low":16144.3,"daily_high":23684.9,"daily_down_low":8014.4,"daily_down_high":11784.6,"daily_up_low":8130.0,"daily_up_high":11900.2,"km":1.035,"source":"busan_gimhae_gravity","period":"2025-12 Mon-Fri mean","geometry_source":"osm","estimated":true}},{"type":"Feature","geometry":{"type":"LineString","coordinates":[[128.890319,35.227099],[128.883801,35.226473]]},"properties":{"line":"부산김해경전철","from":"김해시청","to":"부원","daily_down":9673.4,"daily_up":9703.5,"daily":19377.0,"daily_low":15933.3,"daily_high":22758.0,"daily_down_low":7951.6,"daily_down_high":11363.9,"daily_up_low":7981.7,"daily_up_high":11394.0,"km":0.596,"source":"busan_gimhae_gravity","period":"2025-12 Mon-Fri mean","geometry_source":"osm","estimated":true}},{"type":"Feature","geometry":{"type":"LineString","coordinates":[[128.883801,35.226473],[128.877038,35.225825],[128.876584,35.225792],[128.87639,35.225795],[128.876217,35.225812],[128.875982,35.225849],[128.875607,35.225931],[128.87525,35.226033],[128.87494,35.226153],[128.874668,35.226322],[128.874535,35.226418],[128.874464,35.22652],[128.874404,35.226629],[128.874369,35.226706],[128.874328,35.226837],[128.874255,35.22735]]},"properties":{"line":"부산김해경전철","from":"부원","to":"봉황","daily_down":8684.9,"daily_up":8907.9,"daily":17592.8,"daily_low":14959.9,"daily_high":20107.5,"daily_down_low":7368.5,"daily_down_high":9942.3,"daily_up_low":7591.4,"daily_up_high":10165.2,"km":0.876,"source":"busan_gimhae_gravity","period":"2025-12 Mon-Fri mean","geometry_source":"osm","estimated":true}},{"type":"Feature","geometry":{"type":"LineString","coordinates":[[128.874255,35.22735],[128.874163,35.227871],[128.874046,35.228311],[128.873952,35.228579],[128.873811,35.228883],[128.873497,35.229413],[128.872873,35.230421],[128.872771,35.230593],[128.872641,35.230878],[128.872537,35.231192],[128.872409,35.231633],[128.87231,35.231976],[128.872192,35.232437],[128.872066,35.232925]]},"properties":{"line":"부산김해경전철","from":"봉황","to":"수로왕릉","daily_down":7659.8,"daily_up":8108.9,"daily":15768.7,"daily_low":13778.7,"daily_high":17608.0,"daily_down_low":6664.8,"daily_down_high":8579.4,"daily_up_low":7113.9,"daily_up_high":9028.5,"km":0.648,"source":"busan_gimhae_gravity","period":"2025-12 Mon-Fri mean","geometry_source":"osm","estimated":true}},{"type":"Feature","geometry":{"type":"LineString","coordinates":[[128.872066,35.232925],[128.871889,35.233607],[128.871774,35.234112],[128.871749,35.234482],[128.871756,35.236341],[128.871774,35.237003],[128.871897,35.238113],[128.871937,35.238628],[128.87191,35.23902],[128.871879,35.239541],[128.87184,35.24013]]},"properties":{"line":"부산김해경전철","from":"수로왕릉","to":"박물관","daily_down":6263.0,"daily_up":6613.7,"daily":12876.7,"daily_low":11586.9,"daily_high":13998.3,"daily_down_low":5618.1,"daily_down_high":6823.8,"daily_up_low":5968.8,"daily_up_high":7174.5,"km":0.806,"source":"busan_gimhae_gravity","period":"2025-12 Mon-Fri mean","geometry_source":"osm","estimated":true}},{"type":"Feature","geometry":{"type":"LineString","coordinates":[[128.87184,35.24013],[128.871752,35.241148],[128.871523,35.243333],[128.87144,35.244199],[128.871396,35.244705],[128.871321,35.245127],[128.871119,35.245724],[128.87096,35.246062],[128.870757,35.246412],[128.8705,35.246751],[128.869841,35.247497],[128.869455,35.24797],[128.869241,35.248353],[128.869133,35.2487],[128.869145,35.249049],[128.869179,35.249275],[128.869223,35.249657]]},"properties":{"line":"부산김해경전철","from":"박물관","to":"연지공원","daily_down":5134.3,"daily_up":5495.2,"daily":10629.5,"daily_low":9772.0,"daily_high":11325.5,"daily_down_low":4705.5,"daily_down_high":5482.3,"daily_up_low":5066.4,"daily_up_high":5843.2,"km":1.092,"source":"busan_gimhae_gravity","period":"2025-12 Mon-Fri mean","geometry_source":"osm","estimated":true}},{"type":"Feature","geometry":{"type":"LineString","coordinates":[[128.869223,35.249657],[128.869338,35.250217],[128.869576,35.25123],[128.869643,35.251493],[128.869742,35.251827],[128.869876,35.25227],[128.869956,35.252645],[128.870005,35.252866],[128.87006,35.253253],[128.870089,35.253784],[128.87012,35.254359],[128.870094,35.254584],[128.870043,35.254837],[128.869952,35.255104],[128.869571,35.256101],[128.869402,35.256342],[128.869281,35.256483],[128.869093,35.256665],[128.868766,35.25687],[128.868118,35.2573],[128.867977,35.257439],[128.867826,35.257632],[128.867758,35.257755],[128.867663,35.25802],[128.867469,35.258676],[128.86719,35.259556]]},"properties":{"line":"부산김해경전철","from":"연지공원","to":"장신대","daily_down":4250.5,"daily_up":4495.3,"daily":8745.8,"daily_low":8250.4,"daily_high":9121.3,"daily_down_low":4002.8,"daily_down_high":4438.2,"daily_up_low":4247.6,"daily_up_high":4683.0,"km":1.118,"source":"busan_gimhae_gravity","period":"2025-12 Mon-Fri mean","geometry_source":"osm","estimated":true}},{"type":"Feature","geometry":{"type":"LineString","coordinates":[[128.86719,35.259556],[128.867071,35.259961],[128.86704,35.260087],[128.867006,35.260221],[128.866992,35.260348],[128.866988,35.260553],[128.866993,35.260619],[128.867018,35.26073],[128.867046,35.260941],[128.867178,35.261728],[128.867192,35.261872],[128.867204,35.262052],[128.867206,35.262203],[128.867197,35.262381],[128.86717,35.262557],[128.867135,35.262729],[128.86708,35.262938],[128.866859,35.263596],[128.866768,35.263839],[128.866699,35.26402],[128.866597,35.264232],[128.866502,35.264382],[128.866353,35.264608],[128.866242,35.264734],[128.866084,35.264889],[128.865353,35.265546],[128.865229,35.26565],[128.865143,35.265779],[128.865069,35.265929],[128.865032,35.266086],[128.865015,35.266256],[128.864975,35.266832]]},"properties":{"line":"부산김해경전철","from":"장신대","to":"가야대","daily_down":2378.9,"daily_up":2672.3,"daily":5051.2,"daily_low":5051.2,"daily_high":5051.2,"daily_down_low":2378.9,"daily_down_high":2378.9,"daily_up_low":2672.3,"daily_up_high":2672.3,"km":0.819,"source":"busan_gimhae_gravity","period":"2025-12 Mon-Fri mean","geometry_source":"osm","estimated":true}}],"line_meta":{"대구 1호선":{"en":"Daegu Line 1 (est.)","color":"#D93F5C","cls":"metro","estimated":true,"period":"2026-06","city":"대구"},"대구 2호선":{"en":"Daegu Line 2 (est.)","color":"#00AA80","cls":"metro","estimated":true,"period":"2026-06","city":"대구"},"대구 3호선":{"en":"Daegu Line 3 (est.)","color":"#FFB100","cls":"metro","estimated":true,"period":"2026-06","city":"대구"},"부산김해경전철":{"en":"Busan–Gimhae LRT (est.)","color":"#8652A1","cls":"metro","estimated":true,"period":"2025-12","city":"부산·김해"}},"station_names":{"설화명곡":"SeolhwaMyeonggok","화원":"Hwawon","대곡":"Daegok(CentralGovernmentOffice-Daegu)","진천":"Jincheon","월배":"Wolbae","상인":"Sangin","월촌":"Wolchon","송현":"Songhyeon","서부정류장":"SeobuBusTerminal(GwanmunMarket)","대명":"Daemyeong","안지랑":"Anjirang","현충로":"Hyeonchungno","영대병원":"YeungnamUniversityHospital","교대":"NationalUniversityofEducation","명덕":"Myeongdeok(2·28DemocracyMovementHall)","반월당":"Banwoldang","중앙로":"Jungangno","대구역":"DaeguStation","칠성시장":"ChilseongMarket","신천":"Sincheon(KyungpookNat’lUniv.)","동대구역":"DongdaeguStation","동구청":"Dong-guOffice(Keungogae)","아양교":"Ayanggyo(DaeguInt’lAirport)","동촌":"Dongchon(DongchonResort)","해안":"Haean","방촌":"Bangchon","용계":"Yonggye","율하":"Yulha","신기":"Singi","반야월":"Banyawol","각산":"Gaksan","안심":"Ansim(Innovationcity·High-techMedicalComplex)","대구한의대병원":"DaeguHaanyUniversityHospital","부호":"Buho(KyungilUniversity･HosanUniversity)","하양":"Hayang(DaeguCatholicUniversity)","문양":"Munyang","다사":"Dasa","대실":"Daesil","강창":"Gangchang","계명대":"KeimyungUniv.","성서산업단지":"SeongseoIndustrialComplex","이곡":"Igok","용산":"Yongsan(SeobuBranchCourt‧SeobuProsecutor'sOffice)","죽전":"Jukjeon","감삼":"Gamsam","두류":"Duryu","내당":"Naedang","반고개":"Bangogae","청라언덕":"CheongnaHill(sinnam)","경대병원":"KyungpookNat'lUniv.Hosp.","대구은행":"DaeguBank(DaeguMetropolitanOfficeOfEducation)","범어":"Beomeo","수성구청":"Suseong-guOffice(KBS)","만촌":"Manchon","담티":"Damti(PolytechnicCollegeㆍDaeryunMiddle&HighSchool)","연호":"Yeonho","대공원":"SuseongAlphaCity(SamsungLionsPark)","고산":"Gosan","신매":"Sinmae","사월":"Sawol","정평":"Jeongpyeong","임당":"Imdang","영남대":"YeungnamUniversity","칠곡경대병원":"ChilgokKyungpookNat‘lUniv.MedicalCenter","학정":"Hakjeong","팔거":"Palgeo(NAQS·KOSTAT)","동천":"Dongcheon","칠곡운암":"Chilgok·Unam","구암":"Guam(TaeguScienceUniv.·DaeguHealthCollege)","태전":"Taejeon","매천":"Maecheon","매천시장":"MaecheonMarket","팔달":"Paldal","공단":"Gongdan","만평":"Manpyeong","팔달시장":"PaldalMarket","원대":"Wondae","북구청":"Buk-guOffice(DGBDaeguBankPark)","달성공원":"DalseongPark","서문시장":"SeomunMarket(DongsanHospital)","남산":"Namsan(Gyemyeongnegeori)","건들바위":"Geondeulbawi","대봉교":"Daebonggyo","수성시장":"SuseongMarket","수성구민운동장":"SuseongDistrictStadium","어린이회관":"Children'sWorld","황금":"Hwanggeum","수성못":"Suseongmot(TBC)","지산":"Jisan","범물":"Beommul","용지":"Yongji","사상":"Sasang","괘법르네시떼":"GwaebeopRenecite","서부산유통지구":"SeobusanYutongjigu","공항":"GimhaeInternationalAirport","덕두":"Deokdu","등구":"Deunggu","대저":"Daejeo","평강":"Pyeonggang","대사":"Daesa","불암":"Buram","지내":"Jinae","김해대학":"GimhaeCollege","인제대":"InjeUniv","김해시청":"GimhaeCityHall","부원":"Buwon","봉황":"Bonghwang","수로왕릉":"RoyalTombofKingSuro","박물관":"museum","연지공원":"YeonjiPark","장신대":"presbyterianUniv.","가야대":"KayaUniv."},"model_report":{"daegu":{"days":22,"boardings":442378.63636363635,"alightings":438434.6818181819,"destination_scale":1.0089955350454918,"station_complexes":91,"platforms":94,"segments":91,"month":"2026-06","day_filter":"Monday-Friday (no holiday exclusion)","track_geometry":{"대구 1호선":{"fitted":true,"worst_station_offset_m":100,"track_km":37.564,"source":"OSM daegu 1"},"대구 2호선":{"fitted":true,"worst_station_offset_m":82,"track_km":31.412,"source":"OSM daegu 2"},"대구 3호선":{"fitted":true,"worst_station_offset_m":16,"track_km":23.103,"source":"OSM daegu 3"}},"scenarios":[{"decay_km":6.104915447671919,"max_gate_residual":7.2235816332977265e-06,"iterations":17,"mean_trip_km":6.979252299064036,"max_station_flow_residual":7.223582088045077e-06},{"decay_km":8.212912274014752,"max_gate_residual":2.8049744287272915e-06,"iterations":11,"mean_trip_km":8.210362921882302,"max_station_flow_residual":2.8049753382219933e-06},{"decay_km":12.431478514990326,"max_gate_residual":2.8365375328576192e-06,"iterations":7,"mean_trip_km":9.442448090886339,"max_station_flow_residual":2.8365393518470228e-06}],"trip_length_source":"철도통계연보 2022 도시철도 sheet 10 (통행거리별 여객 승차실적), row 대구교통공사 / 계","published_mean_trip_km":8.210645131472582,"published_pkm_dropped_beyond_network":0.0,"network_longest_trip_km":38.999466837864134,"fitted_decay_km":8.212912274014752,"scenario_spread_fraction":0.15,"scenario_targets_km":[6.979048361751694,8.210645131472582,9.442241901193468],"scenario_reached_km":[6.979252299064036,8.210362921882302,9.442448090886339],"scenario_target_unreachable":[false,false,false],"central_trip_km_shortfall":0.0003,"trip_length_note":"Decay fitted to the published mean trip length; the central run reproduces it.","sensitivity_median_fraction":0.2975306247317416,"sensitivity_max_fraction":0.466311222569617,"limits":"Distance-gravity OD whose decay is fitted to the published mean trip length, not the OD itself. Straight station geometry. Scenario bounds are not confidence intervals."},"busan_gimhae":{"days":23,"boardings":51347.391304347824,"alightings":50939.130434782615,"destination_scale":1.0080146807784225,"station_complexes":21,"platforms":21,"segments":20,"month":"2025-12","day_filter":"Monday-Friday (no holiday exclusion)","track_geometry":{"부산김해경전철":{"fitted":true,"worst_station_offset_m":20,"track_km":22.368,"source":"OSM busan_gimhae lrt"}},"scenarios":[{"decay_km":10.178866389909716,"max_gate_residual":4.047662514494732e-06,"iterations":12,"mean_trip_km":6.851799420991764,"max_station_flow_residual":4.0476643334841356e-06},{"decay_km":19.504784304666586,"max_gate_residual":1.6694066289346665e-06,"iterations":10,"mean_trip_km":8.062405952457837,"max_station_flow_residual":1.669404809945263e-06},{"decay_km":135.34489763908763,"max_gate_residual":5.951042112428695e-06,"iterations":8,"mean_trip_km":9.27213410256139,"max_station_flow_residual":5.951040293439291e-06}],"trip_length_source":"철도통계연보 2022 도시철도 sheet 10 (통행거리별 여객 승차실적), row 부산-김해 경전철㈜ / 부산-김해","published_mean_trip_km":8.06185953268455,"published_pkm_dropped_beyond_network":0.0,"network_longest_trip_km":21.500493663413515,"fitted_decay_km":19.504784304666586,"scenario_spread_fraction":0.15,"scenario_targets_km":[6.852580602781868,8.06185953268455,9.271138462587233],"scenario_reached_km":[6.851799420991764,8.062405952457837,9.27213410256139],"scenario_target_unreachable":[false,false,false],"central_trip_km_shortfall":-0.0005,"trip_length_note":"Decay fitted to the published mean trip length; the central run reproduces it.","sensitivity_median_fraction":0.33612003241185984,"sensitivity_max_fraction":0.43921941896559885,"limits":"Distance-gravity OD whose decay is fitted to the published mean trip length, not the OD itself. Straight station geometry. Scenario bounds are not confidence intervals."}},"source_sha256":{"data\\daegu\\counts.csv":"a9789f01a7c3d0659648390296bdd91e8bf02603959f971bc0da270390ca52b8","data\\busan_gimhae\\counts.csv":"6165cd9c22f7c620910f767d3ba7f86dc3edc47b531586ffa33223b0b2265a91","data\\city_stations.xlsx":"cdf1d84a7e5c898b2aacd622783ba8ba9af35c40bee0561dc97d55ce8e063f94"}}