{"type":"FeatureCollection","features":[{"type":"Feature","geometry":{"type":"LineString","coordinates":[[129.060379,35.164418],[129.060976,35.164705],[129.061095,35.164764],[129.061366,35.164896],[129.061702,35.165058],[129.0619,35.165148],[129.062197,35.165298],[129.062301,35.165351],[129.06401,35.166156],[129.064562,35.166451],[129.065064,35.166746],[129.06557,35.167114],[129.066295,35.167885],[129.066558,35.168293],[129.06685,35.168975],[129.067015,35.169737],[129.067143,35.173158],[129.067218,35.17495],[129.067227,35.175136],[129.067246,35.175409],[129.067264,35.17568],[129.067295,35.175943],[129.06733,35.17621],[129.067378,35.176468],[129.067437,35.17674],[129.067504,35.177001],[129.067584,35.177274],[129.067713,35.177676],[129.06823,35.179077],[129.068319,35.179308],[129.068751,35.180442],[129.068814,35.180606],[129.06911208289728,35.18140391345292]]},"properties":{"line":"동해선 광역전철","from":"부전","to":"거제해맞이","daily_down":4122.0,"daily_up":3455.4,"daily":7577.4,"km":2.2,"source":"korail_gwangyeok_gravity","period":"2023","geometry_source":"osm","estimated":true}},{"type":"Feature","geometry":{"type":"LineString","coordinates":[[129.06911208289728,35.18140391345292],[129.069832,35.183331],[129.069927,35.183585],[129.07049,35.185052],[129.0706,35.185306],[129.070722,35.185571],[129.070772,35.185663],[129.070923,35.185936],[129.071075,35.186175],[129.071244,35.186401],[129.071427,35.186632],[129.07162,35.18684],[129.071811,35.187041],[129.072805,35.188029],[129.072866,35.188089],[129.07380420254177,35.18899669940494]]},"properties":{"line":"동해선 광역전철","from":"거제해맞이","to":"거제","daily_down":4949.5,"daily_up":4361.6,"daily":9311.0,"km":1.0,"source":"korail_gwangyeok_gravity","period":"2023","geometry_source":"osm","estimated":true}},{"type":"Feature","geometry":{"type":"LineString","coordinates":[[129.07380420254177,35.18899669940494],[129.073881,35.189071],[129.076502,35.191627],[129.076797,35.191903],[129.077011,35.192096],[129.077309,35.192348],[129.077576,35.192551],[129.077802,35.192712],[129.078143,35.192934],[129.078423,35.193107],[129.078563,35.193182],[129.07976131824753,35.19382439044724]]},"properties":{"line":"동해선 광역전철","from":"거제","to":"교대","daily_down":6510.9,"daily_up":5965.7,"daily":12476.6,"km":0.8,"source":"korail_gwangyeok_gravity","period":"2023","geometry_source":"osm","estimated":true}},{"type":"Feature","geometry":{"type":"LineString","coordinates":[[129.07976131824753,35.19382439044724],[129.080337,35.194133],[129.080606,35.194292],[129.080817,35.19442],[129.081118,35.19462],[129.081415,35.194841],[129.08171,35.195091],[129.081992,35.195336],[129.082499,35.195791],[129.08407,35.197206],[129.084302,35.197403],[129.084541,35.197582],[129.084687,35.197673],[129.084895,35.197792],[129.085133,35.197904],[129.085401,35.198006],[129.085746,35.198105],[129.085971,35.198149],[129.086206,35.19818],[129.08643,35.198196],[129.086758,35.198197],[129.08711,35.19817],[129.087491,35.198111],[129.088628,35.197839],[129.089004,35.197749],[129.089781,35.197561],[129.090401,35.197414],[129.09114001307918,35.19723710857148]]},"properties":{"line":"동해선 광역전철","from":"교대","to":"동래","daily_down":9418.7,"daily_up":9417.6,"daily":18836.4,"km":1.2,"source":"korail_gwangyeok_gravity","period":"2023","geometry_source":"osm","estimated":true}},{"type":"Feature","geometry":{"type":"LineString","coordinates":[[129.09114001307918,35.19723710857148],[129.092093,35.197009],[129.093344,35.196693],[129.094449,35.196439],[129.094913,35.196339],[129.09526,35.196278],[129.095614,35.19623],[129.095964,35.196193],[129.096317,35.196168],[129.096667,35.19615],[129.097328,35.196128],[129.099717,35.196047],[129.099781,35.196047],[129.10058599304523,35.19602086098532]]},"properties":{"line":"동해선 광역전철","from":"동래","to":"안락","daily_down":9948.5,"daily_up":9882.1,"daily":19830.6,"km":0.9,"source":"korail_gwangyeok_gravity","period":"2023","geometry_source":"osm","estimated":true}},{"type":"Feature","geometry":{"type":"LineString","coordinates":[[129.10058599304523,35.19602086098532],[129.101598,35.195988],[129.102545,35.195955],[129.105012,35.195866],[129.105366,35.195849],[129.105646,35.195829],[129.105961,35.195797],[129.106268,35.195755],[129.106562,35.19571],[129.106822,35.195658],[129.107173,35.19557],[129.107491,35.19548],[129.107865,35.195357],[129.108298,35.195203],[129.1089,35.19497],[129.109539,35.194723],[129.110133,35.19449],[129.110523,35.194342],[129.110797,35.194248],[129.111057,35.194163],[129.111391,35.194065],[129.111733,35.193981],[129.112153,35.193895],[129.112512,35.193833],[129.112954,35.19377],[129.113303,35.193725],[129.113692,35.19367],[129.113745,35.193663],[129.1141592303191,35.193609767378]]},"properties":{"line":"동해선 광역전철","from":"안락","to":"부산원동","daily_down":10542.3,"daily_up":10340.0,"daily":20882.2,"km":1.3,"source":"korail_gwangyeok_gravity","period":"2023","geometry_source":"osm","estimated":true}},{"type":"Feature","geometry":{"type":"LineString","coordinates":[[129.1141592303191,35.193609767378],[129.114671,35.193544],[129.115301,35.193471],[129.115927,35.193391],[129.116835,35.193275],[129.117095,35.193238],[129.117272,35.193205],[129.117418,35.193174],[129.117536,35.193146],[129.117721,35.193089],[129.117976,35.192993],[129.118283,35.192847],[129.118562,35.192684],[129.118793,35.192521],[129.118976,35.192362],[129.119183,35.192148],[129.11927,35.192049],[129.11935,35.191942],[129.119487,35.191723],[129.11959,35.191518],[129.119675,35.191299],[129.119734,35.191079],[129.119778,35.190854],[129.119779,35.190844],[129.119832,35.190454],[129.119857,35.190234],[129.11993,35.189542],[129.119956,35.189265],[129.119983,35.189029],[129.120009,35.188807],[129.120019,35.188747],[129.12009439843058,35.188040864698344]]},"properties":{"line":"동해선 광역전철","from":"부산원동","to":"재송","daily_down":11022.0,"daily_up":10734.3,"daily":21756.2,"km":1.0,"source":"korail_gwangyeok_gravity","period":"2023","geometry_source":"osm","estimated":true}},{"type":"Feature","geometry":{"type":"LineString","coordinates":[[129.12009439843058,35.188040864698344],[129.120175,35.187286],[129.120273,35.186361],[129.120308,35.186005],[129.120342,35.185694],[129.120377,35.185447],[129.120397,35.185309],[129.120422,35.185169],[129.120481,35.184921],[129.120543,35.184722],[129.120637,35.184479],[129.120706,35.184334],[129.1208,35.184152],[129.120923,35.183948],[129.121042,35.183772],[129.121154,35.183623],[129.121941,35.182633],[129.122082,35.182456],[129.122229,35.182269],[129.122374,35.182088],[129.122701,35.18168],[129.123075,35.181223],[129.123733,35.180402],[129.12450011677754,35.179446235868916]]},"properties":{"line":"동해선 광역전철","from":"재송","to":"센텀","daily_down":11430.7,"daily_up":10853.4,"daily":22284.2,"km":1.1,"source":"korail_gwangyeok_gravity","period":"2023","geometry_source":"osm","estimated":true}},{"type":"Feature","geometry":{"type":"LineString","coordinates":[[129.12450011677754,35.179446235868916],[129.124774,35.179105],[129.125923,35.177676],[129.12619,35.177344],[129.126298,35.17721],[129.126757,35.176643],[129.126954,35.176398],[129.12719,35.176115],[129.127384,35.175899],[129.127521,35.175756],[129.127624,35.175655],[129.127752,35.175547],[129.127926,35.175404],[129.128137,35.175248],[129.128299,35.175144],[129.128499,35.175028],[129.128713,35.174915],[129.128924,35.174816],[129.12916,35.17472],[129.129568,35.174577],[129.13079,35.174162],[129.131075,35.174058],[129.131314,35.173968],[129.131495,35.173896],[129.131765,35.173783],[129.132104,35.173637],[129.132578,35.173406],[129.132671,35.173359],[129.133026,35.173181],[129.13466,35.172313],[129.135241,35.172005],[129.135316,35.171963],[129.13608040054763,35.17155094797625]]},"properties":{"line":"동해선 광역전철","from":"센텀","to":"벡스코","daily_down":11686.9,"daily_up":11142.9,"daily":22829.8,"km":1.4,"source":"korail_gwangyeok_gravity","period":"2023","geometry_source":"osm","estimated":true}},{"type":"Feature","geometry":{"type":"LineString","coordinates":[[129.13608040054763,35.17155094797625],[129.136878,35.171121],[129.137711,35.170669],[129.138722,35.17014],[129.139135,35.169925],[129.139286,35.169855],[129.139439,35.169783],[129.139562,35.16973],[129.139682,35.169684],[129.139808,35.169638],[129.139939,35.169594],[129.140063,35.169556],[129.140238,35.169506],[129.14042,35.169464],[129.14062,35.169423],[129.14093,35.169364],[129.141322,35.169334],[129.141757,35.169315],[129.14221,35.169334],[129.142672,35.169391],[129.143214,35.169479],[129.148315,35.170657],[129.148925,35.170838],[129.149566,35.171095],[129.149985,35.171347],[129.150466,35.171695],[129.155605,35.176646],[129.158315,35.17926],[129.159648,35.180191],[129.161055,35.181042],[129.162331,35.181626],[129.163405,35.181992],[129.164792,35.182339],[129.166067,35.182589],[129.167523,35.182791],[129.169266,35.182916],[129.170839,35.182875],[129.17204,35.182789],[129.17356,35.18259],[129.174224,35.182441],[129.176261,35.181871],[129.176431,35.181812],[129.1768115207027,35.181705792641786]]},"properties":{"line":"동해선 광역전철","from":"벡스코","to":"신해운대","daily_down":10967.8,"daily_up":11057.9,"daily":22025.6,"km":4.3,"source":"korail_gwangyeok_gravity","period":"2023","geometry_source":"osm","estimated":true}},{"type":"Feature","geometry":{"type":"LineString","coordinates":[[129.1768115207027,35.181705792641786],[129.17814,35.181335],[129.179741,35.180869],[129.184507,35.179559],[129.185447,35.179356],[129.18641,35.179203],[129.187403,35.179081],[129.188526,35.179009],[129.189557,35.178973],[129.190484,35.178991],[129.191461,35.179052],[129.192443,35.179152],[129.193573,35.179364],[129.194442,35.179606],[129.195143,35.179871],[129.195686,35.180128],[129.19644,35.18053],[129.197336,35.181102],[129.197726,35.181403],[129.198137,35.181786],[129.19848,35.182146],[129.198805,35.182514],[129.199025,35.182792],[129.199216,35.183058],[129.199401,35.18333],[129.199665,35.183757],[129.200618,35.185319],[129.201649,35.18702],[129.201707,35.187113],[129.2020815269804,35.18771771484744]]},"properties":{"line":"동해선 광역전철","from":"신해운대","to":"송정","daily_down":10440.4,"daily_up":10527.7,"daily":20968.1,"km":2.8,"source":"korail_gwangyeok_gravity","period":"2023","geometry_source":"osm","estimated":true}},{"type":"Feature","geometry":{"type":"LineString","coordinates":[[129.2020815269804,35.18771771484744],[129.202501,35.188395],[129.203925,35.190755],[129.204472,35.191638],[129.205291,35.192975],[129.205565,35.193388],[129.205798,35.193697],[129.206043,35.19401],[129.206294,35.19431],[129.206655,35.194707],[129.206991,35.195059],[129.207434,35.19549],[129.207657,35.195685],[129.20833364174842,35.196271422848625]]},"properties":{"line":"동해선 광역전철","from":"송정","to":"오시리아","daily_down":9983.2,"daily_up":10117.1,"daily":20100.3,"km":1.1,"source":"korail_gwangyeok_gravity","period":"2023","geometry_source":"osm","estimated":true}},{"type":"Feature","geometry":{"type":"LineString","coordinates":[[129.20833364174842,35.196271422848625],[129.208917,35.196777],[129.20926,35.197084],[129.209571,35.197382],[129.209808,35.197628],[129.210017,35.197876],[129.210208,35.198128],[129.210407,35.198429],[129.21058,35.198709],[129.210736,35.199025],[129.210852,35.199317],[129.210942,35.199597],[129.211022,35.199917],[129.211077,35.200204],[129.211113,35.200462],[129.211134,35.200699],[129.211136,35.200898],[129.211136,35.201081],[129.211115,35.201373],[129.211069,35.201683],[129.210503,35.20598],[129.210455,35.206389],[129.210415,35.206872],[129.210396,35.207233],[129.210374,35.207636],[129.210365,35.208025],[129.210371,35.208427],[129.210385,35.208748],[129.210507,35.211522],[129.210515,35.212434],[129.210573,35.213659],[129.210596,35.213963],[129.210637,35.214262],[129.210702,35.214609],[129.210785,35.214944],[129.210897,35.215318],[129.211333,35.216571],[129.211511,35.217127],[129.211613,35.217462],[129.211659,35.217653],[129.211702,35.217867],[129.211736,35.218109],[129.211755,35.218343],[129.211758,35.218519],[129.211761,35.218842],[129.211727,35.219217],[129.211678,35.219544],[129.211598,35.22004],[129.21128,35.221791],[129.211243,35.222083],[129.211218,35.222421],[129.211211,35.22291],[129.211249,35.223326],[129.211328,35.223741],[129.211431,35.224096],[129.211562,35.224439],[129.211739,35.224829],[129.21193,35.225183],[129.212296,35.225762],[129.213181,35.227117],[129.21333,35.227389],[129.213471,35.227693],[129.213585,35.227985],[129.213673,35.22828],[129.213744,35.228572],[129.213793,35.2289],[129.213838,35.229322],[129.214086,35.232435],[129.214104,35.232631],[129.214135,35.23292],[129.214174,35.233209],[129.214234,35.233485],[129.214302,35.233753],[129.214385,35.234018],[129.21448,35.234275],[129.214588,35.234521],[129.214724,35.234783],[129.214894,35.235065],[129.215111,35.235383],[129.215277,35.235607],[129.215624,35.236036],[129.217632,35.238493],[129.21788,35.238822],[129.218127,35.23919],[129.218301,35.239499],[129.218438,35.239808],[129.218563,35.240155],[129.218636,35.240513],[129.218711,35.240933],[129.218798,35.24155],[129.218835,35.242],[129.218849,35.242301],[129.218854,35.24247],[129.2189,35.243846],[129.21891027908228,35.244434675134535]]},"properties":{"line":"동해선 광역전철","from":"오시리아","to":"기장","daily_down":9119.3,"daily_up":9373.2,"daily":18492.5,"km":5.6,"source":"korail_gwangyeok_gravity","period":"2023","geometry_source":"osm","estimated":true}},{"type":"Feature","geometry":{"type":"LineString","coordinates":[[129.21891027908228,35.244434675134535],[129.218926,35.245335],[129.218935,35.246477],[129.218943,35.246757],[129.218986,35.247282],[129.219071,35.248016],[129.219196,35.248763],[129.219264,35.249138],[129.219517,35.2504],[129.219643,35.250929],[129.219938,35.252264],[129.220209,35.253432],[129.220424,35.254046],[129.220756,35.254773],[129.221078,35.255412],[129.221443,35.256073],[129.221829,35.256668],[129.222309,35.257266],[129.222805,35.257772],[129.223277,35.258271],[129.223792,35.258762],[129.224168,35.259113],[129.224519,35.259399],[129.224864,35.259657],[129.225223,35.259926],[129.225614,35.260176],[129.226102,35.260471],[129.226577,35.260721],[129.227306,35.261072],[129.228216,35.26147],[129.229908,35.262283],[129.230489,35.262657],[129.231065,35.263119],[129.231455,35.263531],[129.231737,35.263905],[129.232018,35.264303],[129.232169,35.264621],[129.232258,35.264821],[129.232386,35.265165],[129.232555,35.265721],[129.232728,35.266294],[129.232769,35.266436],[129.233011,35.267282],[129.233126,35.267668],[129.23330562078309,35.268277266475266]]},"properties":{"line":"동해선 광역전철","from":"기장","to":"일광","daily_down":7618.7,"daily_up":7768.2,"daily":15386.9,"km":3.1,"source":"korail_gwangyeok_gravity","period":"2023","geometry_source":"osm","estimated":true}},{"type":"Feature","geometry":{"type":"LineString","coordinates":[[129.23330562078309,35.268277266475266],[129.233524,35.269018],[129.233601,35.26927],[129.233685,35.269547],[129.233821,35.270019],[129.234021,35.270716],[129.234223,35.271419],[129.234289,35.271633],[129.234396,35.271971],[129.234471,35.272256],[129.234536,35.272569],[129.234562,35.272743],[129.234576,35.272878],[129.234587,35.273071],[129.234587,35.273322],[129.234568,35.273566],[129.234541,35.273747],[129.234498,35.273971],[129.234442,35.274197],[129.234385,35.274411],[129.233967,35.275786],[129.233592,35.277093],[129.233505,35.277473],[129.233444,35.277851],[129.233409,35.278252],[129.233411,35.278628],[129.233438,35.279015],[129.233766,35.282218],[129.233852,35.283075],[129.233893,35.28359],[129.23393,35.28395],[129.233979,35.284298],[129.234028,35.284566],[129.234188,35.285174],[129.234312,35.285638],[129.234534,35.286405],[129.234712,35.286972],[129.234929,35.287624],[129.235079,35.288075],[129.235169,35.288375],[129.235565,35.289679],[129.236095,35.291387],[129.236695,35.293299],[129.236875,35.293875],[129.237038,35.294389],[129.237152,35.29475],[129.237267,35.295127],[129.237354,35.295433],[129.237411,35.295667],[129.237489,35.29602],[129.237526,35.29624],[129.237566,35.296578],[129.237612,35.297141],[129.237621,35.297709],[129.237619,35.298001],[129.237591,35.298502],[129.237538,35.299281],[129.237456,35.300637],[129.23739,35.301728],[129.237397,35.302422],[129.237423,35.30296],[129.237458,35.303278],[129.237505,35.303583],[129.237594,35.303926],[129.237742,35.30432],[129.237875,35.304611],[129.238041,35.304949],[129.238298,35.305444],[129.238444,35.305684],[129.238609,35.305915],[129.238857,35.306233],[129.239123,35.306534],[129.239381,35.306791],[129.240194,35.307599],[129.240402,35.307806],[129.241307,35.308568],[129.241905,35.309088],[129.244538,35.311312],[129.245141022364,35.3118212335626]]},"properties":{"line":"동해선 광역전철","from":"일광","to":"좌천","daily_down":6148.1,"daily_up":6239.4,"daily":12387.6,"km":5.2,"source":"korail_gwangyeok_gravity","period":"2023","geometry_source":"osm","estimated":true}},{"type":"Feature","geometry":{"type":"LineString","coordinates":[[129.245141022364,35.3118212335626],[129.245451,35.312083],[129.245797,35.312367],[129.246781,35.313113],[129.247339,35.313506],[129.248548,35.314512],[129.249064,35.314946],[129.250588,35.316242],[129.251871,35.317297],[129.252508,35.317813],[129.253036,35.318212],[129.253668,35.318645],[129.254123,35.318912],[129.254576,35.319157],[129.254991,35.319356],[129.255197,35.319444],[129.255794,35.319687],[129.256619,35.319952],[129.257207,35.320133],[129.257836,35.320303],[129.258479,35.320465],[129.259248,35.32065],[129.264115,35.321628],[129.265177,35.321838],[129.266008,35.322014],[129.267794,35.32247],[129.268862,35.322776],[129.270085,35.323147],[129.270618,35.323304],[129.271064,35.323484],[129.271439,35.323665],[129.271618,35.323758],[129.271978,35.323951],[129.272351,35.324195],[129.272677,35.324412],[129.272962,35.324624],[129.27314,35.32479],[129.274089,35.32566],[129.274257,35.325838],[129.274422,35.326017],[129.275608,35.327171],[129.275992,35.327508],[129.27657914246538,35.328068454171486]]},"properties":{"line":"동해선 광역전철","from":"좌천","to":"월내","daily_down":5491.0,"daily_up":5505.4,"daily":10996.4,"km":3.5,"source":"korail_gwangyeok_gravity","period":"2023","geometry_source":"osm","estimated":true}},{"type":"Feature","geometry":{"type":"LineString","coordinates":[[129.27657914246538,35.328068454171486],[129.277114,35.328579],[129.277258,35.328695],[129.277958,35.329347],[129.278266,35.329644],[129.278349,35.329724],[129.27967,35.330944],[129.279953,35.331168],[129.280705,35.331847],[129.280805,35.331926],[129.281099,35.332156],[129.28133,35.332348],[129.282036,35.332926],[129.282278,35.333056],[129.284356,35.334323],[129.28642,35.335565],[129.287868,35.336392],[129.288597,35.336825],[129.288921,35.337015],[129.289392,35.337325],[129.289792,35.337625],[129.290148,35.337921],[129.29047,35.338223],[129.290753,35.338531],[129.291025,35.338891],[129.291263,35.339283],[129.291426,35.33962],[129.291635,35.340081],[129.291851,35.34052],[129.291972,35.340905],[129.292043,35.341239],[129.29208,35.341479],[129.292229,35.342144],[129.292317,35.342599],[129.292409,35.343035],[129.29245,35.343216],[129.292574,35.34389],[129.292661,35.34447],[129.292817,35.345312],[129.292862,35.345588],[129.292889,35.345721],[129.29296516495305,35.346126241281326]]},"properties":{"line":"동해선 광역전철","from":"월내","to":"서생","daily_down":5135.9,"daily_up":5157.3,"daily":10293.2,"km":2.6,"source":"korail_gwangyeok_gravity","period":"2023","geometry_source":"osm","estimated":true}},{"type":"Feature","geometry":{"type":"LineString","coordinates":[[129.29296516495305,35.346126241281326],[129.293098,35.346833],[129.293125,35.346942],[129.293162,35.347079],[129.293551,35.348168],[129.29368,35.348728],[129.293739,35.349063],[129.293776,35.349404],[129.293792,35.349612],[129.293798,35.349778],[129.293795,35.350003],[129.293771,35.350323],[129.293747,35.350537],[129.293698,35.350787],[129.293615,35.351113],[129.293511,35.351401],[129.293414,35.351644],[129.293269,35.351946],[129.293157,35.352143],[129.292971,35.352438],[129.292752,35.352747],[129.292347,35.35327],[129.290558,35.355571],[129.288173,35.358604],[129.287915,35.358938],[129.287634,35.359308],[129.287323,35.35973],[129.286977,35.36035],[129.286144,35.362058],[129.285413,35.363487],[129.284842,35.364927],[129.284638,35.36624],[129.284491,35.368071],[129.284372,35.369078],[129.284354,35.369404],[129.284099,35.373013],[129.284178,35.373619],[129.284181,35.374312],[129.284109,35.381537],[129.284127,35.383268],[129.284142,35.383579],[129.284178,35.383934],[129.285011,35.390101],[129.285073,35.390641],[129.285078,35.39072],[129.285121,35.391345],[129.285126,35.391944],[129.28511,35.393225],[129.285109,35.393326],[129.285105,35.39368],[129.285122,35.398839],[129.285034,35.401235],[129.285018,35.402076],[129.284973,35.404364],[129.284968,35.404551],[129.284964,35.404744],[129.284964,35.404965],[129.284966,35.405955],[129.284973,35.406209],[129.284974,35.406258],[129.284986,35.406517],[129.285001,35.406943],[129.285033,35.407241],[129.285141,35.407671],[129.285285,35.408065],[129.285484,35.408491],[129.285715,35.408928],[129.286393,35.410273],[129.286498,35.410577],[129.286562,35.410902],[129.286594,35.411272],[129.286586,35.411689],[129.286511,35.412196],[129.286441,35.412492],[129.286391,35.412638],[129.286276,35.412901],[129.286235,35.412995],[129.285985,35.413456],[129.28583,35.413713],[129.285194,35.41477],[129.284667,35.415656],[129.284582,35.4158],[129.283014,35.418378],[129.282793,35.418737],[129.282707,35.418885],[129.28248610472141,35.41927429643202]]},"properties":{"line":"동해선 광역전철","from":"서생","to":"남창","daily_down":4829.5,"daily_up":4833.8,"daily":9663.2,"km":8.5,"source":"korail_gwangyeok_gravity","period":"2023","geometry_source":"osm","estimated":true}},{"type":"Feature","geometry":{"type":"LineString","coordinates":[[129.28248610472141,35.41927429643202],[129.282181,35.419812],[129.281759,35.420526],[129.281096,35.421647],[129.280748,35.42222],[129.280638,35.422403],[129.280347,35.422891],[129.27996,35.423541],[129.279635,35.424097],[129.279503,35.424347],[129.279375,35.424601],[129.279148,35.425122],[129.279102,35.425228],[129.278654,35.426352],[129.278585,35.426597],[129.278587,35.426722],[129.27859,35.42692],[129.278622,35.427062],[129.278724,35.427568],[129.278955,35.428528],[129.279335,35.429448],[129.279563,35.430436],[129.279662,35.431765],[129.279665,35.432846],[129.279867,35.433915],[129.280068,35.4356],[129.28008,35.435642],[129.280435,35.436958],[129.28101,35.438092],[129.281018,35.438109],[129.282186,35.439957],[129.282796,35.441005],[129.284648,35.448644],[129.285452,35.450432],[129.285596,35.45073],[129.285987,35.451619],[129.286248,35.452237],[129.28655,35.452986],[129.286767,35.453576],[129.286952,35.454039],[129.287188,35.454538],[129.287455,35.455287],[129.287631,35.455791],[129.287651,35.455847],[129.28784275116965,35.45651025525351]]},"properties":{"line":"동해선 광역전철","from":"남창","to":"망양","daily_down":4167.2,"daily_up":4175.9,"daily":8343.1,"km":4.3,"source":"korail_gwangyeok_gravity","period":"2023","geometry_source":"osm","estimated":true}},{"type":"Feature","geometry":{"type":"LineString","coordinates":[[129.28784275116965,35.45651025525351],[129.287858,35.456563],[129.288089,35.45723],[129.288839,35.459114],[129.288981,35.459499],[129.289151,35.459963],[129.28923,35.460216],[129.289932,35.462137],[129.290259,35.462793],[129.29051,35.463185],[129.290813,35.463611],[129.29138,35.464192],[129.292218,35.464847],[129.293572,35.465772],[129.294225,35.466241],[129.295016,35.467012],[129.29557,35.467737],[129.295833,35.468275],[129.296121,35.468921],[129.296402,35.469901],[129.296725,35.470844],[129.297277,35.474216],[129.297729,35.477017],[129.297798,35.477451],[129.297973,35.479282],[129.298108,35.480619],[129.298255,35.482065],[129.298741,35.485285],[129.299059,35.486473],[129.299431,35.487268],[129.299615,35.487648],[129.299876,35.488147],[129.300145,35.488625],[129.300946,35.490143],[129.301357,35.490866],[129.301784,35.491576],[129.302801,35.493412],[129.30314614944842,35.494058493318335]]},"properties":{"line":"동해선 광역전철","from":"망양","to":"덕하","daily_down":4021.7,"daily_up":4027.5,"daily":8049.2,"km":4.5,"source":"korail_gwangyeok_gravity","period":"2023","geometry_source":"osm","estimated":true}},{"type":"Feature","geometry":{"type":"LineString","coordinates":[[129.30314614944842,35.494058493318335],[129.304952,35.497441],[129.305321,35.498113],[129.305548,35.498555],[129.306201,35.499725],[129.306289,35.499894],[129.30693,35.50108],[129.307248,35.501677],[129.307431,35.502016],[129.307498,35.502135],[129.307632,35.50235],[129.307846,35.502653],[129.308085,35.502927],[129.308252,35.503096],[129.308309,35.503149],[129.308618,35.503423],[129.308905,35.503642],[129.309266,35.50387],[129.309632,35.504059],[129.30999,35.504211],[129.310409,35.504343],[129.310982,35.504502],[129.312502,35.50492],[129.312994,35.505056],[129.315739,35.505903],[129.315895,35.505952],[129.316496,35.506173],[129.31899,35.507067],[129.320402,35.507585],[129.321116,35.507869],[129.3211310535338,35.50787481328362]]},"properties":{"line":"동해선 광역전철","from":"덕하","to":"개운포","daily_down":3755.3,"daily_up":3770.1,"daily":7525.4,"km":2.4,"source":"korail_gwangyeok_gravity","period":"2023","geometry_source":"osm","estimated":true}},{"type":"Feature","geometry":{"type":"LineString","coordinates":[[129.3211310535338,35.50787481328362],[129.321955,35.508193],[129.323823,35.508861],[129.32472,35.509154],[129.324929,35.509224],[129.326743,35.509918],[129.327731,35.510257],[129.328064,35.510359],[129.328767,35.51058],[129.329429,35.510774],[129.329982,35.510901],[129.330486,35.510969],[129.330891,35.511008],[129.331449,35.511039],[129.33286,35.511123],[129.333397,35.511185],[129.33408,35.511292],[129.334696,35.511414],[129.335299,35.511585],[129.335798,35.511752],[129.336116,35.511878],[129.336429,35.512034],[129.3367,35.512197],[129.337265,35.512532],[129.337708,35.512847],[129.338161,35.513208],[129.338586,35.513642],[129.338876,35.514018],[129.340422,35.516147],[129.341468,35.517637],[129.342765,35.519458],[129.343307,35.520241],[129.34368,35.520782],[129.344271,35.521653],[129.344872,35.522558],[129.345402,35.523315],[129.34604,35.524228],[129.346425,35.524764],[129.346564,35.524957],[129.346916,35.525469],[129.347088,35.525753],[129.347117,35.52581],[129.347411,35.526384],[129.347531,35.526613],[129.347652,35.526844],[129.348642,35.528733],[129.349247,35.529873],[129.35001,35.531303],[129.351001,35.533138],[129.351283,35.533659],[129.351629,35.534297],[129.351636,35.534311],[129.351682,35.534396],[129.351712,35.534448],[129.35208,35.535144],[129.352194,35.535361],[129.352354,35.535674],[129.352583,35.536098],[129.352754,35.536419],[129.352997,35.536867],[129.353742,35.538263],[129.3540295435282,35.53880224671178]]},"properties":{"line":"동해선 광역전철","from":"개운포","to":"태화강","daily_down":3647.8,"daily_up":3659.7,"daily":7307.6,"km":4.9,"source":"korail_gwangyeok_gravity","period":"2023","geometry_source":"osm","estimated":true}}],"line_meta":{"동해선 광역전철":{"en":"Donghae Line commuter rail (est.)","color":"#00a5a8","cls":"metro","estimated":true,"period":"2023","city":"부산"}},"station_names":{"부전":"Bujeon","거제해맞이":"Geoje Haemaji","거제":"Geoje","교대":"Gyodae","동래":"Dongnae","안락":"Allak","부산원동":"Busan Wondong","재송":"Jaesong","센텀":"Centum","벡스코":"BEXCO","신해운대":"Sin-Haeundae","송정":"Songjeong","오시리아":"Osiria","기장":"Gijang","일광":"Ilgwang","좌천":"Jwacheon","월내":"Wollae","서생":"Seosaeng","남창":"Namchang","망양":"Mangyang","덕하":"Deokha","개운포":"Gaeunpo","태화강":"Taehwagang"},"model_report":{"line":"동해선 광역전철","year":"2023","stations":23,"length_km":63.61,"boardings_year":16944611,"alightings_year":16944611,"trip_km_published":18.212,"trip_km_fitted":18.212,"decay_km":69.5786,"busiest":{"from":"센텀","to":"벡스코","daily":22829.8}}}