{"type":"FeatureCollection","features":[{"type":"Feature","geometry":{"type":"LineString","coordinates":[[126.96483,37.52995],[126.96186,37.52741],[126.96095,37.5263],[126.96092,37.52452],[126.96185,37.52307],[126.96318,37.52236],[126.96468,37.52212],[126.97046,37.52289],[126.97337,37.52271],[126.98255,37.51955],[126.98832,37.51957],[126.99441,37.51993],[127.00021,37.52225],[127.00154,37.5233],[127.00355,37.526],[127.00924,37.52945],[127.01192,37.53119],[127.0165,37.53859],[127.01795,37.54082]]},"properties":{"line":"ITX-청춘","from":"용산","to":"옥수","daily_down":4012.5,"daily_up":4044.8,"daily":8057.3,"km":7.1,"source":"korail_gwangyeok_gravity","period":"2025","geometry_source":"seoul_layer","estimated":true}},{"type":"Feature","geometry":{"type":"LineString","coordinates":[[127.01795,37.54082],[127.02457,37.54448],[127.02884,37.54595],[127.0324,37.54771],[127.03473,37.55028],[127.0384,37.55316],[127.03939,37.55463],[127.03949,37.5562],[127.03781,37.5615]]},"properties":{"line":"ITX-청춘","from":"옥수","to":"왕십리","daily_down":4055.6,"daily_up":4094.2,"daily":8149.9,"km":3.3,"source":"korail_gwangyeok_gravity","period":"2025","geometry_source":"seoul_layer","estimated":true}},{"type":"Feature","geometry":{"type":"LineString","coordinates":[[127.03781,37.5615],[127.03764,37.56557],[127.03793,37.56719],[127.04735,37.58044]]},"properties":{"line":"ITX-청춘","from":"왕십리","to":"청량리","daily_down":4417.8,"daily_up":4572.0,"daily":8989.7,"km":2.3,"source":"korail_gwangyeok_gravity","period":"2025","geometry_source":"seoul_layer","estimated":true}},{"type":"Feature","geometry":{"type":"LineString","coordinates":[[127.04735,37.58044],[127.05321,37.58677],[127.05762,37.5895],[127.06262,37.59193],[127.07631,37.59498],[127.08563,37.59672]]},"properties":{"line":"ITX-청춘","from":"청량리","to":"상봉","daily_down":6177.0,"daily_up":6413.4,"daily":12590.4,"km":4.0,"source":"korail_gwangyeok_gravity","period":"2025","geometry_source":"seoul_layer","estimated":true}},{"type":"Feature","geometry":{"type":"LineString","coordinates":[[127.08563,37.59672],[127.09186,37.59963],[127.09638,37.60115],[127.09945,37.60228],[127.10115,37.60312],[127.10254,37.60436],[127.10339,37.60653],[127.10324,37.61265],[127.10373,37.61466],[127.10582,37.61936],[127.11269,37.62963],[127.11473,37.63395],[127.11598,37.63626],[127.11788,37.63797],[127.12761,37.64233],[127.13665,37.64614],[127.14353,37.64826]]},"properties":{"line":"ITX-청춘","from":"상봉","to":"퇴계원","daily_down":6204.0,"daily_up":6452.7,"daily":12656.7,"km":8.3,"source":"korail_gwangyeok_gravity","period":"2025","geometry_source":"seoul_layer","estimated":true}},{"type":"Feature","geometry":{"type":"LineString","coordinates":[[127.14353,37.64826],[127.15623,37.65222],[127.16304,37.655],[127.16559,37.6555],[127.16804,37.65542],[127.17041,37.65482],[127.1769,37.6511]]},"properties":{"line":"ITX-청춘","from":"퇴계원","to":"사릉","daily_down":6234.4,"daily_up":6461.6,"daily":12696.0,"km":3.2,"source":"korail_gwangyeok_gravity","period":"2025","geometry_source":"seoul_layer","estimated":true}},{"type":"Feature","geometry":{"type":"LineString","coordinates":[[127.1769,37.6511],[127.18208,37.648],[127.1838,37.64653],[127.18794,37.63892],[127.19127,37.63636],[127.19379,37.63564],[127.19651,37.63551],[127.20744,37.63729],[127.21169,37.63817],[127.21516,37.63989],[127.22403,37.64889],[127.22801,37.65138],[127.23292,37.65263],[127.24449,37.65321]]},"properties":{"line":"ITX-청춘","from":"사릉","to":"평내호평","daily_down":6239.8,"daily_up":6462.1,"daily":12701.9,"km":7.5,"source":"korail_gwangyeok_gravity","period":"2025","geometry_source":"seoul_layer","estimated":true}},{"type":"Feature","geometry":{"type":"LineString","coordinates":[[127.24449,37.65321],[127.25406,37.65397],[127.25811,37.65543],[127.26255,37.65803],[127.26617,37.65952],[127.27596,37.66166],[127.27819,37.6618],[127.28078,37.6614],[127.28505,37.65922],[127.29145,37.65563],[127.29717,37.65392],[127.31167,37.65277]]},"properties":{"line":"ITX-청춘","from":"평내호평","to":"마석","daily_down":5960.7,"daily_up":6031.5,"daily":11992.2,"km":6.4,"source":"korail_gwangyeok_gravity","period":"2025","geometry_source":"seoul_layer","estimated":true}},{"type":"Feature","geometry":{"type":"LineString","coordinates":[[127.31167,37.65277],[127.31877,37.65242],[127.32313,37.65327],[127.3423,37.66324],[127.37366,37.67349],[127.37619,37.67514],[127.37746,37.67672],[127.37959,37.68385],[127.3814,37.69066],[127.38598,37.69857],[127.3899,37.7137],[127.39267,37.7173],[127.39605,37.72029],[127.39977,37.72264],[127.42664,37.73551]]},"properties":{"line":"ITX-청춘","from":"마석","to":"청평","daily_down":5882.1,"daily_up":5932.0,"daily":11814.1,"km":14.9,"source":"korail_gwangyeok_gravity","period":"2025","geometry_source":"seoul_layer","estimated":true}},{"type":"Feature","geometry":{"type":"LineString","coordinates":[[127.42664,37.73551],[127.43696,37.7404],[127.43928,37.74173],[127.44099,37.74328],[127.44212,37.74518],[127.44635,37.7608],[127.45199,37.76794],[127.45443,37.77016],[127.45643,37.77118],[127.46589,37.77444],[127.47086,37.77757],[127.49635,37.80104],[127.50418,37.81021],[127.51076,37.81452]]},"properties":{"line":"ITX-청춘","from":"청평","to":"가평","daily_down":5736.6,"daily_up":5790.3,"daily":11526.9,"km":11.9,"source":"korail_gwangyeok_gravity","period":"2025","geometry_source":"seoul_layer","estimated":true}},{"type":"Feature","geometry":{"type":"LineString","coordinates":[[127.51076,37.81452],[127.51834,37.81929],[127.52114,37.82061],[127.54689,37.82944],[127.55714,37.83193],[127.57007,37.83447],[127.5733,37.83461],[127.57615,37.83396],[127.58156,37.83196],[127.58917,37.83078]]},"properties":{"line":"ITX-청춘","from":"가평","to":"백양리","daily_down":4806.8,"daily_up":4887.5,"daily":9694.3,"km":7.5,"source":"korail_gwangyeok_gravity","period":"2025","geometry_source":"seoul_layer","estimated":true}},{"type":"Feature","geometry":{"type":"LineString","coordinates":[[127.58917,37.83078],[127.59972,37.82913],[127.60195,37.82832],[127.60417,37.8268],[127.60629,37.82452],[127.61476,37.81148],[127.61672,37.80931],[127.61931,37.80762],[127.62226,37.80644],[127.62625,37.80563],[127.63413,37.80571]]},"properties":{"line":"ITX-청춘","from":"백양리","to":"강촌","daily_down":4797.5,"daily_up":4881.3,"daily":9678.8,"km":5.3,"source":"korail_gwangyeok_gravity","period":"2025","geometry_source":"seoul_layer","estimated":true}},{"type":"Feature","geometry":{"type":"LineString","coordinates":[[127.63413,37.80571],[127.68748,37.80722],[127.69496,37.80808],[127.70248,37.81037],[127.70441,37.81133],[127.70737,37.81313],[127.71408,37.81844],[127.72279,37.82522],[127.73007,37.83627],[127.73074,37.83825],[127.73121,37.84439],[127.73387,37.85176],[127.73332,37.85656],[127.73239,37.85878],[127.73075,37.86025],[127.72394,37.86401]]},"properties":{"line":"ITX-청춘","from":"강촌","to":"남춘천","daily_down":4745.3,"daily_up":4833.8,"daily":9579.1,"km":13.4,"source":"korail_gwangyeok_gravity","period":"2025","geometry_source":"seoul_layer","estimated":true}},{"type":"Feature","geometry":{"type":"LineString","coordinates":[[127.72394,37.86401],[127.71811,37.86716],[127.71705,37.86805],[127.71608,37.86973],[127.71354,37.87836],[127.71393,37.87995],[127.71666,37.88456]]},"properties":{"line":"ITX-청춘","from":"남춘천","to":"춘천","daily_down":1904.4,"daily_up":1917.2,"daily":3821.6,"km":2.7,"source":"korail_gwangyeok_gravity","period":"2025","geometry_source":"seoul_layer","estimated":true}}],"line_meta":{"ITX-청춘":{"en":"ITX-Cheongchun (est.)","color":"#b14aed","cls":"conv","estimated":true,"period":"2025","city":null}},"station_names":{"용산":"Yongsan","옥수":"Oksu","왕십리":"Wangsimni","청량리":"Cheongnyangni","상봉":"Sangbong","퇴계원":"Toegyewon","사릉":"Sareung","평내호평":"Pyeongnae-Hopyeong","마석":"Maseok","청평":"Cheongpyeong","가평":"Gapyeong","백양리":"Baegyangni","강촌":"Gangchon","남춘천":"Namchuncheon","춘천":"Chuncheon"},"model_report":{"line":"ITX-청춘","year":"2025","stations":15,"length_km":97.78,"boardings_year":5243650,"alightings_year":5243650,"trip_km_published":73.0,"trip_km_fitted":73.0,"beta_per_km":0.04776,"busiest":{"from":"사릉","to":"평내호평","daily":12701.9}}}