{"type":"FeatureCollection","features":[{"type":"Feature","geometry":{"type":"LineString","coordinates":[[127.45768,36.316962],[127.457231,36.316975],[127.454522,36.317187],[127.453889,36.317334],[127.453203,36.317575],[127.452098,36.318155],[127.448986,36.319634]]},"properties":{"line":"대전 1호선","from":"판암","to":"신흥","daily_down":4199.7,"daily_up":3809.5,"daily":8009.2,"daily_low":8009.2,"daily_high":8009.2,"daily_down_low":4199.7,"daily_down_high":4199.7,"daily_up_low":3809.5,"daily_up_high":3809.5,"km":0.941,"source":"small_city_gravity","period":"2026-07 Mon-Fri mean","geometry_source":"osm","estimated":true}},{"type":"Feature","geometry":{"type":"LineString","coordinates":[[127.448986,36.319634],[127.44702,36.320741],[127.445574,36.321556],[127.445274,36.321877],[127.445186,36.322235],[127.445195,36.322667],[127.445403,36.32338],[127.445487,36.324008],[127.445434,36.324444],[127.445247,36.325357],[127.444545,36.326643],[127.442939,36.329449]]},"properties":{"line":"대전 1호선","from":"신흥","to":"대동","daily_down":6244.5,"daily_up":5752.6,"daily":11997.1,"daily_low":11701.3,"daily_high":12084.6,"daily_down_low":6096.6,"daily_down_high":6288.2,"daily_up_low":5604.7,"daily_up_high":5796.4,"km":1.273,"source":"small_city_gravity","period":"2026-07 Mon-Fri mean","geometry_source":"osm","estimated":true}},{"type":"Feature","geometry":{"type":"LineString","coordinates":[[127.442939,36.329449],[127.440741,36.331334],[127.439137,36.332184],[127.437893,36.332642],[127.437329,36.332681],[127.436863,36.33265],[127.433349,36.331384]]},"properties":{"line":"대전 1호선","from":"대동","to":"대전","daily_down":9949.1,"daily_up":8955.2,"daily":18904.3,"daily_low":18066.6,"daily_high":19177.4,"daily_down_low":9530.3,"daily_down_high":10085.7,"daily_up_low":8536.3,"daily_up_high":9091.7,"km":0.939,"source":"small_city_gravity","period":"2026-07 Mon-Fri mean","geometry_source":"osm","estimated":true}},{"type":"Feature","geometry":{"type":"LineString","coordinates":[[127.433349,36.331384],[127.428939,36.329785],[127.42892,36.329779],[127.428356,36.329605],[127.425894,36.328614]]},"properties":{"line":"대전 1호선","from":"대전","to":"중앙로","daily_down":18838.7,"daily_up":17721.5,"daily":36560.3,"daily_low":33352.2,"daily_high":37668.3,"daily_down_low":17234.7,"daily_down_high":19392.8,"daily_up_low":16117.5,"daily_up_high":18275.5,"km":0.759,"source":"small_city_gravity","period":"2026-07 Mon-Fri mean","geometry_source":"osm","estimated":true}},{"type":"Feature","geometry":{"type":"LineString","coordinates":[[127.425894,36.328614],[127.424039,36.327873],[127.422674,36.327416],[127.422268,36.327238],[127.421131,36.326127],[127.419553,36.324821]]},"properties":{"line":"대전 1호선","from":"중앙로","to":"중구청","daily_down":22448.3,"daily_up":21967.5,"daily":44415.8,"daily_low":38474.9,"daily_high":46526.9,"daily_down_low":19477.9,"daily_down_high":23503.9,"daily_up_low":18997.0,"daily_up_high":23023.0,"km":0.731,"source":"small_city_gravity","period":"2026-07 Mon-Fri mean","geometry_source":"osm","estimated":true}},{"type":"Feature","geometry":{"type":"LineString","coordinates":[[127.419553,36.324821],[127.418554,36.323994],[127.416734,36.3224],[127.415723,36.321782],[127.415318,36.321652],[127.414708,36.321533],[127.414264,36.321549],[127.413616,36.321686],[127.413574,36.321698],[127.413536,36.321719],[127.412953,36.322102],[127.412639,36.322308],[127.412536,36.322402]]},"properties":{"line":"대전 1호선","from":"중구청","to":"서대전네거리","daily_down":23407.8,"daily_up":22993.4,"daily":46401.2,"daily_low":39605.4,"daily_high":48846.2,"daily_down_low":20009.9,"daily_down_high":24630.3,"daily_up_low":19595.5,"daily_up_high":24215.9,"km":0.721,"source":"small_city_gravity","period":"2026-07 Mon-Fri mean","geometry_source":"osm","estimated":true}},{"type":"Feature","geometry":{"type":"LineString","coordinates":[[127.412536,36.322402],[127.411167,36.323499],[127.405096,36.328411]]},"properties":{"line":"대전 1호선","from":"서대전네거리","to":"오룡","daily_down":25146.2,"daily_up":24992.3,"daily":50138.4,"daily_low":41620.8,"daily_high":53268.1,"daily_down_low":20887.3,"daily_down_high":26711.0,"daily_up_low":20733.4,"daily_up_high":26557.1,"km":0.999,"source":"small_city_gravity","period":"2026-07 Mon-Fri mean","geometry_source":"osm","estimated":true}},{"type":"Feature","geometry":{"type":"LineString","coordinates":[[127.405096,36.328411],[127.404526,36.328921],[127.40442,36.329009],[127.398736,36.333747],[127.393642,36.337944],[127.393298,36.338255]]},"properties":{"line":"대전 1호선","from":"오룡","to":"용문","daily_down":26338.5,"daily_up":25685.7,"daily":52024.1,"daily_low":42622.3,"daily_high":55520.0,"daily_down_low":21637.5,"daily_down_high":28086.4,"daily_up_low":20984.8,"daily_up_high":27433.6,"km":1.568,"source":"small_city_gravity","period":"2026-07 Mon-Fri mean","geometry_source":"osm","estimated":true}},{"type":"Feature","geometry":{"type":"LineString","coordinates":[[127.393298,36.338255],[127.389511,36.341367],[127.389318,36.341505],[127.388792,36.34182],[127.388316,36.341994],[127.387254,36.342411],[127.385442,36.34293],[127.385078,36.343148],[127.384917,36.343291],[127.384844,36.34344],[127.38479,36.343588],[127.38477,36.343706],[127.384719,36.346129]]},"properties":{"line":"대전 1호선","from":"용문","to":"탄방","daily_down":27443.9,"daily_up":26903.1,"daily":54347.0,"daily_low":44376.3,"daily_high":58111.7,"daily_down_low":22458.6,"daily_down_high":29326.3,"daily_up_low":21917.7,"daily_up_high":28785.4,"km":1.165,"source":"small_city_gravity","period":"2026-07 Mon-Fri mean","geometry_source":"osm","estimated":true}},{"type":"Feature","geometry":{"type":"LineString","coordinates":[[127.384719,36.346129],[127.384699,36.346922],[127.384784,36.347234],[127.384909,36.347442],[127.385306,36.347835],[127.385681,36.348159],[127.38598,36.34845],[127.386246,36.34876],[127.386476,36.349104],[127.386566,36.349458],[127.386594,36.350237],[127.386625,36.351201],[127.386626,36.351484]]},"properties":{"line":"대전 1호선","from":"탄방","to":"시청","daily_down":27440.6,"daily_up":27334.4,"daily":54775.0,"daily_low":44872.1,"daily_high":58526.0,"daily_down_low":22489.2,"daily_down_high":29316.1,"daily_up_low":22382.9,"daily_up_high":29209.8,"km":0.75,"source":"small_city_gravity","period":"2026-07 Mon-Fri mean","geometry_source":"osm","estimated":true}},{"type":"Feature","geometry":{"type":"LineString","coordinates":[[127.386626,36.351484],[127.38663,36.353669],[127.386342,36.355595],[127.385986,36.356419],[127.385571,36.357008],[127.384741,36.357447],[127.383635,36.35762],[127.381613,36.35763]]},"properties":{"line":"대전 1호선","from":"시청","to":"정부청사","daily_down":26458.3,"daily_up":26795.5,"daily":53253.8,"daily_low":43688.9,"daily_high":56843.7,"daily_down_low":21675.9,"daily_down_high":28253.3,"daily_up_low":22013.0,"daily_up_high":28590.4,"km":0.874,"source":"small_city_gravity","period":"2026-07 Mon-Fri mean","geometry_source":"osm","estimated":true}},{"type":"Feature","geometry":{"type":"LineString","coordinates":[[127.381613,36.35763],[127.379877,36.357673],[127.379019,36.35768],[127.374804,36.357738],[127.374747,36.357739],[127.37413,36.357728],[127.373908,36.357723],[127.372795,36.357701]]},"properties":{"line":"대전 1호선","from":"정부청사","to":"갈마","daily_down":24381.3,"daily_up":25233.6,"daily":49614.9,"daily_low":40517.7,"daily_high":52945.0,"daily_down_low":19832.6,"daily_down_high":26046.3,"daily_up_low":20685.0,"daily_up_high":26898.7,"km":0.786,"source":"small_city_gravity","period":"2026-07 Mon-Fri mean","geometry_source":"osm","estimated":true}},{"type":"Feature","geometry":{"type":"LineString","coordinates":[[127.372795,36.357701],[127.371219,36.357716],[127.368222,36.357919],[127.364575,36.358373]]},"properties":{"line":"대전 1호선","from":"갈마","to":"월평","daily_down":23441.3,"daily_up":24281.3,"daily":47722.6,"daily_low":38930.7,"daily_high":50897.4,"daily_down_low":19045.3,"daily_down_high":25028.7,"daily_up_low":19885.4,"daily_up_high":25868.7,"km":0.775,"source":"small_city_gravity","period":"2026-07 Mon-Fri mean","geometry_source":"osm","estimated":true}},{"type":"Feature","geometry":{"type":"LineString","coordinates":[[127.364575,36.358373],[127.364181,36.358424],[127.362949,36.358582],[127.362357,36.358604],[127.362056,36.358594],[127.361658,36.358555],[127.361052,36.358473],[127.360635,36.358394],[127.36031,36.358296],[127.359847,36.358117],[127.359117,36.357756],[127.358052,36.357119],[127.354497,36.354606]]},"properties":{"line":"대전 1호선","from":"월평","to":"갑천","daily_down":22149.5,"daily_up":22992.6,"daily":45142.1,"daily_low":36910.8,"daily_high":48057.8,"daily_down_low":18033.9,"daily_down_high":23607.3,"daily_up_low":18877.0,"daily_up_high":24450.4,"km":1.02,"source":"small_city_gravity","period":"2026-07 Mon-Fri mean","geometry_source":"osm","estimated":true}},{"type":"Feature","geometry":{"type":"LineString","coordinates":[[127.354497,36.354606],[127.353948,36.354153],[127.353493,36.353662],[127.353027,36.353259],[127.352533,36.352865],[127.35176,36.352338],[127.351197,36.352134],[127.350431,36.351917],[127.34982,36.351832],[127.348821,36.351896],[127.348109,36.352062],[127.341702,36.353733],[127.341527,36.353783]]},"properties":{"line":"대전 1호선","from":"갑천","to":"유성온천","daily_down":21784.5,"daily_up":22581.3,"daily":44365.9,"daily_low":36395.6,"daily_high":47172.7,"daily_down_low":17799.4,"daily_down_high":23188.0,"daily_up_low":18596.2,"daily_up_high":23984.7,"km":1.213,"source":"small_city_gravity","period":"2026-07 Mon-Fri mean","geometry_source":"osm","estimated":true}},{"type":"Feature","geometry":{"type":"LineString","coordinates":[[127.341527,36.353783],[127.340186,36.354168],[127.338108,36.354722],[127.336791,36.355073],[127.336539,36.355136],[127.33604,36.355261],[127.335564,36.355422],[127.332247,36.356325],[127.330655,36.356757]]},"properties":{"line":"대전 1호선","from":"유성온천","to":"구암","daily_down":16513.1,"daily_up":17791.2,"daily":34304.3,"daily_low":29278.0,"daily_high":35958.5,"daily_down_low":14000.0,"daily_down_high":17340.2,"daily_up_low":15278.1,"daily_up_high":18618.3,"km":1.054,"source":"small_city_gravity","period":"2026-07 Mon-Fri mean","geometry_source":"osm","estimated":true}},{"type":"Feature","geometry":{"type":"LineString","coordinates":[[127.330655,36.356757],[127.321446,36.359456]]},"properties":{"line":"대전 1호선","from":"구암","to":"현충원","daily_down":14743.2,"daily_up":15914.0,"daily":30657.2,"daily_low":26524.2,"daily_high":31962.8,"daily_down_low":12676.7,"daily_down_high":15396.0,"daily_up_low":13847.5,"daily_up_high":16566.8,"km":0.913,"source":"small_city_gravity","period":"2026-07 Mon-Fri mean","geometry_source":"osm","estimated":true}},{"type":"Feature","geometry":{"type":"LineString","coordinates":[[127.321446,36.359456],[127.319446,36.359813],[127.319166,36.359862],[127.318885,36.359936],[127.318675,36.36003],[127.318512,36.360145],[127.318399,36.360282],[127.318252,36.360474],[127.318153,36.360634],[127.31809,36.360859],[127.317985,36.361192],[127.31792,36.361523],[127.317922,36.361779],[127.31796,36.365791],[127.317938,36.366781]]},"properties":{"line":"대전 1호선","from":"현충원","to":"월드컵경기장","daily_down":13697.3,"daily_up":14406.3,"daily":28103.6,"daily_low":24662.4,"daily_high":29157.5,"daily_down_low":11976.7,"daily_down_high":14224.2,"daily_up_low":12685.7,"daily_up_high":14933.3,"km":0.967,"source":"small_city_gravity","period":"2026-07 Mon-Fri mean","geometry_source":"osm","estimated":true}},{"type":"Feature","geometry":{"type":"LineString","coordinates":[[127.317938,36.366781],[127.317981,36.367892],[127.318004,36.37007],[127.317974,36.37414]]},"properties":{"line":"대전 1호선","from":"월드컵경기장","to":"노은","daily_down":12037.1,"daily_up":12475.8,"daily":24512.9,"daily_low":22116.3,"daily_high":25217.9,"daily_down_low":10838.8,"daily_down_high":12389.6,"daily_up_low":11277.5,"daily_up_high":12828.3,"km":0.849,"source":"small_city_gravity","period":"2026-07 Mon-Fri mean","geometry_source":"osm","estimated":true}},{"type":"Feature","geometry":{"type":"LineString","coordinates":[[127.317974,36.37414],[127.317993,36.374744],[127.317994,36.379135],[127.318079,36.379895],[127.318315,36.380527],[127.3194,36.382526],[127.319574,36.383116],[127.319648,36.383425],[127.319577,36.384397]]},"properties":{"line":"대전 1호선","from":"노은","to":"지족","daily_down":8532.3,"daily_up":9228.5,"daily":17760.8,"daily_low":16966.3,"daily_high":17979.4,"daily_down_low":8135.1,"daily_down_high":8641.6,"daily_up_low":8831.3,"daily_up_high":9337.8,"km":1.165,"source":"small_city_gravity","period":"2026-07 Mon-Fri mean","geometry_source":"osm","estimated":true}},{"type":"Feature","geometry":{"type":"LineString","coordinates":[[127.319577,36.384397],[127.319383,36.385224],[127.318418,36.387023],[127.317883,36.387909],[127.317664,36.388199],[127.314404,36.392637]]},"properties":{"line":"대전 1호선","from":"지족","to":"반석","daily_down":6801.5,"daily_up":7454.7,"daily":14256.2,"daily_low":14256.2,"daily_high":14256.2,"daily_down_low":6801.5,"daily_down_high":6801.5,"daily_up_low":7454.7,"daily_up_high":7454.7,"km":1.037,"source":"small_city_gravity","period":"2026-07 Mon-Fri mean","geometry_source":"osm","estimated":true}},{"type":"Feature","geometry":{"type":"LineString","coordinates":[[126.934053,35.10716],[126.934062,35.107319],[126.93407,35.107404],[126.934115,35.107574],[126.934243,35.107898],[126.934516,35.108407],[126.93464,35.108612],[126.934674,35.108678],[126.934919,35.109165],[126.935003,35.109414],[126.935104,35.1097],[126.935124,35.109805],[126.935145,35.110244],[126.935159,35.110582],[126.935184,35.111186],[126.935206,35.111527],[126.935255,35.112613],[126.935285,35.113216],[126.935283,35.113498],[126.935288,35.113576],[126.935309,35.114053],[126.935263,35.114519],[126.935225,35.114655],[126.935166,35.114836],[126.934881,35.115577],[126.934732,35.115889],[126.934389,35.116688],[126.933608,35.118588],[126.933316,35.120308],[126.932972,35.121354],[126.932277,35.123284],[126.932166,35.123624]]},"properties":{"line":"광주 1호선","from":"녹동","to":"소태","daily_down":188.7,"daily_up":150.7,"daily":339.4,"daily_low":339.4,"daily_high":339.4,"daily_down_low":188.7,"daily_down_high":188.7,"daily_up_low":150.7,"daily_up_high":150.7,"km":1.977,"source":"small_city_gravity","period":"2026-07 Mon-Fri mean","geometry_source":"osm","estimated":true}},{"type":"Feature","geometry":{"type":"LineString","coordinates":[[126.932166,35.123624],[126.931745,35.124913],[126.931127,35.126485],[126.930065,35.128855],[126.929222,35.130771],[126.929135,35.13102],[126.928563,35.132232],[126.928124,35.133112]]},"properties":{"line":"광주 1호선","from":"소태","to":"학동증심사","daily_down":2439.7,"daily_up":2255.9,"daily":4695.6,"daily_low":4684.8,"daily_high":4695.6,"daily_down_low":2434.3,"daily_down_high":2439.7,"daily_up_low":2250.5,"daily_up_high":2255.9,"km":1.083,"source":"small_city_gravity","period":"2026-07 Mon-Fri mean","geometry_source":"osm","estimated":true}},{"type":"Feature","geometry":{"type":"LineString","coordinates":[[126.928124,35.133112],[126.928095,35.133169],[126.927211,35.134429],[126.925589,35.136451],[126.9238,35.138205],[126.923482,35.138529],[126.922938,35.139227]]},"properties":{"line":"광주 1호선","from":"학동증심사","to":"남광주","daily_down":4341.4,"daily_up":4116.3,"daily":8457.6,"daily_low":8331.7,"daily_high":8457.6,"daily_down_low":4278.4,"daily_down_high":4341.4,"daily_up_low":4053.3,"daily_up_high":4116.3,"km":0.844,"source":"small_city_gravity","period":"2026-07 Mon-Fri mean","geometry_source":"osm","estimated":true}},{"type":"Feature","geometry":{"type":"LineString","coordinates":[[126.922938,35.139227],[126.922816,35.139364],[126.922236,35.140008],[126.921275,35.141075],[126.920683,35.141904],[126.9204,35.142507],[126.920321,35.142853],[126.920304,35.143197],[126.920305,35.144494],[126.920305,35.144959],[126.920278,35.145316],[126.920194,35.145715],[126.919931,35.146405],[126.91979,35.146671]]},"properties":{"line":"광주 1호선","from":"남광주","to":"문화전당","daily_down":7604.6,"daily_up":7527.7,"daily":15132.3,"daily_low":14639.4,"daily_high":15132.3,"daily_down_low":7358.1,"daily_down_high":7604.6,"daily_up_low":7281.3,"daily_up_high":7527.7,"km":0.927,"source":"small_city_gravity","period":"2026-07 Mon-Fri mean","geometry_source":"osm","estimated":true}},{"type":"Feature","geometry":{"type":"LineString","coordinates":[[126.91979,35.146671],[126.919643,35.146904],[126.919483,35.147126],[126.919173,35.147478],[126.918758,35.147873],[126.918541,35.148022],[126.918121,35.148327],[126.916393,35.149478],[126.914967,35.150411],[126.914538,35.150688]]},"properties":{"line":"광주 1호선","from":"문화전당","to":"금남로4가","daily_down":9557.2,"daily_up":9737.2,"daily":19294.3,"daily_low":18388.0,"daily_high":19294.3,"daily_down_low":9104.0,"daily_down_high":9557.2,"daily_up_low":9284.0,"daily_up_high":9737.2,"km":0.73,"source":"small_city_gravity","period":"2026-07 Mon-Fri mean","geometry_source":"osm","estimated":true}},{"type":"Feature","geometry":{"type":"LineString","coordinates":[[126.914538,35.150688],[126.912934,35.151721],[126.910832,35.153152],[126.909993,35.153736]]},"properties":{"line":"광주 1호선","from":"금남로4가","to":"금남로5가","daily_down":11563.0,"daily_up":11842.1,"daily":23405.1,"daily_low":21908.5,"daily_high":23405.1,"daily_down_low":10814.7,"daily_down_high":11563.0,"daily_up_low":11093.8,"daily_up_high":11842.1,"km":0.518,"source":"small_city_gravity","period":"2026-07 Mon-Fri mean","geometry_source":"osm","estimated":true}},{"type":"Feature","geometry":{"type":"LineString","coordinates":[[126.909993,35.153736],[126.907277,35.155507],[126.906272,35.15618],[126.905766,35.156356],[126.905362,35.156496],[126.905019,35.156503],[126.904384,35.156377],[126.903488,35.155878],[126.902156,35.154714],[126.90182,35.154471]]},"properties":{"line":"광주 1호선","from":"금남로5가","to":"양동시장","daily_down":12307.1,"daily_up":12621.9,"daily":24929.0,"daily_low":23105.9,"daily_high":24929.0,"daily_down_low":11395.6,"daily_down_high":12307.1,"daily_up_low":11710.3,"daily_up_high":12621.9,"km":0.845,"source":"small_city_gravity","period":"2026-07 Mon-Fri mean","geometry_source":"osm","estimated":true}},{"type":"Feature","geometry":{"type":"LineString","coordinates":[[126.90182,35.154471],[126.900028,35.153179],[126.899114,35.152849],[126.896409,35.151964],[126.895561,35.151671]]},"properties":{"line":"광주 1호선","from":"양동시장","to":"돌고개","daily_down":12890.4,"daily_up":13323.6,"daily":26214.0,"daily_low":24099.9,"daily_high":26214.0,"daily_down_low":11833.3,"daily_down_high":12890.4,"daily_up_low":12266.6,"daily_up_high":13323.6,"km":0.57,"source":"small_city_gravity","period":"2026-07 Mon-Fri mean","geometry_source":"osm","estimated":true}},{"type":"Feature","geometry":{"type":"LineString","coordinates":[[126.895561,35.151671],[126.895118,35.151518],[126.892345,35.15063],[126.891642,35.150518],[126.891006,35.15055],[126.890341,35.150757],[126.889925,35.150974],[126.888805,35.151999],[126.887798,35.152938],[126.887363,35.153258],[126.886989,35.153406],[126.886352,35.153499],[126.885979,35.153472],[126.88491,35.153302],[126.884135,35.153187]]},"properties":{"line":"광주 1호선","from":"돌고개","to":"농성","daily_down":13179.1,"daily_up":13714.6,"daily":26893.7,"daily_low":24583.6,"daily_high":26893.7,"daily_down_low":12024.0,"daily_down_high":13179.1,"daily_up_low":12559.6,"daily_up_high":13714.6,"km":1.11,"source":"small_city_gravity","period":"2026-07 Mon-Fri mean","geometry_source":"osm","estimated":true}},{"type":"Feature","geometry":{"type":"LineString","coordinates":[[126.884135,35.153187],[126.882181,35.152897],[126.878647,35.152175],[126.876863,35.151887]]},"properties":{"line":"광주 1호선","from":"농성","to":"화정","daily_down":13432.2,"daily_up":13928.5,"daily":27360.8,"daily_low":24921.5,"daily_high":27360.8,"daily_down_low":12212.6,"daily_down_high":13432.2,"daily_up_low":12708.9,"daily_up_high":13928.5,"km":0.701,"source":"small_city_gravity","period":"2026-07 Mon-Fri mean","geometry_source":"osm","estimated":true}},{"type":"Feature","geometry":{"type":"LineString","coordinates":[[126.876863,35.151887],[126.875182,35.151633],[126.871725,35.151497],[126.869576,35.151426]]},"properties":{"line":"광주 1호선","from":"화정","to":"쌍촌","daily_down":13522.7,"daily_up":13771.9,"daily":27294.5,"daily_low":24820.7,"daily_high":27294.5,"daily_down_low":12285.8,"daily_down_high":13522.7,"daily_up_low":12534.9,"daily_up_high":13771.9,"km":0.678,"source":"small_city_gravity","period":"2026-07 Mon-Fri mean","geometry_source":"osm","estimated":true}},{"type":"Feature","geometry":{"type":"LineString","coordinates":[[126.869576,35.151426],[126.864558,35.151261],[126.860646,35.150736],[126.858711,35.150363]]},"properties":{"line":"광주 1호선","from":"쌍촌","to":"운천","daily_down":13466.3,"daily_up":13342.1,"daily":26808.3,"daily_low":24361.4,"daily_high":26808.3,"daily_down_low":12242.8,"daily_down_high":13466.3,"daily_up_low":12118.6,"daily_up_high":13342.1,"km":1.031,"source":"small_city_gravity","period":"2026-07 Mon-Fri mean","geometry_source":"osm","estimated":true}},{"type":"Feature","geometry":{"type":"LineString","coordinates":[[126.858711,35.150363],[126.856185,35.149917],[126.855414,35.149713],[126.85433,35.149332],[126.853913,35.149269],[126.853168,35.148932],[126.851779,35.148252],[126.850472,35.147593],[126.849621,35.147176],[126.848662,35.146717]]},"properties":{"line":"광주 1호선","from":"운천","to":"상무","daily_down":12718.9,"daily_up":12616.3,"daily":25335.3,"daily_low":23073.5,"daily_high":25335.3,"daily_down_low":11588.0,"daily_down_high":12718.9,"daily_up_low":11485.4,"daily_up_high":12616.3,"km":1.039,"source":"small_city_gravity","period":"2026-07 Mon-Fri mean","geometry_source":"osm","estimated":true}},{"type":"Feature","geometry":{"type":"LineString","coordinates":[[126.848662,35.146717],[126.846812,35.14584],[126.84343,35.144202],[126.841362,35.143175]]},"properties":{"line":"광주 1호선","from":"상무","to":"컨벤션센터","daily_down":10847.3,"daily_up":10976.2,"daily":21823.4,"daily_low":19905.1,"daily_high":21823.4,"daily_down_low":9888.1,"daily_down_high":10847.3,"daily_up_low":10017.0,"daily_up_high":10976.2,"km":0.794,"source":"small_city_gravity","period":"2026-07 Mon-Fri mean","geometry_source":"osm","estimated":true}},{"type":"Feature","geometry":{"type":"LineString","coordinates":[[126.841362,35.143175],[126.839018,35.14201],[126.83677,35.140917],[126.836013,35.140599],[126.834785,35.140259],[126.8343,35.140169],[126.833737,35.140122],[126.832962,35.140062],[126.832298,35.140084],[126.830794,35.14038],[126.828522,35.141033],[126.8262,35.141642],[126.82456,35.142025],[126.821446,35.142612],[126.818364,35.14308],[126.815363,35.143511],[126.811701,35.144072],[126.811434,35.144115]]},"properties":{"line":"광주 1호선","from":"컨벤션센터","to":"공항","daily_down":10180.2,"daily_up":10369.4,"daily":20549.7,"daily_low":18748.5,"daily_high":20549.7,"daily_down_low":9279.6,"daily_down_high":10180.2,"daily_up_low":9468.8,"daily_up_high":10369.4,"km":2.822,"source":"small_city_gravity","period":"2026-07 Mon-Fri mean","geometry_source":"osm","estimated":true}},{"type":"Feature","geometry":{"type":"LineString","coordinates":[[126.811434,35.144115],[126.809757,35.144152],[126.806892,35.144051],[126.803459,35.143766],[126.802515,35.143678],[126.800167,35.143582],[126.799739,35.143558],[126.799525,35.14355],[126.799245,35.143533]]},"properties":{"line":"광주 1호선","from":"공항","to":"송정공원","daily_down":9689.0,"daily_up":9737.8,"daily":19426.8,"daily_low":17873.8,"daily_high":19426.8,"daily_down_low":8912.5,"daily_down_high":9689.0,"daily_up_low":8961.3,"daily_up_high":9737.8,"km":1.16,"source":"small_city_gravity","period":"2026-07 Mon-Fri mean","geometry_source":"osm","estimated":true}},{"type":"Feature","geometry":{"type":"LineString","coordinates":[[126.799245,35.143533],[126.797607,35.143317],[126.796831,35.143154],[126.796105,35.142844],[126.795503,35.14234],[126.794639,35.141507],[126.793461,35.140206],[126.79283,35.139381],[126.792418,35.138755],[126.791684,35.137626]]},"properties":{"line":"광주 1호선","from":"송정공원","to":"광주송정","daily_down":7870.9,"daily_up":8059.7,"daily":15930.6,"daily_low":15079.8,"daily_high":15930.6,"daily_down_low":7445.5,"daily_down_high":7870.9,"daily_up_low":7634.3,"daily_up_high":8059.7,"km":1.009,"source":"small_city_gravity","period":"2026-07 Mon-Fri mean","geometry_source":"osm","estimated":true}},{"type":"Feature","geometry":{"type":"LineString","coordinates":[[126.791684,35.137626],[126.791382,35.137135],[126.790549,35.135517],[126.789768,35.134197],[126.789325,35.133303],[126.789038,35.132871],[126.788768,35.132579],[126.78836,35.132177],[126.787935,35.131815]]},"properties":{"line":"광주 1호선","from":"광주송정","to":"도산","daily_down":3882.8,"daily_up":4052.3,"daily":7935.1,"daily_low":7791.1,"daily_high":7935.1,"daily_down_low":3810.7,"daily_down_high":3882.8,"daily_up_low":3980.3,"daily_up_high":4052.3,"km":0.749,"source":"small_city_gravity","period":"2026-07 Mon-Fri mean","geometry_source":"osm","estimated":true}},{"type":"Feature","geometry":{"type":"LineString","coordinates":[[126.787935,35.131815],[126.787612,35.131573],[126.786902,35.131122],[126.786154,35.130714],[126.785116,35.130159],[126.785052,35.130124],[126.782104,35.128555],[126.781847,35.128411],[126.777384,35.126069],[126.77673,35.125763],[126.776006,35.125512],[126.775367,35.125344],[126.774647,35.125227],[126.770728,35.124878],[126.770611,35.124865],[126.7704,35.124835]]},"properties":{"line":"광주 1호선","from":"도산","to":"평동","daily_down":2471.8,"daily_up":2433.2,"daily":4905.0,"daily_low":4905.0,"daily_high":4905.0,"daily_down_low":2471.8,"daily_down_high":2471.8,"daily_up_low":2433.2,"daily_up_high":2433.2,"km":1.91,"source":"small_city_gravity","period":"2026-07 Mon-Fri mean","geometry_source":"osm","estimated":true}}],"line_meta":{"대전 1호선":{"en":"Daejeon Line 1 (est.)","color":"#007448","cls":"metro","estimated":true,"period":"2026-07","city":"대전"},"광주 1호선":{"en":"Gwangju Line 1 (est.)","color":"#009088","cls":"metro","estimated":true,"period":"2026-07","city":"광주"}},"station_names":{"판암":"Panam","신흥":"Sinheung","대동":"Dae-dong","대전":"Daejeon","중앙로":"Jungangno","중구청":"Jung-gu Office","서대전네거리":"Seodaejeon negeori","오룡":"Oryong","용문":"Yongmun","탄방":"Tanbang","시청":"City Hall","정부청사":"Government  Complex Daejeon","갈마":"Galma","월평":"Wolpyeong","갑천":"Gapcheon","유성온천":"Yuseong Spa","구암":"Guam","현충원":"National  Cemetery","월드컵경기장":"World Cup  Stadium","노은":"Noeun","지족":"Jijok","반석":"Banseok","녹동":"Nokdong","소태":"Sotae","학동증심사":"Hak-dong·Jeungsimsa","남광주":"Namgwangju","문화전당":"Culture Center (Former Provincial office)","금남로4가":"Geumnamno 4(sa)-ga","금남로5가":"Geumnamno 5(o)-ga","양동시장":"Yangdong Market","돌고개":"Dolgogae","농성":"Nongseong","화정":"Hwajeong","쌍촌":"Ssangchon","운천":"Uncheon","상무":"Sangmu","컨벤션센터":"Kim Daejung Convention Center (Mareuk)","공항":"Airport","송정공원":"Songjeong Park","광주송정":"GwangjuSongjeong Station","도산":"Dosan","평동":"Pyeong-dong"},"model_report":{"daejeon":{"days":23,"boardings":110650.82608695653,"alightings":110251.82608695651,"destination_scale":1.0036189876772228,"city":"대전","stations":22,"segments":21,"month":"2026-07","day_filter":"Monday-Friday (no holiday exclusion)","track_geometry":{"대전 1호선":{"fitted":true,"worst_station_offset_m":77,"track_km":20.673,"source":"OSM daejeon 1"}},"published_line_km":20.5,"unscaled_straight_line_km":19.66029723620544,"scenarios":[{"decay_km":11.235166868415249,"max_gate_residual":4.170686224824749e-06,"iterations":8,"mean_trip_km":5.6883675521063335,"max_station_flow_residual":4.170684405835345e-06},{"decay_km":38.646708854815195,"max_gate_residual":7.564976840512827e-07,"iterations":6,"mean_trip_km":6.690453115645357,"max_station_flow_residual":7.564904080936685e-07},{"decay_km":400.0,"max_gate_residual":2.6557972887530923e-07,"iterations":6,"mean_trip_km":7.049458100126559,"max_station_flow_residual":2.655779098859057e-07}],"trip_length_source":"철도통계연보 2022 도시철도 sheet 10 (통행거리별 여객 승차실적), row 대전교통공사 / 1호선","published_mean_trip_km":6.691390222957285,"published_pkm_dropped_beyond_network":0.0,"network_longest_trip_km":20.500000000000004,"fitted_decay_km":38.646708854815195,"scenario_spread_fraction":0.15,"scenario_targets_km":[5.687681689513692,6.691390222957285,7.695098756400877],"scenario_reached_km":[5.6883675521063335,6.690453115645357,7.049458100126559],"scenario_target_unreachable":[false,false,true],"central_trip_km_shortfall":0.0009,"trip_length_note":"Decay fitted to the published mean trip length; the central run reproduces it.","sensitivity_median_fraction":0.19474297131982415,"sensitivity_max_fraction":0.2527353490640825,"limits":"Gravity OD whose decay is fitted to the published mean trip length; the OD itself is still inferred, not observed. Gate fit is an accounting check, not independent validation. Scenario bounds are not confidence intervals. Straight station geometry is scaled to the published line length for distance costs.","source_sha256":{"counts.csv":"05767c55278399f0d25266fda98cbbce6a78cd48dddafabd6748e01acef82508","city_stations.xlsx":"cdf1d84a7e5c898b2aacd622783ba8ba9af35c40bee0561dc97d55ce8e063f94"}},"gwangju":{"days":23,"boardings":51755.86956521739,"alightings":50262.565217391304,"destination_scale":1.0297100703349973,"city":"광주","stations":20,"segments":19,"month":"2026-07","day_filter":"Monday-Friday (no holiday exclusion)","track_geometry":{"광주 1호선":{"fitted":true,"worst_station_offset_m":76,"track_km":20.366,"source":"OSM gwangju 1"}},"published_line_km":20.5,"unscaled_straight_line_km":19.772050121283144,"scenarios":[{"decay_km":27.702886699033336,"max_gate_residual":3.3805554267019033e-07,"iterations":6,"mean_trip_km":6.085380278846576,"max_station_flow_residual":3.3805463317548856e-07},{"decay_km":400.0,"max_gate_residual":1.989962584048044e-06,"iterations":5,"mean_trip_km":6.567592088368065,"max_station_flow_residual":1.989962129300693e-06},{"decay_km":400.0,"max_gate_residual":1.989962584048044e-06,"iterations":5,"mean_trip_km":6.567592088368065,"max_station_flow_residual":1.989962129300693e-06}],"trip_length_source":"철도통계연보 2022 도시철도 sheet 10 (통행거리별 여객 승차실적), row 광주광역시 / 1호선","published_mean_trip_km":7.160014412824625,"published_pkm_dropped_beyond_network":0.08417773414380215,"network_longest_trip_km":20.499999999999996,"fitted_decay_km":400.0,"scenario_spread_fraction":0.15,"scenario_targets_km":[6.0860122509009305,7.160014412824625,8.234016574748317],"scenario_reached_km":[6.085380278846576,6.567592088368065,6.567592088368065],"scenario_target_unreachable":[false,true,true],"central_trip_km_shortfall":0.5924,"trip_length_note":"The published mean trip of 7.16 km is longer than this network's gates can produce under any distance decay (ceiling 6.57 km), so the central run is pinned at the most uniform OD available and still falls 0.59 km short. Distance-decay gravity is the wrong model family here, not merely the wrong parameter: decay can only ever shorten trips relative to uniform. Mid-line segments are therefore still understated, and the narrow scenario band reflects a boundary rather than confidence.","sensitivity_median_fraction":0.07313232955748682,"sensitivity_max_fraction":0.09127417592736259,"limits":"Gravity OD whose decay is fitted to the published mean trip length; the OD itself is still inferred, not observed. Gate fit is an accounting check, not independent validation. Scenario bounds are not confidence intervals. Straight station geometry is scaled to the published line length for distance costs.","source_sha256":{"counts.csv":"48121248000e60211302affe9b9d2c528981f34ddcfb581c87a0a790804bc0ef","city_stations.xlsx":"cdf1d84a7e5c898b2aacd622783ba8ba9af35c40bee0561dc97d55ce8e063f94"}}}}