{"type": "FeatureCollection", "features": [{"type": "Feature", "properties": {"station": "가평", "line": "경춘선", "lines": ["경춘선"], "riders": 1}, "geometry": {"type": "Point", "coordinates": [127.510762, 37.814518]}}, {"type": "Feature", "properties": {"station": "각계", "line": "경부선", "lines": ["경부선"], "riders": 1}, "geometry": {"type": "Point", "coordinates": [127.725447, 36.208159]}}, {"type": "Feature", "properties": {"station": "나전", "line": "정선선", "lines": ["정선선"], "riders": 1}, "geometry": {"type": "Point", "coordinates": [128.668432, 37.449782]}}, {"type": "Feature", "properties": {"station": "임기", "line": "영동선", "lines": ["영동선"], "riders": 1}, "geometry": {"type": "Point", "coordinates": [128.999054, 36.903951]}}, {"type": "Feature", "properties": {"station": "문산", "line": "경의선", "lines": ["경의선"], "riders": 2}, "geometry": {"type": "Point", "coordinates": [126.787904, 37.854453]}}, {"type": "Feature", "properties": {"station": "의정부", "line": "경원선", "lines": ["경원선"], "riders": 2}, "geometry": {"type": "Point", "coordinates": [127.04605, 37.737704]}}, {"type": "Feature", "properties": {"station": "지탄", "line": "경부선", "lines": ["경부선"], "riders": 2}, "geometry": {"type": "Point", "coordinates": [127.675893, 36.241738]}}, {"type": "Feature", "properties": {"station": "춘천", "line": "경춘선", "lines": ["경춘선"], "riders": 2}, "geometry": {"type": "Point", "coordinates": [127.716664, 37.88456]}}, {"type": "Feature", "properties": {"station": "능곡", "line": "경의선", "lines": ["경의선"], "riders": 3}, "geometry": {"type": "Point", "coordinates": [126.820516, 37.61894]}}, {"type": "Feature", "properties": {"station": "현동", "line": "영동선", "lines": ["영동선"], "riders": 4}, "geometry": {"type": "Point", "coordinates": [129.012308, 36.937418]}}, {"type": "Feature", "properties": {"station": "신기", "line": "영동선", "lines": ["영동선"], "riders": 5}, "geometry": {"type": "Point", "coordinates": [129.085209, 37.346106]}}, {"type": "Feature", "properties": {"station": "임진강", "line": "경의선", "lines": ["경의선"], "riders": 5}, "geometry": {"type": "Point", "coordinates": [126.748278, 37.888256]}}, {"type": "Feature", "properties": {"station": "명봉", "line": "경전선", "lines": ["경전선"], "riders": 6}, "geometry": {"type": "Point", "coordinates": [127.075519, 34.82774]}}, {"type": "Feature", "properties": {"station": "쌍룡", "line": "태백선", "lines": ["태백선"], "riders": 6}, "geometry": {"type": "Point", "coordinates": [128.32868, 37.174225]}}, {"type": "Feature", "properties": {"station": "양원", "line": "영동선", "lines": ["영동선"], "riders": 6}, "geometry": {"type": "Point", "coordinates": [129.091393, 36.963828]}}, {"type": "Feature", "properties": {"station": "가남", "line": "중부내륙선", "lines": ["중부내륙선"], "riders": 7}, "geometry": {"type": "Point", "coordinates": [127.535438, 37.197417]}}, {"type": "Feature", "properties": {"station": "아우라지", "line": "정선선", "lines": ["정선선"], "riders": 9}, "geometry": {"type": "Point", "coordinates": [128.722108, 37.472867]}}, {"type": "Feature", "properties": {"station": "동두천", "line": "경원선", "lines": ["경원선"], "riders": 10}, "geometry": {"type": "Point", "coordinates": [127.054782, 37.927826]}}, {"type": "Feature", "properties": {"station": "삼산", "line": "중앙선", "lines": ["중앙선"], "riders": 10}, "geometry": {"type": "Point", "coordinates": [127.779729, 37.392278]}}, {"type": "Feature", "properties": {"station": "이양", "line": "경전선", "lines": ["경전선"], "riders": 10}, "geometry": {"type": "Point", "coordinates": [126.989874, 34.891552]}}, {"type": "Feature", "properties": {"station": "광운대", "line": "경원선", "lines": ["경원선"], "riders": 11}, "geometry": {"type": "Point", "coordinates": [127.061819, 37.623699]}}, {"type": "Feature", "properties": {"station": "능주", "line": "경전선", "lines": ["경전선"], "riders": 11}, "geometry": {"type": "Point", "coordinates": [126.964266, 34.985785]}}, {"type": "Feature", "properties": {"station": "도라산", "line": "경의선", "lines": ["경의선"], "riders": 11}, "geometry": {"type": "Point", "coordinates": [126.709164, 37.898389]}}, {"type": "Feature", "properties": {"station": "다시", "line": "호남선", "lines": ["호남선"], "riders": 15}, "geometry": {"type": "Point", "coordinates": [126.641131, 35.01645]}}, {"type": "Feature", "properties": {"station": "삼탄", "line": "충북선", "lines": ["충북선"], "riders": 15}, "geometry": {"type": "Point", "coordinates": [128.038666, 37.073419]}}, {"type": "Feature", "properties": {"station": "승부", "line": "영동선", "lines": ["영동선"], "riders": 15}, "geometry": {"type": "Point", "coordinates": [129.083866, 36.993093]}}, {"type": "Feature", "properties": {"station": "석불", "line": "중앙선", "lines": ["중앙선"], "riders": 16}, "geometry": {"type": "Point", "coordinates": [127.654941, 37.459975]}}, {"type": "Feature", "properties": {"station": "남성현", "line": "경부선", "lines": ["경부선"], "riders": 17}, "geometry": {"type": "Point", "coordinates": [128.716217, 35.704834]}}, {"type": "Feature", "properties": {"station": "용궁", "line": "경북선", "lines": ["경북선"], "riders": 17}, "geometry": {"type": "Point", "coordinates": [128.273416, 36.606919]}}, {"type": "Feature", "properties": {"station": "진례", "line": "경전선", "lines": ["경전선"], "riders": 17}, "geometry": {"type": "Point", "coordinates": [128.763002, 35.266507]}}, {"type": "Feature", "properties": {"station": "청리", "line": "경북선", "lines": ["경북선"], "riders": 17}, "geometry": {"type": "Point", "coordinates": [128.128881, 36.339087]}}, {"type": "Feature", "properties": {"station": "대야", "line": "장항선", "lines": ["장항선"], "riders": 18}, "geometry": {"type": "Point", "coordinates": [126.824254, 35.944932]}}, {"type": "Feature", "properties": {"station": "무안", "line": "호남선", "lines": ["호남선"], "riders": 21}, "geometry": {"type": "Point", "coordinates": [126.517578, 34.962798]}}, {"type": "Feature", "properties": {"station": "앙성온천", "line": "중부내륙선", "lines": ["중부내륙선"], "riders": 21}, "geometry": {"type": "Point", "coordinates": [127.786949, 37.092071]}}, {"type": "Feature", "properties": {"station": "조성", "line": "경전선", "lines": ["경전선"], "riders": 21}, "geometry": {"type": "Point", "coordinates": [127.248335, 34.806644]}}, {"type": "Feature", "properties": {"station": "득량", "line": "경전선", "lines": ["경전선"], "riders": 22}, "geometry": {"type": "Point", "coordinates": [127.170332, 34.761189]}}, {"type": "Feature", "properties": {"station": "봉양", "line": "중앙선", "lines": ["중앙선", "충북선"], "riders": 22}, "geometry": {"type": "Point", "coordinates": [128.129806, 37.130403]}}, {"type": "Feature", "properties": {"station": "신동", "line": "경부선", "lines": ["경부선"], "riders": 22}, "geometry": {"type": "Point", "coordinates": [128.486112, 35.955442]}}, {"type": "Feature", "properties": {"station": "완사", "line": "경전선", "lines": ["경전선"], "riders": 23}, "geometry": {"type": "Point", "coordinates": [127.977171, 35.134607]}}, {"type": "Feature", "properties": {"station": "임성리", "line": "호남선", "lines": ["호남선"], "riders": 23}, "geometry": {"type": "Point", "coordinates": [126.435209, 34.820465]}}, {"type": "Feature", "properties": {"station": "예당", "line": "경전선", "lines": ["경전선"], "riders": 24}, "geometry": {"type": "Point", "coordinates": [127.202288, 34.778627]}}, {"type": "Feature", "properties": {"station": "몽탄", "line": "호남선", "lines": ["호남선"], "riders": 25}, "geometry": {"type": "Point", "coordinates": [126.5037, 34.929829]}}, {"type": "Feature", "properties": {"station": "함창", "line": "경북선", "lines": ["경북선"], "riders": 25}, "geometry": {"type": "Point", "coordinates": [128.174919, 36.5696]}}, {"type": "Feature", "properties": {"station": "매곡", "line": "중앙선", "lines": ["중앙선"], "riders": 26}, "geometry": {"type": "Point", "coordinates": [127.730144, 37.436586]}}, {"type": "Feature", "properties": {"station": "석포", "line": "영동선", "lines": ["영동선"], "riders": 27}, "geometry": {"type": "Point", "coordinates": [129.060735, 37.045446]}}, {"type": "Feature", "properties": {"station": "장사", "line": "동해선", "lines": ["동해선"], "riders": 28}, "geometry": {"type": "Point", "coordinates": [129.369136, 36.284141]}}, {"type": "Feature", "properties": {"station": "일신", "line": "중앙선", "lines": ["중앙선"], "riders": 30}, "geometry": {"type": "Point", "coordinates": [127.689005, 37.445358]}}, {"type": "Feature", "properties": {"station": "서광주", "line": "경전선", "lines": ["경전선"], "riders": 31}, "geometry": {"type": "Point", "coordinates": [126.847431, 35.124733]}}, {"type": "Feature", "properties": {"station": "심천", "line": "경부선", "lines": ["경부선"], "riders": 33}, "geometry": {"type": "Point", "coordinates": [127.720788, 36.236826]}}, {"type": "Feature", "properties": {"station": "청소", "line": "장항선", "lines": ["장항선"], "riders": 34}, "geometry": {"type": "Point", "coordinates": [126.590776, 36.445678]}}, {"type": "Feature", "properties": {"station": "한림정", "line": "경전선", "lines": ["경전선"], "riders": 35}, "geometry": {"type": "Point", "coordinates": [128.804219, 35.323118]}}, {"type": "Feature", "properties": {"station": "월포", "line": "동해선", "lines": ["동해선"], "riders": 38}, "geometry": {"type": "Point", "coordinates": [129.366402, 36.204006]}}, {"type": "Feature", "properties": {"station": "춘양", "line": "영동선", "lines": ["영동선"], "riders": 38}, "geometry": {"type": "Point", "coordinates": [128.920236, 36.937559]}}, {"type": "Feature", "properties": {"station": "개포", "line": "경북선", "lines": ["경북선"], "riders": 39}, "geometry": {"type": "Point", "coordinates": [128.328563, 36.626943]}}, {"type": "Feature", "properties": {"station": "횡천", "line": "경전선", "lines": ["경전선"], "riders": 39}, "geometry": {"type": "Point", "coordinates": [127.801679, 35.099271]}}, {"type": "Feature", "properties": {"station": "봉화", "line": "영동선", "lines": ["영동선"], "riders": 41}, "geometry": {"type": "Point", "coordinates": [128.725445, 36.891487]}}, {"type": "Feature", "properties": {"station": "아화", "line": "중앙선", "lines": ["중앙선"], "riders": 41}, "geometry": {"type": "Point", "coordinates": [129.051379, 35.898634]}}, {"type": "Feature", "properties": {"station": "진상", "line": "경전선", "lines": ["경전선"], "riders": 44}, "geometry": {"type": "Point", "coordinates": [127.719725, 35.015084]}}, {"type": "Feature", "properties": {"station": "동백산", "line": "영동선", "lines": ["영동선"], "riders": 45}, "geometry": {"type": "Point", "coordinates": [129.034235, 37.154345]}}, {"type": "Feature", "properties": {"station": "정선", "line": "정선선", "lines": ["정선선"], "riders": 45}, "geometry": {"type": "Point", "coordinates": [128.672632, 37.387946]}}, {"type": "Feature", "properties": {"station": "감곡장호원", "line": "중부내륙선", "lines": ["중부내륙선"], "riders": 47}, "geometry": {"type": "Point", "coordinates": [127.63562, 37.127043]}}, {"type": "Feature", "properties": {"station": "강구", "line": "동해선", "lines": ["동해선"], "riders": 47}, "geometry": {"type": "Point", "coordinates": [129.372231, 36.352244]}}, {"type": "Feature", "properties": {"station": "벌교", "line": "경전선", "lines": ["경전선"], "riders": 48}, "geometry": {"type": "Point", "coordinates": [127.345584, 34.841773]}}, {"type": "Feature", "properties": {"station": "옥산", "line": "경북선", "lines": ["경북선"], "riders": 50}, "geometry": {"type": "Point", "coordinates": [128.094366, 36.282906]}}, {"type": "Feature", "properties": {"station": "화순", "line": "경전선", "lines": ["경전선"], "riders": 51}, "geometry": {"type": "Point", "coordinates": [126.963164, 35.051314]}}, {"type": "Feature", "properties": {"station": "북천", "line": "경전선", "lines": ["경전선"], "riders": 52}, "geometry": {"type": "Point", "coordinates": [127.883581, 35.111672]}}, {"type": "Feature", "properties": {"station": "안강", "line": "동해선", "lines": ["동해선"], "riders": 57}, "geometry": {"type": "Point", "coordinates": [129.23342, 35.970507]}}, {"type": "Feature", "properties": {"station": "이원", "line": "경부선", "lines": ["경부선"], "riders": 57}, "geometry": {"type": "Point", "coordinates": [127.618652, 36.243989]}}, {"type": "Feature", "properties": {"station": "반성", "line": "경전선", "lines": ["경전선"], "riders": 62}, "geometry": {"type": "Point", "coordinates": [128.258244, 35.174811]}}, {"type": "Feature", "properties": {"station": "효천", "line": "경전선", "lines": ["경전선"], "riders": 63}, "geometry": {"type": "Point", "coordinates": [126.877049, 35.102968]}}, {"type": "Feature", "properties": {"station": "광양", "line": "경전선", "lines": ["경전선"], "riders": 70}, "geometry": {"type": "Point", "coordinates": [127.587824, 34.956145]}}, {"type": "Feature", "properties": {"station": "예미", "line": "태백선", "lines": ["태백선"], "riders": 70}, "geometry": {"type": "Point", "coordinates": [128.648331, 37.212452]}}, {"type": "Feature", "properties": {"station": "연산", "line": "호남선", "lines": ["호남선"], "riders": 71}, "geometry": {"type": "Point", "coordinates": [127.200931, 36.211955]}}, {"type": "Feature", "properties": {"station": "예천", "line": "경북선", "lines": ["경북선"], "riders": 72}, "geometry": {"type": "Point", "coordinates": [128.443694, 36.647316]}}, {"type": "Feature", "properties": {"station": "추풍령", "line": "경부선", "lines": ["경부선"], "riders": 88}, "geometry": {"type": "Point", "coordinates": [127.996393, 36.21281]}}, {"type": "Feature", "properties": {"station": "지평", "line": "중앙선", "lines": ["중앙선"], "riders": 90}, "geometry": {"type": "Point", "coordinates": [127.629066, 37.47681]}}, {"type": "Feature", "properties": {"station": "판교", "line": "장항선", "lines": ["장항선"], "riders": 96}, "geometry": {"type": "Point", "coordinates": [126.679425, 36.155416]}}, {"type": "Feature", "properties": {"station": "일로", "line": "호남선", "lines": ["호남선"], "riders": 100}, "geometry": {"type": "Point", "coordinates": [126.477091, 34.848541]}}, {"type": "Feature", "properties": {"station": "도고온천", "line": "장항선", "lines": ["장항선"], "riders": 107}, "geometry": {"type": "Point", "coordinates": [126.889546, 36.749536]}}, {"type": "Feature", "properties": {"station": "남창", "line": "동해선", "lines": ["동해선"], "riders": 119}, "geometry": {"type": "Point", "coordinates": [129.282469, 35.419268]}}, {"type": "Feature", "properties": {"station": "백양사", "line": "호남선", "lines": ["호남선"], "riders": 120}, "geometry": {"type": "Point", "coordinates": [126.80776, 35.431719]}}, {"type": "Feature", "properties": {"station": "극락강", "line": "광주선", "lines": ["광주선"], "riders": 133}, "geometry": {"type": "Point", "coordinates": [126.830035, 35.175993]}}, {"type": "Feature", "properties": {"station": "보성", "line": "경전선", "lines": ["경전선"], "riders": 138}, "geometry": {"type": "Point", "coordinates": [127.082139, 34.766769]}}, {"type": "Feature", "properties": {"station": "민둥산", "line": "태백선", "lines": ["태백선", "정선선"], "riders": 142}, "geometry": {"type": "Point", "coordinates": [128.773643, 37.243644]}}, {"type": "Feature", "properties": {"station": "군북", "line": "경전선", "lines": ["경전선"], "riders": 145}, "geometry": {"type": "Point", "coordinates": [128.352026, 35.252105]}}, {"type": "Feature", "properties": {"station": "점촌", "line": "경북선", "lines": ["경북선"], "riders": 162}, "geometry": {"type": "Point", "coordinates": [128.204164, 36.596224]}}, {"type": "Feature", "properties": {"station": "사상", "line": "경부선", "lines": ["경부선"], "riders": 170}, "geometry": {"type": "Point", "coordinates": [128.989003, 35.162485]}}, {"type": "Feature", "properties": {"station": "중리", "line": "경전선", "lines": ["경전선"], "riders": 173}, "geometry": {"type": "Point", "coordinates": [128.519179, 35.24968]}}, {"type": "Feature", "properties": {"station": "서경주", "line": "동해선", "lines": ["동해선"], "riders": 178}, "geometry": {"type": "Point", "coordinates": [129.180864, 35.884692]}}, {"type": "Feature", "properties": {"station": "철암", "line": "영동선", "lines": ["영동선"], "riders": 178}, "geometry": {"type": "Point", "coordinates": [129.036294, 37.113077]}}, {"type": "Feature", "properties": {"station": "오수", "line": "전라선", "lines": ["전라선"], "riders": 184}, "geometry": {"type": "Point", "coordinates": [127.320403, 35.543082]}}, {"type": "Feature", "properties": {"station": "하동", "line": "경전선", "lines": ["경전선"], "riders": 184}, "geometry": {"type": "Point", "coordinates": [127.761612, 35.06388]}}, {"type": "Feature", "properties": {"station": "고한", "line": "태백선", "lines": ["태백선"], "riders": 185}, "geometry": {"type": "Point", "coordinates": [128.852977, 37.20084]}}, {"type": "Feature", "properties": {"station": "분천", "line": "영동선", "lines": ["영동선"], "riders": 185}, "geometry": {"type": "Point", "coordinates": [129.057834, 36.932546]}}, {"type": "Feature", "properties": {"station": "상동", "line": "경부선", "lines": ["경부선"], "riders": 185}, "geometry": {"type": "Point", "coordinates": [128.760404, 35.555717]}}, {"type": "Feature", "properties": {"station": "성환", "line": "경부선", "lines": ["경부선"], "riders": 185}, "geometry": {"type": "Point", "coordinates": [127.126887, 36.915982]}}, {"type": "Feature", "properties": {"station": "전의", "line": "경부선", "lines": ["경부선"], "riders": 186}, "geometry": {"type": "Point", "coordinates": [127.202337, 36.678439]}}, {"type": "Feature", "properties": {"station": "서정리", "line": "경부선", "lines": ["경부선"], "riders": 188}, "geometry": {"type": "Point", "coordinates": [127.052949, 37.057077]}}, {"type": "Feature", "properties": {"station": "황간", "line": "경부선", "lines": ["경부선"], "riders": 188}, "geometry": {"type": "Point", "coordinates": [127.912249, 36.224314]}}, {"type": "Feature", "properties": {"station": "함안", "line": "경전선", "lines": ["경전선"], "riders": 189}, "geometry": {"type": "Point", "coordinates": [128.424658, 35.249325]}}, {"type": "Feature", "properties": {"station": "함열", "line": "호남선", "lines": ["호남선"], "riders": 202}, "geometry": {"type": "Point", "coordinates": [126.95657, 36.080167]}}, {"type": "Feature", "properties": {"station": "함평", "line": "호남선", "lines": ["호남선"], "riders": 202}, "geometry": {"type": "Point", "coordinates": [126.539079, 35.023684]}}, {"type": "Feature", "properties": {"station": "기장", "line": "동해선", "lines": ["동해선"], "riders": 203}, "geometry": {"type": "Point", "coordinates": [129.218874, 35.244435]}}, {"type": "Feature", "properties": {"station": "센텀", "line": "동해선", "lines": ["동해선"], "riders": 203}, "geometry": {"type": "Point", "coordinates": [129.124519, 35.179456]}}, {"type": "Feature", "properties": {"station": "의성", "line": "중앙선", "lines": ["중앙선"], "riders": 203}, "geometry": {"type": "Point", "coordinates": [128.693128, 36.35336]}}, {"type": "Feature", "properties": {"station": "신태인", "line": "호남선", "lines": ["호남선"], "riders": 224}, "geometry": {"type": "Point", "coordinates": [126.884133, 35.687726]}}, {"type": "Feature", "properties": {"station": "임실", "line": "전라선", "lines": ["전라선"], "riders": 226}, "geometry": {"type": "Point", "coordinates": [127.290207, 35.633194]}}, {"type": "Feature", "properties": {"station": "주덕", "line": "충북선", "lines": ["충북선"], "riders": 226}, "geometry": {"type": "Point", "coordinates": [127.802838, 36.973121]}}, {"type": "Feature", "properties": {"station": "영덕", "line": "동해선", "lines": ["동해선"], "riders": 235}, "geometry": {"type": "Point", "coordinates": [129.378329, 36.410254]}}, {"type": "Feature", "properties": {"station": "약목", "line": "경부선", "lines": ["경부선"], "riders": 252}, "geometry": {"type": "Point", "coordinates": [128.364326, 36.037553]}}, {"type": "Feature", "properties": {"station": "덕소", "line": "중앙선", "lines": ["중앙선"], "riders": 256}, "geometry": {"type": "Point", "coordinates": [127.208821, 37.586905]}}, {"type": "Feature", "properties": {"station": "도계", "line": "영동선", "lines": ["영동선"], "riders": 270}, "geometry": {"type": "Point", "coordinates": [129.044289, 37.229393]}}, {"type": "Feature", "properties": {"station": "부강", "line": "경부선", "lines": ["경부선"], "riders": 275}, "geometry": {"type": "Point", "coordinates": [127.365021, 36.532549]}}, {"type": "Feature", "properties": {"station": "삼례", "line": "전라선", "lines": ["전라선"], "riders": 286}, "geometry": {"type": "Point", "coordinates": [127.065949, 35.903912]}}, {"type": "Feature", "properties": {"station": "부발", "line": "중부내륙선", "lines": ["중부내륙선"], "riders": 289}, "geometry": {"type": "Point", "coordinates": [127.490328, 37.260402]}}, {"type": "Feature", "properties": {"station": "장항", "line": "장항선", "lines": ["장항선"], "riders": 295}, "geometry": {"type": "Point", "coordinates": [126.715382, 36.040031]}}, {"type": "Feature", "properties": {"station": "웅천", "line": "장항선", "lines": ["장항선"], "riders": 298}, "geometry": {"type": "Point", "coordinates": [126.606735, 36.235926]}}, {"type": "Feature", "properties": {"station": "신례원", "line": "장항선", "lines": ["장항선"], "riders": 313}, "geometry": {"type": "Point", "coordinates": [126.84957, 36.727154]}}, {"type": "Feature", "properties": {"station": "청주공항", "line": "충북선", "lines": ["충북선"], "riders": 316}, "geometry": {"type": "Point", "coordinates": [127.489637, 36.721799]}}, {"type": "Feature", "properties": {"station": "음성", "line": "충북선", "lines": ["충북선"], "riders": 373}, "geometry": {"type": "Point", "coordinates": [127.703945, 36.925711]}}, {"type": "Feature", "properties": {"station": "둔내", "line": "강릉선", "lines": ["강릉선"], "riders": 383}, "geometry": {"type": "Point", "coordinates": [128.221271, 37.510021]}}, {"type": "Feature", "properties": {"station": "화명", "line": "경부선", "lines": ["경부선"], "riders": 386}, "geometry": {"type": "Point", "coordinates": [129.007631, 35.234456]}}, {"type": "Feature", "properties": {"station": "원동", "line": "경부선", "lines": ["경부선"], "riders": 399}, "geometry": {"type": "Point", "coordinates": [128.920798, 35.362425]}}, {"type": "Feature", "properties": {"station": "풍기", "line": "중앙선", "lines": ["중앙선"], "riders": 452}, "geometry": {"type": "Point", "coordinates": [128.523472, 36.874055]}}, {"type": "Feature", "properties": {"station": "양동", "line": "중앙선", "lines": ["중앙선"], "riders": 453}, "geometry": {"type": "Point", "coordinates": [127.75476, 37.420267]}}, {"type": "Feature", "properties": {"station": "사북", "line": "태백선", "lines": ["태백선"], "riders": 470}, "geometry": {"type": "Point", "coordinates": [128.817034, 37.226167]}}, {"type": "Feature", "properties": {"station": "신해운대", "line": "동해선", "lines": ["동해선"], "riders": 485}, "geometry": {"type": "Point", "coordinates": [129.176824, 35.181736]}}, {"type": "Feature", "properties": {"station": "오산", "line": "경부선", "lines": ["경부선"], "riders": 496}, "geometry": {"type": "Point", "coordinates": [127.066752, 37.145558]}}, {"type": "Feature", "properties": {"station": "서원주", "line": "중앙선", "lines": ["중앙선", "강릉선"], "riders": 500}, "geometry": {"type": "Point", "coordinates": [127.839395, 37.34853]}}, {"type": "Feature", "properties": {"station": "장성", "line": "호남선", "lines": ["호남선"], "riders": 560}, "geometry": {"type": "Point", "coordinates": [126.779682, 35.30012]}}, {"type": "Feature", "properties": {"station": "구례구", "line": "전라선", "lines": ["전라선"], "riders": 591}, "geometry": {"type": "Point", "coordinates": [127.451967, 35.163478]}}, {"type": "Feature", "properties": {"station": "강경", "line": "호남선", "lines": ["호남선"], "riders": 602}, "geometry": {"type": "Point", "coordinates": [127.017272, 36.154837]}}, {"type": "Feature", "properties": {"station": "증평", "line": "충북선", "lines": ["충북선"], "riders": 621}, "geometry": {"type": "Point", "coordinates": [127.583969, 36.778052]}}, {"type": "Feature", "properties": {"station": "서천", "line": "장항선", "lines": ["장항선"], "riders": 629}, "geometry": {"type": "Point", "coordinates": [126.708473, 36.082195]}}, {"type": "Feature", "properties": {"station": "태백", "line": "태백선", "lines": ["태백선"], "riders": 630}, "geometry": {"type": "Point", "coordinates": [128.983997, 37.175912]}}, {"type": "Feature", "properties": {"station": "단양", "line": "중앙선", "lines": ["중앙선"], "riders": 632}, "geometry": {"type": "Point", "coordinates": [128.34404, 36.973104]}}, {"type": "Feature", "properties": {"station": "용문", "line": "중앙선", "lines": ["중앙선"], "riders": 651}, "geometry": {"type": "Point", "coordinates": [127.59465, 37.482229]}}, {"type": "Feature", "properties": {"station": "청주", "line": "충북선", "lines": ["충북선"], "riders": 659}, "geometry": {"type": "Point", "coordinates": [127.392361, 36.647113]}}, {"type": "Feature", "properties": {"station": "삽교", "line": "장항선", "lines": ["장항선"], "riders": 673}, "geometry": {"type": "Point", "coordinates": [126.751531, 36.679822]}}, {"type": "Feature", "properties": {"station": "정동진", "line": "영동선", "lines": ["영동선"], "riders": 673}, "geometry": {"type": "Point", "coordinates": [129.032508, 37.69183]}}, {"type": "Feature", "properties": {"station": "광천", "line": "장항선", "lines": ["장항선"], "riders": 716}, "geometry": {"type": "Point", "coordinates": [126.622414, 36.50176]}}, {"type": "Feature", "properties": {"station": "횡성", "line": "강릉선", "lines": ["강릉선"], "riders": 723}, "geometry": {"type": "Point", "coordinates": [128.010483, 37.482807]}}, {"type": "Feature", "properties": {"station": "곡성", "line": "전라선", "lines": ["전라선"], "riders": 724}, "geometry": {"type": "Point", "coordinates": [127.304458, 35.283456]}}, {"type": "Feature", "properties": {"station": "평창", "line": "강릉선", "lines": ["강릉선"], "riders": 743}, "geometry": {"type": "Point", "coordinates": [128.430034, 37.561957]}}, {"type": "Feature", "properties": {"station": "묵호", "line": "영동선", "lines": ["영동선"], "riders": 745}, "geometry": {"type": "Point", "coordinates": [129.108211, 37.546179]}}, {"type": "Feature", "properties": {"station": "오근장", "line": "충북선", "lines": ["충북선"], "riders": 794}, "geometry": {"type": "Point", "coordinates": [127.477861, 36.699897]}}, {"type": "Feature", "properties": {"station": "삼랑진", "line": "경부선", "lines": ["경부선", "경전선"], "riders": 801}, "geometry": {"type": "Point", "coordinates": [128.843872, 35.39903]}}, {"type": "Feature", "properties": {"station": "김제", "line": "호남선", "lines": ["호남선"], "riders": 1024}, "geometry": {"type": "Point", "coordinates": [126.904218, 35.793162]}}, {"type": "Feature", "properties": {"station": "공주", "line": "호남고속선", "lines": ["호남고속선"], "riders": 1025}, "geometry": {"type": "Point", "coordinates": [127.096637, 36.332237]}}, {"type": "Feature", "properties": {"station": "옥천", "line": "경부선", "lines": ["경부선"], "riders": 1049}, "geometry": {"type": "Point", "coordinates": [127.56535, 36.297748]}}, {"type": "Feature", "properties": {"station": "안양", "line": "경부선", "lines": ["경부선"], "riders": 1057}, "geometry": {"type": "Point", "coordinates": [126.922883, 37.40163]}}, {"type": "Feature", "properties": {"station": "진부", "line": "강릉선", "lines": ["강릉선"], "riders": 1069}, "geometry": {"type": "Point", "coordinates": [128.574822, 37.642569]}}, {"type": "Feature", "properties": {"station": "북울산", "line": "동해선", "lines": ["동해선"], "riders": 1148}, "geometry": {"type": "Point", "coordinates": [129.372449, 35.614869]}}, {"type": "Feature", "properties": {"station": "군산", "line": "장항선", "lines": ["장항선"], "riders": 1185}, "geometry": {"type": "Point", "coordinates": [126.760296, 35.999361]}}, {"type": "Feature", "properties": {"station": "상봉", "line": "중앙선", "lines": ["중앙선"], "riders": 1286}, "geometry": {"type": "Point", "coordinates": [127.085656, 37.597031]}}, {"type": "Feature", "properties": {"station": "부전", "line": "동해선", "lines": ["동해선"], "riders": 1359}, "geometry": {"type": "Point", "coordinates": [129.060107, 35.164601]}}, {"type": "Feature", "properties": {"station": "광주", "line": "광주선", "lines": ["광주선"], "riders": 1396}, "geometry": {"type": "Point", "coordinates": [126.909319, 35.165321]}}, {"type": "Feature", "properties": {"station": "진영", "line": "경전선", "lines": ["경전선"], "riders": 1404}, "geometry": {"type": "Point", "coordinates": [128.77355, 35.298748]}}, {"type": "Feature", "properties": {"station": "온양온천", "line": "장항선", "lines": ["장항선"], "riders": 1639}, "geometry": {"type": "Point", "coordinates": [127.003156, 36.780553]}}, {"type": "Feature", "properties": {"station": "계룡", "line": "호남선", "lines": ["호남선"], "riders": 1662}, "geometry": {"type": "Point", "coordinates": [127.266531, 36.272406]}}, {"type": "Feature", "properties": {"station": "창원", "line": "경전선", "lines": ["경전선"], "riders": 1760}, "geometry": {"type": "Point", "coordinates": [128.607034, 35.258125]}}, {"type": "Feature", "properties": {"station": "동해", "line": "영동선", "lines": ["영동선"], "riders": 1772}, "geometry": {"type": "Point", "coordinates": [129.122602, 37.497575]}}, {"type": "Feature", "properties": {"station": "예산", "line": "장항선", "lines": ["장항선"], "riders": 1846}, "geometry": {"type": "Point", "coordinates": [126.828468, 36.687115]}}, {"type": "Feature", "properties": {"station": "하양", "line": "대구선", "lines": ["대구선"], "riders": 1866}, "geometry": {"type": "Point", "coordinates": [128.81844, 35.909587]}}, {"type": "Feature", "properties": {"station": "영주", "line": "중앙선", "lines": ["중앙선", "영동선", "경북선"], "riders": 1928}, "geometry": {"type": "Point", "coordinates": [128.625578, 36.810944]}}, {"type": "Feature", "properties": {"station": "태화강", "line": "동해선", "lines": ["동해선"], "riders": 1963}, "geometry": {"type": "Point", "coordinates": [129.354011, 35.538809]}}, {"type": "Feature", "properties": {"station": "충주", "line": "충북선", "lines": ["충북선", "중부내륙선"], "riders": 1997}, "geometry": {"type": "Point", "coordinates": [127.908068, 36.975257]}}, {"type": "Feature", "properties": {"station": "영천", "line": "중앙선", "lines": ["중앙선", "대구선"], "riders": 2039}, "geometry": {"type": "Point", "coordinates": [128.938891, 35.959045]}}, {"type": "Feature", "properties": {"station": "아산", "line": "장항선", "lines": ["장항선"], "riders": 2157}, "geometry": {"type": "Point", "coordinates": [127.104453, 36.792097]}}, {"type": "Feature", "properties": {"station": "안동", "line": "중앙선", "lines": ["중앙선"], "riders": 2266}, "geometry": {"type": "Point", "coordinates": [128.674925, 36.574144]}}, {"type": "Feature", "properties": {"station": "남원", "line": "전라선", "lines": ["전라선"], "riders": 2269}, "geometry": {"type": "Point", "coordinates": [127.361333, 35.411251]}}, {"type": "Feature", "properties": {"station": "청도", "line": "경부선", "lines": ["경부선"], "riders": 2323}, "geometry": {"type": "Point", "coordinates": [128.746165, 35.639855]}}, {"type": "Feature", "properties": {"station": "물금", "line": "경부선", "lines": ["경부선"], "riders": 2354}, "geometry": {"type": "Point", "coordinates": [128.985385, 35.306635]}}, {"type": "Feature", "properties": {"station": "여천", "line": "전라선", "lines": ["전라선"], "riders": 2413}, "geometry": {"type": "Point", "coordinates": [127.66445, 34.779462]}}, {"type": "Feature", "properties": {"station": "영동", "line": "경부선", "lines": ["경부선"], "riders": 2510}, "geometry": {"type": "Point", "coordinates": [127.785814, 36.172667]}}, {"type": "Feature", "properties": {"station": "대천", "line": "장항선", "lines": ["장항선"], "riders": 2570}, "geometry": {"type": "Point", "coordinates": [126.586449, 36.341734]}}, {"type": "Feature", "properties": {"station": "홍성", "line": "장항선", "lines": ["장항선"], "riders": 2645}, "geometry": {"type": "Point", "coordinates": [126.681216, 36.599336]}}, {"type": "Feature", "properties": {"station": "진주", "line": "경전선", "lines": ["경전선"], "riders": 2940}, "geometry": {"type": "Point", "coordinates": [128.118349, 35.15012]}}, {"type": "Feature", "properties": {"station": "양평", "line": "중앙선", "lines": ["중앙선"], "riders": 3133}, "geometry": {"type": "Point", "coordinates": [127.491897, 37.492847]}}, {"type": "Feature", "properties": {"station": "만종", "line": "강릉선", "lines": ["강릉선"], "riders": 3156}, "geometry": {"type": "Point", "coordinates": [127.893112, 37.353949]}}, {"type": "Feature", "properties": {"station": "논산", "line": "호남선", "lines": ["호남선"], "riders": 3279}, "geometry": {"type": "Point", "coordinates": [127.092849, 36.206908]}}, {"type": "Feature", "properties": {"station": "나주", "line": "호남선", "lines": ["호남선"], "riders": 3327}, "geometry": {"type": "Point", "coordinates": [126.717485, 35.013927]}}, {"type": "Feature", "properties": {"station": "마산", "line": "경전선", "lines": ["경전선"], "riders": 3406}, "geometry": {"type": "Point", "coordinates": [128.576728, 35.236364]}}, {"type": "Feature", "properties": {"station": "신탄진", "line": "경부선", "lines": ["경부선"], "riders": 3415}, "geometry": {"type": "Point", "coordinates": [127.428166, 36.449632]}}, {"type": "Feature", "properties": {"station": "왜관", "line": "경부선", "lines": ["경부선"], "riders": 3640}, "geometry": {"type": "Point", "coordinates": [128.40048, 35.992049]}}, {"type": "Feature", "properties": {"station": "원주", "line": "중앙선", "lines": ["중앙선"], "riders": 3715}, "geometry": {"type": "Point", "coordinates": [127.922821, 37.316408]}}, {"type": "Feature", "properties": {"station": "정읍", "line": "호남고속선", "lines": ["호남고속선", "호남선"], "riders": 4053}, "geometry": {"type": "Point", "coordinates": [126.841917, 35.575773]}}, {"type": "Feature", "properties": {"station": "서대구", "line": "경부고속선", "lines": ["경부고속선"], "riders": 4191}, "geometry": {"type": "Point", "coordinates": [128.541737, 35.881367]}}, {"type": "Feature", "properties": {"station": "김천", "line": "경부선", "lines": ["경부선", "경북선"], "riders": 4306}, "geometry": {"type": "Point", "coordinates": [128.115032, 36.123844]}}, {"type": "Feature", "properties": {"station": "여수엑스포", "line": "전라선", "lines": ["전라선"], "riders": 4490}, "geometry": {"type": "Point", "coordinates": [127.749239, 34.755514]}}, {"type": "Feature", "properties": {"station": "제천", "line": "중앙선", "lines": ["중앙선", "태백선"], "riders": 4580}, "geometry": {"type": "Point", "coordinates": [128.205964, 37.127074]}}, {"type": "Feature", "properties": {"station": "경산", "line": "경부선", "lines": ["경부선"], "riders": 5339}, "geometry": {"type": "Point", "coordinates": [128.727612, 35.819329]}}, {"type": "Feature", "properties": {"station": "행신", "line": "경의선", "lines": ["경의선"], "riders": 5702}, "geometry": {"type": "Point", "coordinates": [126.834058, 37.612035]}}, {"type": "Feature", "properties": {"station": "밀양", "line": "경부선", "lines": ["경부선"], "riders": 5867}, "geometry": {"type": "Point", "coordinates": [128.771418, 35.474851]}}, {"type": "Feature", "properties": {"station": "창원중앙", "line": "경전선", "lines": ["경전선"], "riders": 6775}, "geometry": {"type": "Point", "coordinates": [128.701605, 35.242572]}}, {"type": "Feature", "properties": {"station": "평택지제", "line": "수서고속선", "lines": ["수서고속선"], "riders": 6862}, "geometry": {"type": "Point", "coordinates": [127.069867, 37.018753]}}, {"type": "Feature", "properties": {"station": "구포", "line": "경부선", "lines": ["경부선"], "riders": 7217}, "geometry": {"type": "Point", "coordinates": [128.997301, 35.205308]}}, {"type": "Feature", "properties": {"station": "목포", "line": "호남선", "lines": ["호남선"], "riders": 7234}, "geometry": {"type": "Point", "coordinates": [126.387645, 34.792134]}}, {"type": "Feature", "properties": {"station": "순천", "line": "전라선", "lines": ["전라선", "경전선"], "riders": 7508}, "geometry": {"type": "Point", "coordinates": [127.50406, 34.945811]}}, {"type": "Feature", "properties": {"station": "김천(구미)", "line": "경부고속선", "lines": ["경부고속선"], "riders": 7530}, "geometry": {"type": "Point", "coordinates": [128.180689, 36.113026]}}, {"type": "Feature", "properties": {"station": "조치원", "line": "경부선", "lines": ["경부선", "충북선"], "riders": 7769}, "geometry": {"type": "Point", "coordinates": [127.295889, 36.60102]}}, {"type": "Feature", "properties": {"station": "강릉", "line": "강릉선", "lines": ["강릉선", "영동선"], "riders": 8220}, "geometry": {"type": "Point", "coordinates": [128.899398, 37.76452]}}, {"type": "Feature", "properties": {"station": "포항", "line": "동해선", "lines": ["동해선"], "riders": 8321}, "geometry": {"type": "Point", "coordinates": [129.342678, 36.071233]}}, {"type": "Feature", "properties": {"station": "전주", "line": "전라선", "lines": ["전라선"], "riders": 9718}, "geometry": {"type": "Point", "coordinates": [127.162365, 35.850054]}}, {"type": "Feature", "properties": {"station": "서대전", "line": "호남선", "lines": ["호남선"], "riders": 9952}, "geometry": {"type": "Point", "coordinates": [127.403122, 36.322477]}}, {"type": "Feature", "properties": {"station": "대구", "line": "경부선", "lines": ["경부선"], "riders": 10140}, "geometry": {"type": "Point", "coordinates": [128.596055, 35.876001]}}, {"type": "Feature", "properties": {"station": "동탄", "line": "수서고속선", "lines": ["수서고속선"], "riders": 10809}, "geometry": {"type": "Point", "coordinates": [127.095576, 37.200359]}}, {"type": "Feature", "properties": {"station": "구미", "line": "경부선", "lines": ["경부선"], "riders": 11030}, "geometry": {"type": "Point", "coordinates": [128.331045, 36.128312]}}, {"type": "Feature", "properties": {"station": "평택", "line": "경부선", "lines": ["경부선"], "riders": 11697}, "geometry": {"type": "Point", "coordinates": [127.085318, 36.990823]}}, {"type": "Feature", "properties": {"station": "천안", "line": "경부선", "lines": ["경부선", "장항선"], "riders": 12082}, "geometry": {"type": "Point", "coordinates": [127.14684, 36.81028]}}, {"type": "Feature", "properties": {"station": "경주", "line": "경부고속선", "lines": ["경부고속선", "동해선", "중앙선"], "riders": 12622}, "geometry": {"type": "Point", "coordinates": [129.138963, 35.798269]}}, {"type": "Feature", "properties": {"station": "울산", "line": "경부고속선", "lines": ["경부고속선"], "riders": 14913}, "geometry": {"type": "Point", "coordinates": [129.13793, 35.551314]}}, {"type": "Feature", "properties": {"station": "청량리", "line": "경원선", "lines": ["경원선", "중앙선"], "riders": 15628}, "geometry": {"type": "Point", "coordinates": [127.048257, 37.580596]}}, {"type": "Feature", "properties": {"station": "익산", "line": "호남고속선", "lines": ["호남고속선", "전라선", "호남선", "장항선"], "riders": 18508}, "geometry": {"type": "Point", "coordinates": [126.945913, 35.941256]}}, {"type": "Feature", "properties": {"station": "영등포", "line": "경부선", "lines": ["경부선"], "riders": 19577}, "geometry": {"type": "Point", "coordinates": [126.906935, 37.515363]}}, {"type": "Feature", "properties": {"station": "광주송정", "line": "호남고속선", "lines": ["호남고속선", "호남선", "광주선", "경전선"], "riders": 23551}, "geometry": {"type": "Point", "coordinates": [126.79011, 35.137707]}}, {"type": "Feature", "properties": {"station": "천안아산", "line": "경부고속선", "lines": ["경부고속선"], "riders": 30580}, "geometry": {"type": "Point", "coordinates": [127.104499, 36.79438]}}, {"type": "Feature", "properties": {"station": "수원", "line": "경부선", "lines": ["경부선"], "riders": 30672}, "geometry": {"type": "Point", "coordinates": [126.99991, 37.26581]}}, {"type": "Feature", "properties": {"station": "오송", "line": "경부고속선", "lines": ["경부고속선", "호남고속선", "충북선"], "riders": 31038}, "geometry": {"type": "Point", "coordinates": [127.327363, 36.62023]}}, {"type": "Feature", "properties": {"station": "광명", "line": "경부고속선", "lines": ["경부고속선"], "riders": 32107}, "geometry": {"type": "Point", "coordinates": [126.884698, 37.41638]}}, {"type": "Feature", "properties": {"station": "용산", "line": "경원선", "lines": ["경원선", "경부선"], "riders": 38475}, "geometry": {"type": "Point", "coordinates": [126.964827, 37.529953]}}, {"type": "Feature", "properties": {"station": "수서", "line": "수서고속선", "lines": ["수서고속선"], "riders": 44639}, "geometry": {"type": "Point", "coordinates": [127.104689, 37.485099]}}, {"type": "Feature", "properties": {"station": "대전", "line": "경부고속선", "lines": ["경부고속선", "경부선"], "riders": 55349}, "geometry": {"type": "Point", "coordinates": [127.434648, 36.332246]}}, {"type": "Feature", "properties": {"station": "부산", "line": "경부고속선", "lines": ["경부고속선", "경부선"], "riders": 60257}, "geometry": {"type": "Point", "coordinates": [129.042587, 35.115553]}}, {"type": "Feature", "properties": {"station": "동대구", "line": "경부고속선", "lines": ["경부고속선", "경부선", "대구선"], "riders": 64703}, "geometry": {"type": "Point", "coordinates": [128.628306, 35.879185]}}, {"type": "Feature", "properties": {"station": "서울", "line": "경부고속선", "lines": ["경부고속선", "경부선", "경의선"], "riders": 108587}, "geometry": {"type": "Point", "coordinates": [126.970779, 37.554555]}}]}